{"type":"FeatureCollection","features":[{"type":"Feature","id":"jwla-034:precision:black-sea-azov-marine","geometry":{"type":"Polygon","coordinates":[[[31.332566666666665,43.45151666666667],[31.410033333333335,44.04795],[31.17495,44.7374],[30.9787,44.77708333333333],[30.040133333333333,45.08923333333333],[29.992716666666666,45.19123333333334],[29.852333333333334,45.18725],[29.765483333333332,45.18096666666667],[29.647813590506114,45.18096666666667],[29.638845,45.195624],[29.623871,45.210273],[29.623871,45.216498],[29.650157,45.217231],[29.659028,45.215888],[29.67449,45.213568],[29.692393,45.216742],[29.708751,45.223334],[29.728038,45.236884],[29.729747,45.237738],[29.728689,45.239325],[29.727712,45.247748],[29.729747,45.258124],[29.741222,45.282213],[29.742931,45.290473],[29.751475,45.304145],[29.754893,45.31269],[29.756196,45.321234],[29.753917,45.364081],[29.750173,45.38581],[29.741873,45.404527],[29.727712,45.415676],[29.747813,45.414293],[29.75587,45.427883],[29.754649,45.447252],[29.747406,45.463446],[29.73227,45.475735],[29.724457,45.468166],[29.719737,45.451361],[29.713227,45.436225],[29.708669,45.452786],[29.702159,45.45661],[29.694347,45.455512],[29.685883,45.457261],[29.686534,45.453559],[29.681488,45.450181],[29.675304,45.449612],[29.672374,45.453843],[29.672374,45.477118],[29.656016,45.474189],[29.653819,45.464016],[29.65561,45.45185],[29.651866,45.44302],[29.640798,45.441799],[29.629649,45.446926],[29.621104,45.454413],[29.605724,45.478176],[29.605154,45.487006],[29.62086,45.49079],[29.62672,45.495063],[29.631684,45.504462],[29.638031,45.513861],[29.648448,45.518134],[29.661632,45.525865],[29.694509,45.562201],[29.707042,45.57331],[29.681163,45.555121],[29.66684,45.548163],[29.648448,45.545396],[29.62908,45.546698],[29.615001,45.550116],[29.589692,45.559068],[29.599376,45.604438],[29.597179,45.652289],[29.603201,45.691311],[29.637543,45.709906],[29.630707,45.721503],[29.625336,45.728258],[29.622732,45.736233],[29.623871,45.751532],[29.629568,45.763495],[29.64796,45.781195],[29.651866,45.789008],[29.648692,45.793606],[29.634613,45.806627],[29.631358,45.813544],[29.633556,45.821357],[29.638194,45.826321],[29.642833,45.827216],[29.647472,45.818549],[29.653331,45.81387],[29.674001,45.801581],[29.677582,45.800198],[29.680431,45.798285],[29.685883,45.792426],[29.693858,45.781317],[29.692231,45.775336],[29.685802,45.767727],[29.67921,45.751532],[29.685313,45.70425],[29.682628,45.696845],[29.705251,45.688422],[29.723969,45.667426],[29.735037,45.64057],[29.733735,45.614325],[29.745942,45.622626],[29.774099,45.629584],[29.789073,45.635443],[29.784353,45.643622],[29.783865,45.646633],[29.786143,45.648912],[29.789073,45.65526],[29.809581,45.648586],[29.826671,45.654242],[29.84254,45.663886],[29.860118,45.668931],[29.865001,45.672349],[29.858246,45.679877],[29.843028,45.69066],[29.816417,45.697699],[29.803233,45.704169],[29.795746,45.717353],[29.802419,45.737494],[29.823741,45.747626],[29.850841,45.751125],[29.874034,45.751532],[29.876801,45.753607],[29.878754,45.758287],[29.881684,45.763007],[29.887706,45.765123],[29.896169,45.763617],[29.896821,45.759914],[29.895763,45.755357],[29.898204,45.751532],[29.919688,45.740546],[29.927419,45.73371],[29.932384,45.724189],[29.939301,45.751532],[29.930186,45.759101],[29.922374,45.769436],[29.917735,45.782904],[29.918712,45.799872],[29.92628,45.813788],[29.935069,45.816148],[29.939138,45.810452],[29.932384,45.799872],[29.932384,45.792426],[29.943044,45.783515],[29.952891,45.771959],[29.958263,45.794623],[29.96046,45.819159],[29.968516,45.838935],[29.990733,45.847073],[30.014659,45.839667],[30.061209,45.813463],[30.069591,45.816718],[30.072439,45.82099],[30.07838,45.819403],[30.084321,45.815619],[30.086681,45.813544],[30.094574,45.814846],[30.096446,45.818427],[30.096853,45.823717],[30.100597,45.830308],[30.102306,45.836859],[30.105805,45.863471],[30.110606,45.875067],[30.118337,45.884508],[30.127452,45.891343],[30.135265,45.889146],[30.140961,45.832953],[30.138438,45.81977],[30.204926,45.855862],[30.261404,45.895494],[30.371267,45.997952],[30.494151,46.080471],[30.503429,46.094387],[30.523285,46.133775],[30.531993,46.141913],[30.547699,46.147773],[30.56186,46.161689],[30.583507,46.190334],[30.653494,46.259589],[30.682384,46.299547],[30.686778,46.309027],[30.686534,46.320014],[30.679373,46.328315],[30.656505,46.339016],[30.651866,46.34455],[30.660655,46.350898],[30.714529,46.347968],[30.731293,46.358588],[30.772472,46.39643],[30.77475,46.400621],[30.783539,46.430854],[30.786794,46.43651],[30.790375,46.441474],[30.792979,46.443549],[30.798188,46.446438],[30.793468,46.452338],[30.785899,46.457261],[30.782074,46.457221],[30.775238,46.477688],[30.758311,46.50259],[30.754893,46.515855],[30.760916,46.524359],[30.790701,46.552924],[30.802582,46.560248],[30.812511,46.560045],[30.854503,46.553412],[30.866954,46.555813],[30.926036,46.584296],[30.939138,46.587714],[30.95045,46.584133],[30.959239,46.583401],[30.982432,46.597398],[30.991384,46.601264],[31.013031,46.603339],[31.054535,46.612738],[31.108165,46.617743],[31.159516,46.628974],[31.18686,46.629136],[31.256684,46.6164],[31.275564,46.607408],[31.28297,46.614895],[31.295746,46.608873],[31.323904,46.606147],[31.337657,46.601264],[31.352224,46.60932],[31.396658,46.626044],[31.416189,46.629136],[31.428559,46.637641],[31.462657,46.675238],[31.478201,46.683783],[31.479666,46.687201],[31.498302,46.707668],[31.50587,46.720404],[31.502126,46.727729],[31.470714,46.745347],[31.461925,46.748684],[31.455821,46.754584],[31.453787,46.76911],[31.451915,46.775458],[31.440684,46.800482],[31.456065,46.796047],[31.466807,46.783596],[31.481619,46.758857],[31.495616,46.750718],[31.508311,46.745185],[31.519542,46.747463],[31.52296,46.750312],[31.524181,46.754055],[31.543468,46.774848],[31.549327,46.779975],[31.557384,46.783637],[31.576671,46.789374],[31.583995,46.793647],[31.591319,46.805976],[31.59783,46.820461],[31.60613,46.826402],[31.618175,46.813463],[31.572113,46.766303],[31.559825,46.758857],[31.560232,46.749091],[31.546153,46.727607],[31.490896,46.663398],[31.480968,46.64643],[31.485037,46.63227],[31.493012,46.62873],[31.504161,46.627997],[31.525401,46.629136],[31.534516,46.627183],[31.548513,46.618069],[31.556814,46.614895],[31.578868,46.617336],[31.588715,46.629584],[31.597179,46.643215],[31.614431,46.649604],[31.674083,46.653225],[31.771495,46.627509],[31.814708,46.623033],[31.858409,46.629136],[31.870128,46.633124],[31.8921,46.643622],[31.899425,46.649604],[31.908539,46.662746],[31.907481,46.669176],[31.902354,46.676988],[31.899425,46.693996],[31.906749,46.738227],[31.902843,46.745185],[31.865245,46.779975],[31.864757,46.806586],[31.877452,46.828274],[31.898611,46.842922],[31.923188,46.848293],[31.945079,46.859524],[31.96339,46.885688],[31.97283,46.915351],[31.968272,46.936998],[31.947602,46.928168],[31.925629,46.922919],[31.907725,46.926459],[31.899425,46.943834],[31.904307,46.960517],[31.917735,46.976264],[31.947113,46.999091],[31.914073,47.003079],[31.868988,46.998847],[31.837413,47.00845],[31.844737,47.053697],[31.852306,47.060533],[31.866466,47.077053],[31.874278,47.093817],[31.861827,47.101508],[31.856619,47.103664],[31.851573,47.108344],[31.844737,47.112982],[31.819998,47.117092],[31.815603,47.122626],[31.816254,47.180854],[31.806163,47.192694],[31.761729,47.200507],[31.742442,47.209174],[31.726817,47.220526],[31.720551,47.231879],[31.723806,47.237494],[31.737804,47.255357],[31.74171,47.259101],[31.752126,47.255845],[31.753266,47.248521],[31.748546,47.228461],[31.75766,47.216213],[31.816742,47.197089],[31.830577,47.186754],[31.834483,47.178941],[31.834727,47.168199],[31.837901,47.149237],[31.845551,47.134019],[31.855724,47.129625],[31.868175,47.127346],[31.882335,47.118598],[31.896821,47.092719],[31.89324,47.068427],[31.865245,47.026353],[31.881114,47.015041],[31.900157,47.013617],[31.943696,47.018948],[31.970958,47.016343],[31.976899,47.009345],[31.968923,46.998684],[31.93922,46.967963],[31.935883,46.95482],[31.946056,46.946682],[31.995942,46.940375],[32.006684,46.930487],[32.007498,46.915229],[32.002452,46.895453],[31.9817,46.860338],[31.954763,46.831448],[31.936209,46.80036],[31.940278,46.758857],[31.950206,46.741767],[31.961436,46.727607],[31.970714,46.712877],[31.974457,46.693996],[31.979828,46.677069],[31.992931,46.657416],[32.008962,46.639797],[32.022797,46.629136],[32.039561,46.623481],[32.101085,46.614895],[32.117931,46.606879],[32.132091,46.570299],[32.146332,46.560248],[32.169932,46.580756],[32.180186,46.581773],[32.199718,46.586493],[32.210948,46.587592],[32.220063,46.590725],[32.236827,46.604438],[32.24822,46.607408],[32.253754,46.604722],[32.269298,46.587592],[32.335785,46.562161],[32.409028,46.568915],[32.543712,46.621731],[32.567393,46.618476],[32.594574,46.628323],[32.621837,46.641791],[32.645518,46.649604],[32.6338,46.633124],[32.619395,46.623521],[32.60377,46.615709],[32.58839,46.604315],[32.570974,46.596422],[32.52475,46.592719],[32.505707,46.584133],[32.43572,46.543158],[32.408376,46.517279],[32.427013,46.498847],[32.399669,46.478339],[32.361013,46.466864],[32.317556,46.464342],[32.276134,46.470893],[32.221528,46.495429],[32.111664,46.512437],[32.091156,46.512844],[32.033458,46.506293],[31.947113,46.519273],[31.861827,46.519273],[31.851736,46.521959],[31.847911,46.523017],[31.790212,46.547268],[31.756358,46.554267],[31.581554,46.545233],[31.566661,46.55036],[31.540294,46.570054],[31.508311,46.587592],[31.524425,46.564195],[31.641449,46.482082],[31.655772,46.478339],[31.663585,46.472113],[31.686534,46.429877],[31.685069,46.461371],[31.686534,46.470893],[31.690278,46.478583],[31.695974,46.484117],[31.710704,46.495429],[31.72641,46.500881],[31.748546,46.499945],[31.771658,46.495836],[31.910655,46.455878],[31.9546,46.450995],[31.99171,46.453559],[32.007823,46.448961],[32.053559,46.405992],[32.06186,46.393785],[32.055186,46.39057],[32.041677,46.390855],[32.029633,46.388983],[31.977306,46.355292],[31.968272,46.35106],[31.892589,46.341132],[31.837413,46.349555],[31.816742,46.347968],[31.799815,46.342231],[31.779959,46.331773],[31.767345,46.318183],[31.772472,46.30268],[31.785899,46.292385],[31.801117,46.285061],[31.819184,46.280585],[31.882335,46.27912],[31.889903,46.28384],[31.88795,46.295152],[31.884044,46.308661],[31.885753,46.320014],[31.968435,46.275702],[32.018077,46.257514],[32.050141,46.266059],[32.077891,46.249498],[32.115408,46.214545],[32.128673,46.209703],[32.142589,46.207994],[32.187348,46.196723],[32.213145,46.193061],[32.239268,46.195258],[32.269298,46.204576],[32.266775,46.19481],[32.260916,46.188625],[32.241954,46.176663],[32.247406,46.170722],[32.25172,46.156887],[32.255626,46.149359],[32.257335,46.144965],[32.260509,46.132148],[32.262462,46.128241],[32.267751,46.126614],[32.280528,46.12759],[32.302501,46.116685],[32.503429,46.076117],[32.543712,46.080471],[32.551036,46.084296],[32.567556,46.096584],[32.57781,46.101549],[32.588227,46.104397],[32.714041,46.120063],[32.751313,46.133043],[32.766287,46.135688],[32.789806,46.134345],[32.844574,46.121405],[32.853201,46.120347],[32.87615,46.121405],[32.88266,46.120673],[32.891612,46.116685],[32.899262,46.11522],[32.913097,46.11518],[33.01824,46.127672],[33.032481,46.141018],[33.023448,46.169867],[33.081798,46.149359],[33.103282,46.138373],[33.112804,46.135688],[33.122895,46.135891],[33.135509,46.140692],[33.14324,46.141913],[33.175059,46.153144],[33.194998,46.178697],[33.211925,46.206285],[33.235118,46.223822],[33.225352,46.15412],[33.221853,46.141506],[33.21461,46.128241],[33.293468,46.135688],[33.315684,46.131008],[33.317719,46.119696],[33.306895,46.106147],[33.290294,46.094713],[33.296397,46.093573],[33.301443,46.093655],[33.305837,46.092353],[33.310802,46.087307],[33.331065,46.107489],[33.357758,46.103827],[33.384288,46.087592],[33.415294,46.058092],[33.423839,46.05329],[33.485525,46.053168],[33.506358,46.04682],[33.516287,46.046332],[33.495779,46.067857],[33.505626,46.080268],[33.531261,46.085924],[33.557872,46.087307],[33.557872,46.094713],[33.531261,46.106879],[33.532481,46.121527],[33.549815,46.13642],[33.571544,46.149359],[33.596528,46.155748],[33.613455,46.145209],[33.643565,46.104682],[33.648448,46.090033],[33.638845,46.078315],[33.62794,46.067816],[33.629568,46.056586],[33.642263,46.022162],[33.643565,46.01496],[33.636485,46.006415],[33.631114,45.996527],[33.632009,45.988267],[33.643565,45.984931],[33.646821,45.979722],[33.638438,45.968248],[33.619884,45.950751],[33.632009,45.944403],[33.639008,45.947333],[33.645844,45.953559],[33.657237,45.956936],[33.682465,45.958441],[33.739594,45.947821],[33.758637,45.940863],[33.777029,45.929633],[33.759451,45.922268],[33.725271,45.916083],[33.708669,45.909735],[33.693533,45.914496],[33.691091,45.896226],[33.693126,45.872545],[33.691661,45.860745],[33.670177,45.858547],[33.658946,45.85932],[33.654063,45.864447],[33.650564,45.870673],[33.641612,45.876044],[33.630382,45.880032],[33.619884,45.881822],[33.610199,45.880764],[33.598643,45.877387],[33.57838,45.86815],[33.55421,45.847073],[33.530121,45.841864],[33.519867,45.840888],[33.50766,45.842963],[33.489513,45.852362],[33.482188,45.854478],[33.46697,45.850084],[33.424978,45.830959],[33.410004,45.826606],[33.379649,45.803046],[33.374278,45.796536],[33.338145,45.785631],[33.265391,45.753811],[33.230154,45.750922],[33.194835,45.765123],[33.178559,45.78026],[33.1692,45.78441],[33.160655,45.778795],[33.15919,45.7685],[33.166759,45.7626],[33.176443,45.758938],[33.181,45.755194],[33.176117,45.743109],[33.163422,45.736274],[32.936778,45.662502],[32.868175,45.630072],[32.837738,45.6081],[32.83074,45.60102],[32.826996,45.595526],[32.82488,45.586982],[32.826427,45.579413],[32.829763,45.570217],[32.827891,45.562405],[32.813975,45.559068],[32.802419,45.560248],[32.783051,45.565375],[32.77296,45.566555],[32.757823,45.564643],[32.749766,45.559638],[32.743826,45.552883],[32.734711,45.545396],[32.72047,45.53734],[32.704845,45.531073],[32.686209,45.527004],[32.663097,45.52558],[32.643565,45.521674],[32.525157,45.458157],[32.495128,45.435533],[32.481619,45.408881],[32.48585,45.394924],[32.512869,45.340562],[32.535411,45.338039],[32.57016,45.325181],[32.591482,45.320136],[32.663097,45.320136],[32.677419,45.325995],[32.712738,45.353176],[32.728526,45.36107],[32.750173,45.363349],[32.899262,45.354234],[32.940603,45.342515],[32.976573,45.32567],[33.043224,45.285346],[33.051768,45.281643],[33.069347,45.276557],[33.078624,45.271674],[33.090017,45.256659],[33.098481,45.248114],[33.123302,45.23786],[33.158376,45.206773],[33.173595,45.196601],[33.218516,45.187445],[33.240082,45.179633],[33.24936,45.165595],[33.259613,45.156073],[33.282563,45.160549],[33.317638,45.175482],[33.355154,45.185736],[33.396495,45.189765],[33.413422,45.184516],[33.469086,45.14883],[33.537446,45.117377],[33.562511,45.09394],[33.57838,45.053209],[33.581798,45.027493],[33.585216,45.018459],[33.602794,44.993394],[33.605642,44.987454],[33.608572,44.970608],[33.61964,44.931464],[33.619884,44.908637],[33.616059,44.889106],[33.609223,44.871731],[33.598318,44.85932],[33.559581,44.849758],[33.546072,44.8369],[33.537364,44.818996],[33.530528,44.798774],[33.52768,44.793199],[33.524181,44.7897],[33.516287,44.785102],[33.525157,44.772406],[33.530447,44.75731],[33.536794,44.729804],[33.546723,44.70954],[33.54835,44.698676],[33.5442,44.682685],[33.535655,44.672187],[33.523611,44.661444],[33.514822,44.649115],[33.516287,44.634263],[33.525157,44.628852],[33.557791,44.624335],[33.571544,44.620551],[33.551117,44.614651],[33.500011,44.613918],[33.485525,44.610338],[33.477387,44.606635],[33.466482,44.60578],[33.444998,44.60692],[33.435883,44.605292],[33.413829,44.593329],[33.405447,44.590237],[33.375011,44.585395],[33.371104,44.588446],[33.371349,44.587958],[33.372325,44.576483],[33.379649,44.564521],[33.487153,44.510321],[33.499522,44.5008],[33.517589,44.490546],[33.539073,44.491604],[33.560395,44.496283],[33.57838,44.497056],[33.590017,44.490058],[33.620128,44.462226],[33.62615,44.45303],[33.631684,44.434312],[33.645356,44.425116],[33.720958,44.399644],[33.741222,44.395901],[33.807628,44.39468],[33.818614,44.395982],[33.83961,44.40119],[33.852061,44.401516],[33.914887,44.383775],[33.937755,44.381049],[33.957856,44.383002],[34.065766,44.419623],[34.088715,44.422024],[34.10255,44.425116],[34.136485,44.441962],[34.147472,44.449897],[34.160818,44.466457],[34.170095,44.481635],[34.182465,44.492825],[34.229828,44.499905],[34.242931,44.507473],[34.26352,44.531887],[34.266124,44.535834],[34.265798,44.538967],[34.266124,44.541938],[34.271007,44.545478],[34.275401,44.546373],[34.286143,44.545396],[34.300304,44.5456],[34.322765,44.543524],[34.331309,44.545478],[34.341156,44.558498],[34.380219,44.631334],[34.414317,44.673774],[34.424001,44.682685],[34.429373,44.689643],[34.469005,44.729804],[34.473318,44.730292],[34.474376,44.728909],[34.474376,44.726386],[34.475271,44.723619],[34.500011,44.742621],[34.533214,44.752916],[34.613048,44.765204],[34.650645,44.777289],[34.720958,44.810981],[34.757009,44.820502],[34.826508,44.811835],[34.842621,44.816718],[34.857188,44.823717],[34.889903,44.818101],[34.907888,44.820502],[34.916026,44.825344],[34.922618,44.830878],[34.930186,44.836127],[34.942068,44.840277],[34.952485,44.841539],[34.986013,44.840277],[35.005707,44.835191],[35.017833,44.823188],[35.027029,44.809394],[35.037608,44.798774],[35.080821,44.793769],[35.108409,44.824937],[35.129731,44.868598],[35.154307,44.901109],[35.171886,44.907172],[35.215099,44.914374],[35.233165,44.925686],[35.256033,44.958686],[35.273204,44.966986],[35.298188,44.956366],[35.304942,44.960924],[35.315278,44.966051],[35.319347,44.970038],[35.367198,44.943345],[35.360606,44.973578],[35.362153,44.986558],[35.374034,44.997992],[35.389415,45.001939],[35.42213,45.000434],[35.435395,45.004828],[35.435395,45.010972],[35.406505,45.020087],[35.400645,45.024644],[35.397309,45.035061],[35.400401,45.042873],[35.405528,45.050971],[35.408051,45.062486],[35.416759,45.070868],[35.469574,45.10102],[35.506196,45.113511],[35.547374,45.119696],[35.590587,45.119859],[35.634044,45.114691],[35.706391,45.094672],[35.771169,45.065619],[35.783214,45.057522],[35.812999,45.031643],[35.819021,45.021552],[35.82781,44.999213],[35.847992,44.992418],[35.91684,45.00141],[35.993419,44.997992],[36.008474,45.009752],[36.025401,45.032904],[36.047862,45.048774],[36.079112,45.038967],[36.079112,45.046373],[36.135997,45.02143],[36.22462,45.007514],[36.244314,45.010972],[36.24822,45.016099],[36.253917,45.033189],[36.257823,45.038967],[36.267751,45.043687],[36.278494,45.045844],[36.367849,45.048774],[36.440115,45.06745],[36.45338,45.076483],[36.455333,45.09162],[36.442231,45.106513],[36.414806,45.128363],[36.408865,45.149482],[36.409434,45.171129],[36.417979,45.229926],[36.426036,45.251532],[36.437266,45.27204],[36.450369,45.285346],[36.459321,45.287746],[36.482107,45.288804],[36.490571,45.292182],[36.497244,45.300727],[36.494395,45.305243],[36.487966,45.309312],[36.484386,45.316392],[36.489268,45.33633],[36.502452,45.346869],[36.521821,45.349921],[36.545177,45.347398],[36.57488,45.336086],[36.586192,45.333808],[36.598318,45.334296],[36.63087,45.340562],[36.638357,45.351264],[36.631114,45.374742],[36.613536,45.408881],[36.598806,45.42121],[36.583263,45.427395],[36.566661,45.425198],[36.548595,45.412299],[36.53297,45.408922],[36.51588,45.419745],[36.490571,45.44302],[36.470551,45.445787],[36.411794,45.436225],[36.391368,45.439643],[36.35963,45.454495],[36.340505,45.457261],[36.329763,45.45425],[36.321056,45.448391],[36.311697,45.443508],[36.298839,45.44302],[36.307384,45.460924],[36.299978,45.473334],[36.284028,45.47663],[36.267833,45.467231],[36.252452,45.461493],[36.137462,45.462063],[36.117931,45.457099],[36.096365,45.441962],[36.068858,45.429999],[36.065278,45.425482],[36.051768,45.395209],[36.022309,45.368109],[35.986013,45.362738],[35.946625,45.372138],[35.871104,45.40412],[35.854015,45.414008],[35.846934,45.426256],[35.852224,45.444159],[35.860037,45.45954],[35.857677,45.469428],[35.833263,45.470893],[35.817149,45.464057],[35.803966,45.449164],[35.794932,45.430569],[35.791759,45.412299],[35.788422,45.407457],[35.772716,45.392279],[35.767426,45.388983],[35.75294,45.38642],[35.748546,45.379706],[35.747406,45.370754],[35.743337,45.36107],[35.715994,45.340562],[35.694998,45.33039],[35.517833,45.295478],[35.480724,45.297797],[35.332205,45.371243],[35.044444,45.670071],[34.958181,45.789537],[34.90504,45.888617],[34.895193,45.901028],[34.883474,45.912828],[34.87436,45.926093],[34.838552,46.047553],[34.828949,46.063422],[34.824229,46.077948],[34.819102,46.141913],[34.813243,46.158271],[34.81129,46.166246],[34.812266,46.176663],[34.817638,46.186225],[34.835134,46.203192],[34.838878,46.207668],[34.882172,46.221747],[34.885427,46.231391],[34.886567,46.242743],[34.893565,46.251776],[34.904796,46.255683],[34.907237,46.251654],[34.908051,46.244289],[34.914073,46.238105],[34.926524,46.235053],[34.936046,46.235419],[35.030772,46.251776],[35.075043,46.271064],[35.105072,46.295071],[35.108409,46.297756],[35.167817,46.361029],[35.201508,46.385321],[35.209483,46.39643],[35.213715,46.411811],[35.210704,46.420152],[35.205089,46.427558],[35.201996,46.440497],[35.192068,46.455064],[35.174001,46.473334],[35.166677,46.49315],[35.188324,46.512437],[35.191417,46.494289],[35.201671,46.476304],[35.21461,46.462633],[35.230317,46.455512],[35.243175,46.446967],[35.250499,46.443549],[35.260916,46.441596],[35.27711,46.440741],[35.284516,46.437405],[35.264496,46.399807],[35.258556,46.373358],[35.267589,46.35106],[35.291759,46.336412],[35.311534,46.337633],[35.328868,46.348049],[35.346039,46.361029],[35.342133,46.335761],[35.32781,46.319241],[35.291352,46.293362],[35.262218,46.25731],[35.251801,46.24022],[35.227875,46.221747],[35.20045,46.18301],[35.148936,46.16413],[35.044444,46.141913],[35.049083,46.132066],[35.051931,46.128241],[35.0171,46.112779],[34.985362,46.08747],[34.982107,46.077826],[35.000011,46.073635],[35.038585,46.086086],[35.062266,46.098619],[35.096528,46.104193],[35.121104,46.118476],[35.161794,46.128241],[35.184744,46.145494],[35.209483,46.169867],[35.26352,46.242255],[35.279552,46.255154],[35.284516,46.259223],[35.380138,46.368476],[35.39503,46.378607],[35.430024,46.395575],[35.445486,46.405992],[35.475759,46.435696],[35.491466,46.447984],[35.510509,46.457221],[35.628673,46.498481],[35.661306,46.519273],[35.741954,46.584418],[35.771169,46.601264],[35.827159,46.623358],[35.901622,46.652737],[35.925548,46.652289],[36.062022,46.670111],[36.134451,46.662665],[36.171723,46.668606],[36.189464,46.669013],[36.209972,46.662665],[36.216645,46.658677],[36.221853,46.654039],[36.230642,46.642157],[36.232921,46.640692],[36.244314,46.635321],[36.244477,46.63052],[36.243337,46.624091],[36.240733,46.61994],[36.245779,46.610826],[36.246755,46.612738],[36.247895,46.619045],[36.257823,46.621731],[36.267589,46.625556],[36.271169,46.622219],[36.270844,46.607408],[36.278331,46.607408],[36.284353,46.63642],[36.303477,46.659247],[36.371104,46.708441],[36.400157,46.723944],[36.432465,46.734849],[36.482677,46.741685],[36.524099,46.758857],[36.590017,46.758857],[36.59783,46.762152],[36.605968,46.769436],[36.617035,46.776679],[36.633962,46.779975],[36.661632,46.773749],[36.67921,46.773017],[36.696056,46.779975],[36.710134,46.772773],[36.742849,46.764716],[36.758067,46.758857],[36.794281,46.729193],[36.802501,46.724758],[36.802257,46.707017],[36.790294,46.671291],[36.771658,46.643459],[36.751231,46.649604],[36.743826,46.649604],[36.743826,46.642157],[36.769298,46.637397],[36.793712,46.653632],[36.812266,46.680569],[36.819591,46.707668],[36.8296,46.731879],[36.849132,46.754462],[36.862478,46.776923],[36.853689,46.800482],[36.886241,46.804023],[36.938813,46.839504],[36.973806,46.848293],[36.984874,46.852484],[37.017751,46.871283],[37.028819,46.875556],[37.04656,46.877753],[37.162283,46.909084],[37.208181,46.93358],[37.227061,46.936998],[37.260753,46.932685],[37.295421,46.920233],[37.317393,46.900824],[37.312999,46.875556],[37.335216,46.882473],[37.351736,46.898749],[37.37794,46.933905],[37.482921,47.035956],[37.546397,47.08161],[37.58074,47.090399],[37.710297,47.074164],[37.753266,47.075263],[37.861095,47.101508],[37.95045,47.091254],[37.962087,47.095933],[37.987641,47.091946],[38.026215,47.08161],[38.035167,47.084296],[38.061046,47.094957],[38.06658,47.09809],[38.071544,47.099799],[38.10434,47.08161],[38.130056,47.074652],[38.130382,47.058417],[38.108084,47.026353],[38.142263,47.037665],[38.1963,47.089504],[38.216482,47.103095],[38.216645,47.103258],[38.224132,47.108344],[38.265391,47.118801],[38.427908,47.133531],[38.448985,47.140286],[38.458181,47.152655],[38.462657,47.161811],[38.473318,47.16942],[38.485525,47.174628],[38.494884,47.176581],[38.500499,47.181586],[38.519054,47.210761],[38.553396,47.229804],[38.594574,47.241278],[38.755138,47.259101],[38.773448,47.258246],[38.782888,47.259101],[38.789561,47.2626],[38.802013,47.280911],[38.810395,47.287828],[38.820649,47.286444],[38.821137,47.276313],[38.807791,47.262641],[38.789561,47.250637],[38.775645,47.24551],[38.592621,47.229682],[38.559906,47.218207],[38.550792,47.209296],[38.531016,47.182318],[38.522472,47.176581],[38.509613,47.171617],[38.494395,47.148993],[38.478038,47.142483],[38.492931,47.128079],[38.517426,47.119045],[38.54477,47.114814],[38.568044,47.11518],[38.568044,47.122016],[38.561697,47.125067],[38.558767,47.127916],[38.556814,47.131171],[38.553071,47.135647],[38.625499,47.135647],[38.645274,47.137763],[38.682872,47.147162],[38.719249,47.15119],[38.772227,47.16356],[38.828868,47.162014],[38.847423,47.16356],[38.861664,47.168606],[38.873302,47.175442],[38.886567,47.181464],[38.931651,47.185004],[38.937755,47.189765],[38.93393,47.201077],[38.930512,47.221625],[38.944591,47.252753],[38.976817,47.256903],[39.013438,47.254462],[39.040375,47.266018],[39.048106,47.26675],[39.073253,47.281684],[39.088145,47.286444],[39.102306,47.283515],[39.119884,47.277045],[39.138845,47.273424],[39.156505,47.27969],[39.186046,47.268744],[39.227387,47.267239],[39.264008,47.26081],[39.28004,47.235256],[39.281586,47.205268],[39.28004,47.197089],[39.27296,47.191799],[39.263927,47.191474],[39.256033,47.189765],[39.252615,47.180325],[39.249197,47.148139],[39.254568,47.140123],[39.273204,47.135647],[39.261974,47.107611],[39.264903,47.096625],[39.28004,47.087836],[39.306651,47.11225],[39.329356,47.128363],[39.354666,47.131049],[39.388682,47.11518],[39.367849,47.106147],[39.325043,47.098782],[39.303559,47.084703],[39.296153,47.068996],[39.289399,47.027289],[39.28004,47.012763],[39.261892,47.008612],[39.153087,47.026353],[39.146739,47.023871],[39.137706,47.018622],[39.12672,47.013821],[39.114919,47.012763],[39.104991,47.016791],[39.097423,47.029039],[39.088145,47.033189],[39.075206,47.03266],[39.067149,47.027574],[39.060232,47.021715],[39.036306,47.013658],[38.991384,46.977973],[38.957286,46.956488],[38.937348,46.947455],[38.919607,46.943834],[38.881114,46.946275],[38.865733,46.942939],[38.847423,46.930813],[38.820323,46.904242],[38.803722,46.893541],[38.766287,46.886786],[38.711436,46.868109],[38.690929,46.863837],[38.60906,46.859687],[38.57309,46.850287],[38.553071,46.848293],[38.47462,46.861884],[38.457693,46.857489],[38.435313,46.846747],[38.414724,46.833319],[38.403005,46.82095],[38.401541,46.811347],[38.404552,46.789455],[38.403005,46.779975],[38.396169,46.774726],[38.37322,46.762397],[38.368175,46.755439],[38.369395,46.744086],[38.37436,46.729315],[38.378184,46.708157],[38.383556,46.713813],[38.388438,46.725775],[38.389334,46.731594],[38.427989,46.744859],[38.470551,46.743476],[38.513438,46.732489],[38.553071,46.717271],[38.566742,46.709947],[38.585785,46.695868],[38.598155,46.677924],[38.591645,46.659247],[38.57545,46.653795],[38.46225,46.646959],[38.31365,46.676337],[38.306895,46.683173],[38.29005,46.706122],[38.289317,46.711086],[38.279959,46.725775],[38.271739,46.732367],[38.261485,46.728176],[38.230968,46.704291],[38.213878,46.696194],[38.194347,46.692125],[38.145763,46.690619],[38.123302,46.686469],[38.103689,46.675971],[38.070323,46.645941],[38.036794,46.629462],[37.98227,46.617499],[37.924653,46.615546],[37.881602,46.629136],[37.852224,46.622504],[37.810395,46.639594],[37.76824,46.663275],[37.737559,46.676337],[37.736501,46.673774],[37.736583,46.67121],[37.735362,46.669623],[37.730724,46.670111],[37.730724,46.662665],[37.755138,46.645941],[37.767751,46.617621],[37.776541,46.5869],[37.802094,46.538804],[37.812999,46.505683],[37.827322,46.476508],[37.850597,46.464057],[37.862966,46.454779],[37.90504,46.411038],[37.970958,46.361802],[37.995372,46.354438],[38.018728,46.368476],[38.010102,46.372545],[37.977794,46.382148],[37.974946,46.394273],[37.980642,46.400336],[37.990733,46.402411],[38.067882,46.401435],[38.087657,46.39643],[38.122895,46.377509],[38.217296,46.305732],[38.252452,46.288275],[38.271251,46.274156],[38.27947,46.25552],[38.28533,46.232123],[38.300059,46.218655],[38.556814,46.11518],[38.570811,46.104682],[38.57602,46.087348],[38.573497,46.064195],[38.566742,46.04328],[38.559906,46.03266],[38.549978,46.031195],[38.539073,46.033596],[38.52589,46.038804],[38.513845,46.037909],[38.492442,46.033637],[38.481781,46.03266],[38.445811,46.034247],[38.427419,46.038275],[38.40919,46.046332],[38.354503,46.082465],[38.319591,46.093451],[38.271983,46.135688],[38.24879,46.141547],[38.22755,46.13817],[38.207286,46.131781],[38.186697,46.128241],[38.167491,46.12051],[38.16212,46.101955],[38.162771,46.060004],[38.156261,46.047756],[38.147146,46.040473],[38.138927,46.030097],[38.131196,45.990058],[38.121104,45.97134],[38.108653,45.95661],[38.097504,45.950751],[38.096528,45.940253],[38.073985,45.881822],[38.049815,45.854885],[38.046886,45.840888],[38.060313,45.826606],[38.039561,45.816067],[38.014496,45.818427],[38.001231,45.832587],[38.01531,45.857611],[38.054698,45.889228],[38.073009,45.908759],[38.080821,45.929633],[38.080333,45.946357],[38.077973,45.952094],[38.063487,45.950751],[38.046153,45.953599],[38.04184,45.961086],[38.046072,45.981431],[38.051443,45.992621],[38.072276,46.013739],[38.073985,46.025214],[38.066254,46.032538],[38.054861,46.03266],[38.032481,46.025214],[38.039806,46.033881],[38.047048,46.03856],[38.087901,46.052965],[38.097504,46.057807],[38.091075,46.060004],[38.037852,46.056545],[37.971853,46.040025],[37.940115,46.020331],[37.918712,45.9914],[37.902029,45.950751],[37.874848,45.84101],[37.861095,45.806098],[37.84311,45.77261],[37.829438,45.75316],[37.816417,45.744615],[37.800629,45.741441],[37.763682,45.724758],[37.674001,45.671942],[37.66684,45.669013],[37.66684,45.663764],[37.676036,45.649115],[37.684825,45.641913],[37.693858,45.639146],[37.700694,45.63467],[37.702891,45.621772],[37.698253,45.623765],[37.682302,45.627997],[37.678884,45.610785],[37.670909,45.609687],[37.652517,45.623969],[37.641938,45.635443],[37.614594,45.642279],[37.631114,45.648993],[37.634776,45.660712],[37.626475,45.66828],[37.607921,45.662746],[37.60141,45.652899],[37.595063,45.635321],[37.587413,45.600653],[37.586192,45.567816],[37.593923,45.508857],[37.594249,45.477118],[37.586436,45.443508],[37.586274,45.43244],[37.594249,45.422553],[37.608246,45.415839],[37.619151,45.418402],[37.627778,45.428168],[37.640798,45.455959],[37.641938,45.504462],[37.644216,45.505072],[37.648692,45.504218],[37.653087,45.504381],[37.65504,45.508205],[37.653982,45.512763],[37.651541,45.516343],[37.649181,45.518297],[37.648204,45.518134],[37.646658,45.527086],[37.643403,45.534654],[37.639171,45.540758],[37.635102,45.545396],[37.635102,45.552883],[37.642833,45.553778],[37.662446,45.559068],[37.662446,45.566555],[37.636404,45.57099],[37.623302,45.585883],[37.623057,45.601386],[37.635102,45.6081],[37.642751,45.603502],[37.649425,45.584947],[37.658702,45.580797],[37.66863,45.578803],[37.681,45.574042],[37.692638,45.568183],[37.699718,45.562812],[37.702647,45.543158],[37.687022,45.493842],[37.686046,45.484036],[37.699718,45.479315],[37.728363,45.457465],[37.744395,45.450426],[37.744395,45.44302],[37.733897,45.446194],[37.715099,45.454495],[37.702891,45.457261],[37.707693,45.436916],[37.71754,45.426663],[37.723481,45.414618],[37.717052,45.388983],[37.729828,45.390815],[37.747406,45.399075],[37.758067,45.402045],[37.758067,45.395209],[37.747732,45.393988],[37.743988,45.389553],[37.742198,45.382758],[37.737559,45.374742],[37.72047,45.357001],[37.717052,45.357652],[37.715343,45.354722],[37.706391,45.351264],[37.702891,45.347398],[37.69988,45.339179],[37.701834,45.33747],[37.706228,45.337307],[37.710297,45.333808],[37.714366,45.328518],[37.729259,45.315334],[37.738292,45.310696],[37.736013,45.306138],[37.729259,45.301663],[37.72047,45.299628],[37.710216,45.300279],[37.671072,45.309272],[37.666189,45.311225],[37.661794,45.312323],[37.651622,45.31269],[37.647472,45.315334],[37.642345,45.321479],[37.637869,45.328518],[37.635102,45.333808],[37.62379,45.314276],[37.609548,45.29682],[37.591075,45.289374],[37.566742,45.299628],[37.589122,45.303127],[37.600841,45.306871],[37.607921,45.31269],[37.607677,45.322414],[37.600841,45.331366],[37.591645,45.338039],[37.583995,45.340562],[37.573741,45.341702],[37.553966,45.34634],[37.542654,45.347398],[37.536388,45.345445],[37.515798,45.336371],[37.504731,45.333808],[37.518809,45.360419],[37.519298,45.369289],[37.504731,45.36107],[37.460134,45.340562],[37.446788,45.330024],[37.431407,45.322333],[37.393809,45.317328],[37.381358,45.306464],[37.370453,45.322211],[37.347667,45.327704],[37.158946,45.326077],[37.153005,45.320461],[37.162283,45.306464],[37.173676,45.300116],[37.187755,45.298774],[37.216807,45.299628],[37.274262,45.294135],[37.302745,45.286322],[37.319184,45.271674],[37.254405,45.276923],[37.245372,45.268297],[37.236501,45.255316],[37.214854,45.25141],[37.169119,45.251166],[37.112478,45.239325],[37.089854,45.237535],[37.07838,45.238959],[37.071056,45.243313],[37.067149,45.250718],[37.065929,45.261461],[37.071462,45.265815],[37.097667,45.268459],[37.106944,45.271674],[37.106944,45.276557],[37.111013,45.303046],[37.11378,45.31269],[37.119151,45.314887],[37.131521,45.324774],[37.139415,45.335517],[37.131521,45.340562],[37.108735,45.342475],[37.066661,45.353827],[36.895274,45.429999],[36.878103,45.431871],[36.862478,45.43183],[36.847667,45.434068],[36.833263,45.44302],[36.705089,45.391018],[36.681895,45.366197],[36.666515,45.340399],[36.668142,45.326361],[36.687999,45.331488],[36.727794,45.371772],[36.747569,45.381537],[36.759288,45.383979],[36.77003,45.387885],[36.781586,45.387641],[36.805919,45.370754],[36.817393,45.367621],[36.847504,45.367336],[36.847504,45.36107],[36.828624,45.356757],[36.819021,45.352607],[36.812185,45.347398],[36.809825,45.336982],[36.812266,45.325629],[36.812185,45.316392],[36.802501,45.31269],[36.79477,45.324856],[36.786957,45.348578],[36.775727,45.364814],[36.758067,45.354234],[36.758474,45.340766],[36.766449,45.31981],[36.778005,45.300605],[36.788829,45.292182],[36.943126,45.316392],[36.947276,45.320217],[36.956798,45.31802],[36.966156,45.311591],[36.970388,45.303046],[36.968028,45.290961],[36.961681,45.282945],[36.952973,45.277167],[36.935232,45.268012],[36.875173,45.245795],[36.854503,45.242255],[36.840831,45.232856],[36.829845,45.230699],[36.796153,45.231879],[36.785411,45.230699],[36.764822,45.223822],[36.729666,45.206285],[36.706716,45.202826],[36.594737,45.20482],[36.586192,45.202826],[36.577322,45.194159],[36.578136,45.187079],[36.583181,45.180243],[36.586192,45.172349],[36.59311,45.164781],[36.641368,45.128363],[36.701671,45.103827],[36.719981,45.10102],[36.741547,45.103217],[36.778494,45.112616],[36.799083,45.114691],[36.840099,45.109361],[36.949962,45.065619],[37.034679,45.047756],[37.06837,45.030341],[37.105724,45.020209],[37.120128,45.009467],[37.13502,45.004055],[37.152192,44.999701],[37.165701,44.997992],[37.191905,44.991034],[37.28712,44.928168],[37.306,44.909654],[37.31129,44.890855],[37.292491,44.875067],[37.292491,44.867621],[37.317882,44.846177],[37.351248,44.778632],[37.371104,44.74787],[37.385997,44.736762],[37.436534,44.716783],[37.451427,44.704006],[37.463878,44.689927],[37.478282,44.677191],[37.498709,44.668402],[37.508962,44.675279],[37.521739,44.672268],[37.535818,44.665717],[37.569347,44.65644],[37.577159,44.655341],[37.583669,44.657375],[37.601085,44.668402],[37.631847,44.669013],[37.659679,44.661811],[37.710297,44.64175],[37.736501,44.635688],[37.769298,44.632392],[37.800059,44.63524],[37.82016,44.647895],[37.822439,44.668158],[37.808849,44.686428],[37.790538,44.705878],[37.778494,44.729804],[37.799978,44.722602],[37.844086,44.700873],[37.864513,44.696357],[37.874848,44.689399],[37.933116,44.638739],[37.936209,44.634263],[37.935557,44.627753],[37.930349,44.621894],[37.924653,44.617133],[37.922618,44.613756],[37.928071,44.605943],[37.944509,44.597113],[37.984548,44.564276],[38.000255,44.555487],[38.011892,44.552314],[38.044932,44.561184],[38.056163,44.558987],[38.062836,44.524237],[38.0713,44.516018],[38.108084,44.497056],[38.132579,44.470038],[38.152599,44.436672],[38.177745,44.405992],[38.217296,44.387193],[38.288422,44.385159],[38.299327,44.377631],[38.309825,44.366156],[38.595063,44.331936],[38.697113,44.292222],[38.739757,44.28148],[38.758311,44.273627],[38.775645,44.261217],[38.855642,44.184516],[38.873709,44.173407],[38.892345,44.168687],[38.937348,44.16352],[38.960134,44.157131],[38.978282,44.148261],[38.989024,44.135565],[39.011567,44.100287],[39.022716,44.093004],[39.04477,44.088121],[39.061209,44.076117],[39.088145,44.045233],[39.116384,44.023505],[39.329356,43.896226],[39.391368,43.845364],[39.45753,43.770901],[39.574067,43.688951],[39.618907,43.644599],[39.634044,43.635199],[39.674978,43.622789],[39.690766,43.613837],[39.697927,43.604234],[39.706309,43.582506],[39.712087,43.572903],[39.718272,43.567776],[39.734386,43.560614],[39.756521,43.545315],[39.846934,43.509996],[39.867931,43.495673],[39.882498,43.476752],[39.895681,43.448717],[39.91033,43.426418],[39.93336,43.406684],[39.962576,43.392646],[39.985525,43.389065],[39.986013,43.388983],[40.00797626161983,43.38544861829592],[31.332566666666665,43.45151666666667]],[[29.872732,45.658271],[29.8567,45.649115],[29.84311,45.646186],[29.827647,45.644721],[29.814789,45.641059],[29.809418,45.631659],[29.801443,45.621894],[29.781261,45.610663],[29.730968,45.591376],[29.807465,45.614325],[29.908051,45.666449],[30.125987,45.811469],[30.075694,45.792426],[29.918712,45.69066],[29.901622,45.680487],[29.872732,45.658271]],[[32.954845,46.051744],[32.913585,46.038804],[32.881684,46.055406],[32.852061,46.056301],[32.783214,46.046332],[32.639334,46.060004],[32.631358,46.06623],[32.62672,46.065904],[32.619395,46.060004],[33.04005,46.012152],[33.057465,46.025214],[33.045095,46.037909],[32.99936,46.035305],[32.989268,46.042629],[32.978689,46.05329],[32.954845,46.051744]],[[31.577973,46.27558],[31.554373,46.296332],[31.538422,46.325832],[31.521983,46.368476],[31.504405,46.373358],[31.505056,46.354926],[31.514008,46.329413],[31.521983,46.313218],[31.549001,46.282416],[31.580333,46.262763],[31.737153,46.220771],[32.101817,46.166693],[32.143891,46.152655],[32.16627,46.149359],[32.153087,46.155992],[32.070811,46.18244],[31.940278,46.204576],[31.618175,46.259223],[31.577973,46.27558]]]},"properties":{"name":"JWLA 034 Precision Reference - Black Sea and Sea of Azov Marine Waters","mapKind":"precision-reference-display-only","scope":"precision-reference","circular":"JWLA-034","publishedAt":"2026-07-29","monitoringMode":"reference-only","contractAlertEligible":false,"manualReviewRequired":true,"geometryStatus":"derived-marine-reference-inland-waters-excluded","reviewStatus":"manual-review-display-only","sourceUrl":"https://lmalloyds.com/wp-content/uploads/2025/06/JWLA-034-Saudi-Arabia.pdf","sourceDocumentSha256":"125e507bbd187051315bdf80ae30583bc92ec9ad2d280d02fac2d10a019d03b9","sourceArtifactSha256":"1b18b7248d47e3c4db53cb2cb80be635dcca781149ec6aabfeea4bf9ce164f22","sourceManifestSha256":"3bbb5fca57b73d43ed2ab7a583ee2b7ede10d9769030854cf36eb19e332aa800","sourceSubsetSha256":"cb1cd8304062373c48610be14bcd6b8f63389bb66cff10a8f9e3b74727b7bef9","hashAlgorithm":"SHA-256","hashScope":"All SHA-256 values hash exact raw bytes; per-feature geometrySha256 hashes canonical compact geometry JSON plus newline.","geometrySource":"JWLA-034 official limits independently intersected with Natural Earth v5.1.2 cartographic geometry","naturalEarthVersion":"v5.1.2","naturalEarthTagCommit":"f1890d9f152c896d250a77557a5751a93d494776","naturalEarthOceanUrl":"https://raw.githubusercontent.com/nvkelso/natural-earth-vector/v5.1.2/geojson/ne_10m_ocean.geojson","naturalEarthAdmin0CountriesUrl":"https://raw.githubusercontent.com/nvkelso/natural-earth-vector/v5.1.2/geojson/ne_10m_admin_0_countries.geojson","license":"Public domain","licenseUrl":"https://www.naturalearthdata.com/about/terms-of-use/","limitations":["Marine-water reference only; all JWLA-034 inland waters of Ukraine, Crimea/other Ukrainian territories under Russian control, the Don/Donets reaches, and Belarus south of 52°30′N are unresolved and explicitly excluded.","Natural Earth is a cartographic ocean mask, not a navigational or legal boundary source."],"accuracyNote":"Reference visualization only; not for navigation or automatic determination of contract coverage."}},{"type":"Feature","id":"jwla-034:precision:gulf-of-guinea-water","geometry":{"type":"Polygon","coordinates":[[[8.7,-0.6666666666666666],[3,-0.6666666666666666],[1.202327067152092,6.103735791073023],[1.271007,6.133734],[1.429535,6.181952],[1.619314,6.213813],[1.61964,6.213894],[1.884532,6.274807],[2.226817,6.313666],[2.306977,6.331488],[2.703298,6.368313],[2.703868,6.368354],[2.927745,6.389106],[3.082367,6.381496],[3.214203,6.396715],[3.326182,6.391425],[3.384532,6.397691],[3.389496,6.419989],[3.384125,6.424791],[3.382579,6.430732],[3.379893,6.435858],[3.375011,6.441107],[3.369802,6.450019],[3.373871,6.456122],[3.381114,6.461615],[3.384939,6.468695],[3.38795,6.480699],[3.402029,6.502183],[3.406016,6.512844],[3.40561,6.522121],[3.400076,6.536811],[3.398611,6.54385],[3.402354,6.552151],[3.411306,6.554348],[3.421886,6.554755],[3.429942,6.557807],[3.451915,6.581773],[3.464041,6.592231],[3.481212,6.6022],[3.480235,6.58808],[3.473318,6.566636],[3.474376,6.554389],[3.478526,6.541449],[3.481619,6.538316],[3.488048,6.533271],[3.500255,6.533922],[3.51295,6.529446],[3.51531,6.527086],[3.528331,6.527777],[3.54005,6.530097],[3.551524,6.534166],[3.586681,6.552883],[3.597016,6.554267],[3.615245,6.554389],[3.663829,6.570217],[3.717459,6.601142],[3.773692,6.622382],[3.830577,6.609036],[3.837901,6.610989],[3.844005,6.610826],[3.850271,6.6081],[3.857921,6.6022],[3.774669,6.590074],[3.762218,6.58515],[3.756847,6.563788],[3.742686,6.547797],[3.722667,6.535956],[3.700206,6.527086],[3.686778,6.531073],[3.642751,6.517076],[3.621349,6.512844],[3.580821,6.512844],[3.570811,6.509345],[3.57016,6.500678],[3.572439,6.489569],[3.570567,6.478705],[3.556814,6.462958],[3.541352,6.45482],[3.524425,6.451809],[3.505382,6.451361],[3.492442,6.446479],[3.48463,6.446845],[3.481212,6.454779],[3.475352,6.455552],[3.440196,6.423407],[3.43629,6.4383],[3.434255,6.453355],[3.428477,6.458726],[3.412852,6.444525],[3.406912,6.449449],[3.401052,6.450995],[3.394298,6.449368],[3.384939,6.444525],[3.399099,6.434027],[3.408865,6.422919],[3.421153,6.414008],[3.443614,6.410346],[3.870291,6.431627],[4.125824,6.410346],[4.34197,6.370592],[4.405528,6.358873],[4.493012,6.320543],[4.509044,6.313544],[4.547374,6.289049],[4.608735,6.231757],[4.641856,6.210883],[4.717052,6.163642],[4.747813,6.138861],[4.782725,6.102525],[4.807953,6.063056],[4.826182,6.042548],[4.865489,6.025621],[4.885916,6.006537],[5.007335,5.849189],[5.044688,5.767483],[5.055024,5.766588],[5.105479,5.813666],[5.119965,5.824164],[5.195811,5.864],[5.235362,5.875922],[5.269542,5.906399],[5.290375,5.910102],[5.267426,5.871894],[5.185395,5.842027],[5.153982,5.814521],[5.153087,5.804633],[5.156993,5.794501],[5.15919,5.78559],[5.153982,5.779202],[5.146495,5.781073],[5.126475,5.797024],[5.115001,5.80093],[5.102712,5.793199],[5.093435,5.774726],[5.087413,5.752102],[5.084972,5.732001],[5.088634,5.708726],[5.09783,5.690863],[5.10727,5.676988],[5.11671,5.64883],[5.129161,5.628119],[5.144867,5.608629],[5.160167,5.594794],[5.173595,5.585395],[5.179698,5.582587],[5.204926,5.591986],[5.228282,5.605618],[5.239106,5.608466],[5.263031,5.610541],[5.280284,5.617499],[5.293224,5.630316],[5.304047,5.650051],[5.331391,5.724555],[5.337576,5.724555],[5.339203,5.705878],[5.336925,5.691148],[5.318207,5.636664],[5.317882,5.619574],[5.32602,5.605414],[5.344981,5.594794],[5.361501,5.593655],[5.379649,5.597968],[5.396007,5.605902],[5.406505,5.615302],[5.418956,5.645901],[5.428477,5.655829],[5.447439,5.656236],[5.464854,5.648627],[5.485118,5.634345],[5.502126,5.617255],[5.509532,5.60163],[5.509613,5.590644],[5.508067,5.58454],[5.50294,5.581773],[5.492524,5.581204],[5.490001,5.585842],[5.484386,5.607978],[5.4817,5.615302],[5.471039,5.622789],[5.455821,5.627387],[5.439952,5.627672],[5.427013,5.622138],[5.4192,5.610541],[5.402599,5.574774],[5.392833,5.560614],[5.385997,5.560614],[5.365245,5.572333],[5.328136,5.578437],[5.230235,5.582506],[5.22283,5.581204],[5.214203,5.575141],[5.197927,5.557563],[5.191173,5.55386],[5.188487,5.544135],[5.190603,5.522854],[5.198009,5.501451],[5.218598,5.487128],[5.250173,5.458197],[5.253917,5.452786],[5.258474,5.44184],[5.263194,5.43651],[5.375987,5.39883],[5.433849,5.395575],[5.427501,5.403957],[5.421072,5.417792],[5.418305,5.430813],[5.423595,5.43651],[5.436046,5.434638],[5.439952,5.429877],[5.44158,5.423489],[5.447439,5.416693],[5.468598,5.407782],[5.484874,5.411526],[5.498057,5.426418],[5.509532,5.450751],[5.503184,5.476467],[5.5171,5.498603],[5.541026,5.510484],[5.564138,5.505439],[5.568858,5.510443],[5.575206,5.514838],[5.577891,5.519721],[5.596202,5.514228],[5.610525,5.521918],[5.623871,5.533596],[5.639903,5.540188],[5.625743,5.51789],[5.614024,5.50495],[5.602061,5.499254],[5.568696,5.499905],[5.553559,5.496894],[5.540294,5.488349],[5.533946,5.476386],[5.531912,5.460639],[5.533214,5.444241],[5.536876,5.430325],[5.546397,5.415513],[5.570323,5.39468],[5.577891,5.381985],[5.571544,5.381985],[5.56129,5.388861],[5.546072,5.389472],[5.529633,5.386379],[5.494884,5.37287],[5.489106,5.368842],[5.483653,5.362291],[5.476085,5.347317],[5.468028,5.340888],[5.459483,5.352973],[5.456798,5.359565],[5.454275,5.368842],[5.435313,5.363349],[5.368988,5.362047],[5.345714,5.357164],[5.34018,5.34394],[5.361095,5.253974],[5.365571,5.20775],[5.363617,5.171576],[5.365571,5.163479],[5.37615,5.158189],[5.400157,5.16234],[5.413341,5.156643],[5.427908,5.162055],[5.434906,5.163153],[5.444347,5.163479],[5.448009,5.167629],[5.447113,5.18594],[5.450857,5.190131],[5.461192,5.184149],[5.488536,5.154202],[5.49586,5.14232],[5.475597,5.14704],[5.454275,5.149115],[5.460216,5.133775],[5.475434,5.09455],[5.462738,5.102281],[5.444672,5.127102],[5.433849,5.136135],[5.418468,5.141262],[5.402843,5.142401],[5.39088,5.137681],[5.385997,5.125556],[5.389334,5.109768],[5.396251,5.099514],[5.403331,5.091864],[5.406505,5.084296],[5.408865,5.067572],[5.414236,5.052436],[5.427013,5.026272],[5.432384,5.010891],[5.441254,4.964179],[5.469005,4.886786],[5.500987,4.850898],[5.509532,4.827053],[5.475434,4.84748],[5.486339,4.835028],[5.511485,4.791815],[5.516368,4.775784],[5.52768,4.756496],[5.571462,4.72956],[5.571544,4.711005],[5.564626,4.715033],[5.561534,4.716376],[5.557302,4.71776],[5.566905,4.675238],[5.5949,4.636461],[5.687673,4.549872],[5.694021,4.5456],[5.720714,4.518256],[5.728363,4.507636],[5.749766,4.484442],[5.763682,4.478949],[5.77768,4.475531],[5.789806,4.469713],[5.797537,4.457099],[5.790375,4.461168],[5.777192,4.466986],[5.770274,4.471381],[5.7824,4.455959],[5.822765,4.432847],[5.839122,4.416083],[5.845388,4.416083],[5.844493,4.427191],[5.847504,4.434394],[5.854666,4.437486],[5.865896,4.436591],[5.855642,4.411607],[5.867524,4.387274],[5.889903,4.368842],[5.910167,4.361518],[5.918142,4.356187],[5.930919,4.34512],[5.9463,4.335191],[5.961436,4.333564],[5.97283,4.344794],[5.969737,4.361518],[5.9546,4.395657],[5.969981,4.38642],[5.975108,4.382025],[5.982595,4.416083],[5.988617,4.416083],[5.987478,4.398912],[5.988617,4.382025],[5.990245,4.378567],[6.003266,4.359198],[6.001475,4.356269],[5.995453,4.354682],[5.996918,4.319403],[6.004893,4.314114],[6.027029,4.313056],[6.042166,4.306627],[6.053966,4.296291],[6.061778,4.295233],[6.064464,4.316799],[6.060069,4.332424],[6.051931,4.344224],[6.04656,4.355211],[6.050792,4.368354],[6.04656,4.377021],[6.042166,4.391181],[6.040294,4.405911],[6.043305,4.416083],[6.055431,4.419867],[6.067393,4.414984],[6.07781,4.412299],[6.088715,4.411119],[6.085134,4.384101],[6.084972,4.368354],[6.089692,4.370022],[6.100759,4.372626],[6.105317,4.374579],[6.10255,4.360907],[6.089122,4.337144],[6.084972,4.320502],[6.084321,4.302314],[6.087738,4.288235],[6.09669,4.278144],[6.112804,4.272162],[6.116547,4.276353],[6.123057,4.280951],[6.126475,4.285793],[6.151622,4.278998],[6.188731,4.280992],[6.217052,4.290595],[6.222667,4.300035],[6.209158,4.3039],[6.20281,4.3039],[6.194835,4.300035],[6.194672,4.314195],[6.200694,4.320054],[6.208995,4.32274],[6.21518,4.327338],[6.222341,4.341946],[6.228852,4.361518],[6.230154,4.388007],[6.223318,4.404608],[6.212413,4.420111],[6.201671,4.443427],[6.2199,4.439399],[6.231212,4.430487],[6.239594,4.419623],[6.24936,4.409898],[6.24171,4.427924],[6.23699,4.452786],[6.235199,4.478176],[6.236339,4.498033],[6.242524,4.498033],[6.258474,4.44953],[6.263031,4.395657],[6.297211,4.436591],[6.305186,4.439927],[6.311371,4.439602],[6.319509,4.43769],[6.33253,4.436591],[6.2671,4.362982],[6.246837,4.320502],[6.270518,4.292629],[6.290294,4.299954],[6.336274,4.301215],[6.355479,4.309638],[6.373871,4.314399],[6.398936,4.315985],[6.415294,4.322252],[6.407725,4.34101],[6.420909,4.344875],[6.434337,4.347235],[6.461762,4.328681],[6.519867,4.323147],[6.569591,4.334906],[6.571544,4.368354],[6.584727,4.406928],[6.58839,4.447659],[6.57838,4.482856],[6.550466,4.504869],[6.580821,4.50788],[6.595876,4.482082],[6.600108,4.445502],[6.598806,4.39997],[6.601736,4.369045],[6.612641,4.336737],[6.6185,4.330756],[6.646658,4.333564],[6.677501,4.333075],[6.687673,4.336575],[6.695079,4.347235],[6.694509,4.359076],[6.684418,4.393704],[6.676443,4.412909],[6.664317,4.434638],[6.66033,4.450873],[6.659434,4.497545],[6.654063,4.511705],[6.660818,4.51557],[6.666189,4.52025],[6.670746,4.526028],[6.674571,4.532782],[6.679861,4.520575],[6.682628,4.459215],[6.68572,4.445461],[6.695079,4.422919],[6.697032,4.435981],[6.69752,4.455634],[6.701915,4.463935],[6.695079,4.497219],[6.701834,4.542548],[6.717133,4.584621],[6.736095,4.607896],[6.737071,4.578559],[6.734874,4.567816],[6.712413,4.508002],[6.708751,4.491889],[6.708751,4.457099],[6.710948,4.45307],[6.720225,4.445258],[6.722423,4.440009],[6.721202,4.43537],[6.716319,4.428127],[6.712576,4.369086],[6.715587,4.354682],[6.737559,4.342231],[6.774587,4.338935],[6.814626,4.34162],[6.845958,4.347235],[6.870779,4.360785],[6.857921,4.375312],[6.837576,4.39289],[6.839692,4.416083],[6.82602,4.431952],[6.816091,4.461371],[6.796153,4.559719],[6.798106,4.573798],[6.802989,4.581977],[6.82545,4.601142],[6.806814,4.633246],[6.793712,4.648993],[6.781016,4.655707],[6.772227,4.663031],[6.767833,4.680365],[6.763927,4.71776],[6.755626,4.753852],[6.748383,4.771674],[6.739513,4.779202],[6.726817,4.785102],[6.721934,4.799465],[6.719981,4.817532],[6.715587,4.834459],[6.724294,4.830146],[6.732758,4.828681],[6.741059,4.830146],[6.749685,4.834459],[6.751231,4.8251],[6.754405,4.817939],[6.763927,4.806545],[6.776215,4.817816],[6.78533,4.817043],[6.787852,4.808417],[6.781016,4.796291],[6.770681,4.782416],[6.767263,4.76968],[6.770193,4.745063],[6.785492,4.683295],[6.803233,4.649807],[6.828868,4.635199],[6.84547,4.628607],[6.848399,4.613593],[6.844249,4.59748],[6.839692,4.587388],[6.832286,4.577786],[6.82545,4.570746],[6.820486,4.560858],[6.818614,4.542711],[6.822927,4.517524],[6.833832,4.485907],[6.849294,4.459703],[6.866384,4.450873],[6.859223,4.433539],[6.86085,4.415717],[6.868663,4.399848],[6.880056,4.38817],[6.903087,4.396552],[6.925466,4.391547],[6.947439,4.381496],[6.969493,4.374579],[6.966075,4.380439],[6.964692,4.384996],[6.964122,4.389553],[6.982758,4.381049],[6.9935,4.376288],[7.006602,4.374579],[7.016287,4.378892],[7.022146,4.388495],[7.023692,4.398139],[7.010997,4.41413],[6.975597,4.484442],[6.973481,4.508002],[6.983084,4.57685],[6.974946,4.589667],[6.957042,4.594062],[6.938487,4.58926],[6.928477,4.573798],[6.921235,4.585191],[6.924571,4.591051],[6.931488,4.595933],[6.935313,4.60456],[6.933604,4.612494],[6.929861,4.618638],[6.92156,4.629055],[6.907481,4.653632],[6.902599,4.666938],[6.900564,4.683661],[6.929535,4.651068],[6.940196,4.634101],[6.948985,4.614732],[6.958669,4.618801],[6.962657,4.621568],[6.966645,4.612982],[6.971853,4.609076],[6.978852,4.607896],[6.989268,4.607896],[6.96697,4.667467],[6.955821,4.683661],[6.960216,4.691718],[6.957774,4.715522],[6.962657,4.730862],[6.974457,4.708645],[6.978526,4.692369],[6.984874,4.692084],[7.003591,4.71776],[7.008067,4.708808],[7.013031,4.687201],[7.017263,4.676215],[7.037364,4.653754],[7.043956,4.642646],[7.037771,4.644721],[7.028494,4.64643],[7.023285,4.648871],[7.025727,4.634914],[7.02296,4.614244],[7.017833,4.595608],[7.013438,4.587388],[7.002208,4.579901],[7.007009,4.563137],[7.023285,4.535875],[7.02589,4.484931],[7.031912,4.459906],[7.043956,4.436591],[7.051443,4.436591],[7.078624,4.443427],[7.068126,4.458482],[7.062673,4.476264],[7.065278,4.492987],[7.078624,4.504869],[7.074555,4.485256],[7.080577,4.470445],[7.094249,4.459377],[7.112804,4.450873],[7.112315,4.455878],[7.112804,4.471381],[7.133556,4.463039],[7.150645,4.470608],[7.178233,4.501451],[7.184581,4.519029],[7.175548,4.536444],[7.16033,4.55093],[7.147472,4.560045],[7.17335,4.572903],[7.169688,4.605943],[7.147227,4.640041],[7.116222,4.655707],[7.097911,4.661811],[7.088634,4.676459],[7.078624,4.711005],[7.072276,4.718085],[7.065684,4.71894],[7.060395,4.720689],[7.057628,4.730862],[7.060232,4.73192],[7.06544,4.738674],[7.070486,4.748358],[7.071788,4.758124],[7.082693,4.742743],[7.099132,4.697252],[7.106781,4.687079],[7.124848,4.672349],[7.133149,4.663153],[7.136404,4.661811],[7.158214,4.662014],[7.172374,4.668891],[7.178884,4.66885],[7.181651,4.65941],[7.181651,4.632148],[7.19044,4.61164],[7.253673,4.542711],[7.276134,4.510159],[7.281016,4.504869],[7.325694,4.511705],[7.331798,4.520494],[7.333263,4.529364],[7.32838,4.5362],[7.301036,4.541815],[7.284028,4.555406],[7.271169,4.560045],[7.277354,4.566352],[7.270274,4.569729],[7.263682,4.573798],[7.263682,4.579983],[7.273204,4.58393],[7.276622,4.591051],[7.277843,4.598049],[7.281016,4.601142],[7.299083,4.602037],[7.305919,4.604153],[7.312022,4.607896],[7.324555,4.590766],[7.34669,4.580308],[7.372732,4.575141],[7.397716,4.573798],[7.432384,4.555406],[7.454112,4.553168],[7.462738,4.573798],[7.469574,4.573798],[7.479177,4.565172],[7.490489,4.566311],[7.501964,4.572699],[7.511241,4.579983],[7.527843,4.598619],[7.531098,4.601142],[7.527843,4.609565],[7.514171,4.625922],[7.514415,4.632148],[7.522716,4.64411],[7.522797,4.65412],[7.519705,4.665107],[7.517426,4.679918],[7.520518,4.689765],[7.527843,4.698554],[7.533539,4.702704],[7.54477,4.711005],[7.551036,4.711005],[7.533051,4.664293],[7.529633,4.638861],[7.54477,4.621568],[7.540294,4.611762],[7.537364,4.607896],[7.555512,4.584906],[7.558442,4.579983],[7.554535,4.569485],[7.547618,4.563625],[7.540782,4.559149],[7.537364,4.55329],[7.539317,4.541815],[7.547618,4.541164],[7.559337,4.542914],[7.572032,4.539008],[7.566417,4.535712],[7.56365,4.532782],[7.561778,4.529527],[7.558442,4.525336],[7.646983,4.51911],[7.660899,4.515448],[7.673839,4.502183],[7.703136,4.497545],[7.735525,4.499213],[7.757091,4.504869],[7.750662,4.508775],[7.742931,4.511217],[7.733653,4.512193],[7.722911,4.511705],[7.730479,4.522366],[7.742361,4.526313],[7.755056,4.524807],[7.764496,4.519192],[7.935313,4.539008],[7.97934,4.539008],[7.998709,4.541409],[8.031993,4.558783],[8.05128,4.559394],[8.092947,4.55329],[8.178559,4.55329],[8.235525,4.546861],[8.279063,4.54682],[8.288585,4.54857],[8.29835,4.55329],[8.312022,4.583686],[8.321544,4.59984],[8.341075,4.611558],[8.356456,4.625556],[8.353526,4.648871],[8.344493,4.656562],[8.333181,4.65998],[8.323497,4.665595],[8.319509,4.679918],[8.320974,4.689154],[8.328949,4.711493],[8.332367,4.71776],[8.319998,4.734361],[8.304942,4.77733],[8.294932,4.786078],[8.28533,4.791571],[8.273936,4.804836],[8.263845,4.820746],[8.257335,4.834459],[8.273611,4.845445],[8.269705,4.86872],[8.243663,4.916409],[8.230235,4.933661],[8.175466,4.985297],[8.175466,4.991441],[8.181651,4.991441],[8.186697,4.984361],[8.196625,4.972846],[8.208751,4.962104],[8.219737,4.957343],[8.232107,4.953681],[8.239268,4.94477],[8.250499,4.923245],[8.256196,4.906724],[8.257335,4.905829],[8.281261,4.892483],[8.30836,4.872138],[8.31658,4.860989],[8.312022,4.84748],[8.332042,4.836412],[8.339854,4.834459],[8.335623,4.824693],[8.332367,4.820868],[8.358409,4.797349],[8.386974,4.795803],[8.409028,4.813381],[8.415701,4.84748],[8.421886,4.84748],[8.417247,4.812445],[8.4074,4.776842],[8.40919,4.749335],[8.438813,4.738267],[8.451834,4.740546],[8.471202,4.75023],[8.480154,4.752509],[8.484386,4.748196],[8.48227,4.738349],[8.47755,4.727769],[8.473318,4.721177],[8.469005,4.711656],[8.475841,4.70893],[8.485525,4.709784],[8.490001,4.711005],[8.504893,4.706122],[8.518321,4.704047],[8.529796,4.708889],[8.538585,4.724595],[8.539073,4.733791],[8.532563,4.748236],[8.531749,4.758124],[8.534434,4.768297],[8.543305,4.787502],[8.545258,4.796291],[8.549164,4.804185],[8.558116,4.814439],[8.568614,4.823188],[8.576671,4.827053],[8.585704,4.824897],[8.592459,4.820217],[8.594574,4.815497],[8.594168,4.815294],[8.590017,4.813381],[8.57838,4.804674],[8.576508,4.784654],[8.580089,4.745063],[8.573253,4.752509],[8.567638,4.74022],[8.569672,4.728339],[8.573578,4.716376],[8.573253,4.704088],[8.567638,4.69599],[8.538585,4.676215],[8.521169,4.655951],[8.513682,4.64232],[8.511241,4.629055],[8.516124,4.612982],[8.525727,4.604438],[8.538341,4.604641],[8.552094,4.614732],[8.530772,4.57925],[8.525564,4.566352],[8.509939,4.568834],[8.505056,4.55093],[8.510265,4.527045],[8.525564,4.511705],[8.537364,4.508531],[8.54835,4.507799],[8.556407,4.511705],[8.562673,4.533189],[8.570567,4.53856],[8.581716,4.538479],[8.593761,4.532782],[8.582693,4.523342],[8.570323,4.50967],[8.56544,4.49726],[8.576671,4.491889],[8.701671,4.501288],[8.722667,4.513129],[8.716563,4.539008],[8.706309,4.547675],[8.694835,4.55329],[8.68572,4.561225],[8.660492,4.653998],[8.645356,4.684068],[8.638682,4.71308],[8.655121,4.738267],[8.661306,4.698798],[8.705903,4.63467],[8.716563,4.597724],[8.724132,4.580471],[8.740571,4.571234],[8.757009,4.56509],[8.764415,4.556627],[8.768565,4.553127],[8.788422,4.541449],[8.795177,4.539008],[8.799571,4.542182],[8.812836,4.566352],[8.80421,4.570136],[8.79949,4.577786],[8.798025,4.588284],[8.798595,4.601142],[8.847016,4.563218],[8.850597,4.547431],[8.858735,4.540839],[8.867849,4.544582],[8.873709,4.560045],[8.86671,4.582709],[8.835704,4.629625],[8.83961,4.642646],[8.847016,4.639716],[8.856293,4.62995],[8.864106,4.61872],[8.871918,4.602484],[8.893809,4.594631],[8.901622,4.587388],[8.904307,4.573188],[8.901541,4.560248],[8.897227,4.548],[8.894786,4.535875],[8.900564,4.521633],[8.913585,4.528632],[8.93572,4.55329],[8.926036,4.529608],[8.900076,4.485093],[8.894786,4.460517],[8.918956,4.318061],[8.93629,4.279527],[8.960297,4.245917],[8.990977,4.217475],[8.988455,4.18891],[8.969412,4.128974],[8.971202,4.100775],[8.983409,4.092434],[9.07016,4.051418],[9.123383,4.01789],[9.138682,4.015448],[9.148774,4.019029],[9.166515,4.020901],[9.184744,4.020901],[9.196462,4.018866],[9.210623,4.008124],[9.213227,3.996568],[9.211111,3.982571],[9.210704,3.96426],[9.220714,3.96601],[9.250336,3.960842],[9.284353,3.992255],[9.290294,4.009711],[9.301443,4.026353],[9.326182,4.031928],[9.326182,4.025702],[9.307628,4.001939],[9.302582,3.964993],[9.313731,3.930854],[9.343516,3.915839],[9.359223,3.913723],[9.393403,3.904283],[9.41212,3.902167],[9.448253,3.905748],[9.464041,3.90998],[9.476899,3.915839],[9.469086,3.923407],[9.453298,3.932115],[9.450369,3.939765],[9.452403,3.953925],[9.456391,3.963528],[9.458832,3.972357],[9.456554,3.984076],[9.449392,3.992133],[9.422374,4.008368],[9.424083,4.019477],[9.42921,4.026557],[9.437999,4.030463],[9.450369,4.031928],[9.451182,4.022773],[9.453868,4.018622],[9.458344,4.016181],[9.464041,4.01203],[9.476899,3.990912],[9.490082,3.980658],[9.497081,3.977688],[9.504242,3.976142],[9.518565,3.970445],[9.532481,3.989447],[9.523611,4.00609],[9.507009,4.019477],[9.495616,4.03148],[9.485362,4.055325],[9.484386,4.059882],[9.474294,4.066148],[9.46518,4.068101],[9.457286,4.071112],[9.452891,4.076972],[9.450369,4.080308],[9.478526,4.111396],[9.490082,4.115871],[9.504242,4.100775],[9.498546,4.077216],[9.508556,4.054185],[9.526622,4.035793],[9.545909,4.025702],[9.559581,4.039374],[9.559337,4.016791],[9.579356,4.013007],[9.606619,4.020657],[9.628429,4.031928],[9.646332,4.051459],[9.678884,4.10102],[9.696625,4.114447],[9.696625,4.09394],[9.703461,4.09394],[9.710948,4.105699],[9.719493,4.114936],[9.738292,4.12873],[9.754568,4.135688],[9.756847,4.129828],[9.752452,4.119818],[9.748302,4.114447],[9.718923,4.099555],[9.675629,4.03384],[9.65919,4.018866],[9.639903,4.008775],[9.623709,3.985785],[9.618907,3.960354],[9.634613,3.943183],[9.664806,3.940375],[9.764415,3.957465],[9.764415,3.952338],[9.76295,3.951239],[9.760753,3.951361],[9.758149,3.950019],[9.76295,3.943793],[9.764334,3.940741],[9.764415,3.936347],[9.743337,3.93594],[9.715017,3.931342],[9.68922,3.922431],[9.67628,3.909003],[9.682872,3.890448],[9.704926,3.877509],[9.751964,3.860582],[9.741466,3.861029],[9.738292,3.860582],[9.74586,3.850898],[9.750499,3.840766],[9.750336,3.830268],[9.744477,3.819648],[9.736339,3.834174],[9.723481,3.843817],[9.689789,3.860582],[9.679698,3.836086],[9.659028,3.84101],[9.621104,3.874823],[9.60377,3.859036],[9.592133,3.83515],[9.589203,3.809638],[9.597423,3.788886],[9.604259,3.779975],[9.607107,3.774726],[9.611013,3.770575],[9.621104,3.76496],[9.652517,3.756049],[9.662608,3.750718],[9.624278,3.75019],[9.606944,3.752265],[9.594249,3.758205],[9.58961,3.766099],[9.581554,3.787828],[9.576671,3.792304],[9.570974,3.795478],[9.545909,3.819648],[9.551524,3.79621],[9.565115,3.770901],[9.612559,3.704983],[9.6421,3.63467],[9.625987,3.626451],[9.621349,3.612779],[9.626231,3.600002],[9.638438,3.594387],[9.706879,3.600531],[9.733653,3.60932],[9.759613,3.626166],[9.787608,3.637112],[9.819591,3.627875],[9.792817,3.627183],[9.770763,3.61872],[9.68865,3.556098],[9.664236,3.543931],[9.6421,3.539049],[9.739024,3.47309],[9.780935,3.436754],[9.855317,3.343573],[9.881521,3.294338],[9.88795,3.285224],[9.89503,3.278306],[9.903087,3.272895],[9.91391,3.270331],[9.929454,3.271552],[9.929454,3.264797],[9.917979,3.259467],[9.911632,3.257717],[9.90211,3.257961],[9.90211,3.251695],[9.919688,3.228095],[9.958018,3.082221],[9.95574,3.050482],[9.94337,3.023139],[9.922048,2.99726],[9.903331,2.968329],[9.88795,2.926907],[9.877778,2.881415],[9.874278,2.754543],[9.870453,2.738105],[9.853201,2.696967],[9.822927,2.562934],[9.819184,2.376939],[9.812185,2.359809],[9.812185,2.353583],[9.799571,2.341742],[9.779796,2.327867],[9.766938,2.310492],[9.774913,2.288072],[9.783458,2.270657],[9.786388,2.248114],[9.778087,2.123969],[9.77589,2.118598],[9.771251,2.113593],[9.766612,2.106879],[9.764415,2.09634],[9.765473,2.085395],[9.768565,2.07685],[9.778087,2.058092],[9.805837,1.976386],[9.809744,1.934963],[9.799083,1.901109],[9.763682,1.866116],[9.758149,1.856676],[9.756033,1.851467],[9.751313,1.846584],[9.746755,1.839911],[9.743012,1.815741],[9.739757,1.809027],[9.735199,1.804836],[9.730968,1.798733],[9.722423,1.778876],[9.71811,1.771796],[9.710297,1.763902],[9.689789,1.75023],[9.684825,1.744615],[9.678966,1.733466],[9.67628,1.729722],[9.617524,1.671454],[9.60727,1.644436],[9.622325,1.616767],[9.665701,1.575588],[9.683442,1.571357],[9.724294,1.599026],[9.744477,1.600043],[9.722179,1.589016],[9.704763,1.577704],[9.685883,1.568834],[9.65919,1.565334],[9.64031,1.571967],[9.627778,1.583726],[9.614757,1.588039],[9.594249,1.57217],[9.578136,1.54267],[9.566417,1.514065],[9.56422,1.503404],[9.559581,1.496731],[9.554942,1.491848],[9.552745,1.486477],[9.549571,1.484809],[9.532237,1.462307],[9.492849,1.426581],[9.465343,1.414537],[9.461436,1.398139],[9.464041,1.359849],[9.458995,1.341742],[9.448253,1.319078],[9.434255,1.29975],[9.418956,1.291571],[9.407563,1.28384],[9.398774,1.265692],[9.382498,1.214504],[9.374034,1.199897],[9.362315,1.188137],[9.34669,1.181708],[9.35963,1.164862],[9.362153,1.156968],[9.360199,1.146959],[9.373057,1.137681],[9.396495,1.111477],[9.405284,1.105943],[9.420421,1.109198],[9.449962,1.123277],[9.481781,1.129299],[9.4935,1.134589],[9.506521,1.1376],[9.52475,1.133287],[9.540782,1.125067],[9.551606,1.115424],[9.559744,1.102769],[9.575369,1.054755],[9.584321,1.042955],[9.609141,1.053453],[9.6421,1.061591],[9.648936,1.068752],[9.657074,1.083197],[9.676443,1.105414],[9.699229,1.125474],[9.717784,1.133287],[9.711599,1.12934],[9.703787,1.120592],[9.699392,1.109809],[9.703461,1.099799],[9.714122,1.097113],[9.755138,1.105943],[9.767263,1.102851],[9.792247,1.08869],[9.802501,1.085517],[9.814789,1.08454],[9.829275,1.081855],[9.841482,1.077704],[9.847504,1.072455],[9.834727,1.071601],[9.819835,1.068915],[9.806814,1.064399],[9.799083,1.058173],[9.796886,1.046291],[9.804535,1.020738],[9.805919,1.003607],[9.804373,0.998358],[9.800466,0.985826],[9.792247,0.968817],[9.783051,0.990058],[9.774669,1.032864],[9.761241,1.054755],[9.745128,1.059719],[9.686778,1.061265],[9.668793,1.058173],[9.658946,1.048],[9.65211,1.034329],[9.642426,1.022284],[9.624766,1.017279],[9.6067,1.017279],[9.592052,1.01435],[9.578949,1.004381],[9.566417,0.9831],[9.561534,0.962795],[9.567068,0.951117],[9.575531,0.940823],[9.579926,0.92475],[9.582774,0.900702],[9.618175,0.806789],[9.628429,0.6883],[9.625011,0.639309],[9.628429,0.61872],[9.6421,0.598863],[9.634125,0.582913],[9.623871,0.539496],[9.617524,0.530585],[9.608572,0.523139],[9.603689,0.505357],[9.603526,0.485012],[9.607921,0.469184],[9.590831,0.472886],[9.582774,0.481635],[9.573253,0.510077],[9.581879,0.525092],[9.587087,0.553697],[9.585297,0.582831],[9.573253,0.598863],[9.571788,0.585679],[9.56658,0.575507],[9.557791,0.568549],[9.545909,0.564765],[9.539887,0.591254],[9.516449,0.604153],[9.487153,0.605943],[9.464041,0.598863],[9.477794,0.619086],[9.499034,0.621772],[9.542491,0.612494],[9.559255,0.621527],[9.562836,0.642157],[9.555431,0.665229],[9.539073,0.681464],[9.52003,0.683539],[9.502289,0.675849],[9.486583,0.665961],[9.468272,0.65884],[9.454763,0.6494],[9.446544,0.647284],[9.432953,0.649156],[9.424083,0.652818],[9.415375,0.655219],[9.402029,0.65351],[9.391775,0.649359],[9.37143,0.637641],[9.360199,0.633043],[9.337657,0.628363],[9.315929,0.626166],[9.308849,0.614],[9.304861,0.558905],[9.305675,0.544257],[9.319021,0.528632],[9.334646,0.527899],[9.352224,0.529242],[9.37086,0.520087],[9.398692,0.488715],[9.411388,0.469916],[9.459321,0.359931],[9.473481,0.345649],[9.484141,0.33808],[9.490082,0.302436],[9.498057,0.290961],[9.505056,0.292304],[9.527517,0.302232],[9.535655,0.304674],[9.548188,0.302558],[9.553884,0.306138],[9.559581,0.318305],[9.566417,0.318305],[9.572113,0.298326],[9.586436,0.283637],[9.621104,0.263088],[9.668956,0.22724],[9.679698,0.222154],[9.711436,0.223212],[9.719574,0.218573],[9.73463,0.205024],[9.747244,0.196438],[9.792247,0.181098],[9.805431,0.185696],[9.88266,0.190416],[9.902354,0.196845],[9.920909,0.205797],[9.93629,0.215969],[9.955821,0.200019],[9.975434,0.194322],[10.025645,0.195461],[10.025645,0.187974],[9.985199,0.174954],[9.97047,0.173651],[9.954275,0.176947],[9.925059,0.18769],[9.908946,0.187974],[9.896332,0.183498],[9.861176,0.161282],[9.850352,0.150784],[9.831879,0.126776],[9.819591,0.119086],[9.803884,0.133246],[9.778087,0.134467],[9.758556,0.125556],[9.761241,0.109198],[9.775564,0.090399],[9.812185,0.023505],[9.779552,0.049465],[9.748871,0.097846],[9.712413,0.134833],[9.662608,0.126532],[9.652354,0.146877],[9.643565,0.153022],[9.628429,0.153795],[9.619314,0.147203],[9.591156,0.119208],[9.586762,0.112291],[9.580251,0.121772],[9.571788,0.15648],[9.566417,0.167467],[9.553722,0.174058],[9.504242,0.187974],[9.493663,0.169989],[9.492524,0.152004],[9.498057,0.109198],[9.494965,0.098456],[9.488048,0.098334],[9.479828,0.103583],[9.473481,0.109198],[9.470063,0.14704],[9.460785,0.16649],[9.434581,0.192125],[9.42921,0.205024],[9.424327,0.208197],[9.391612,0.208441],[9.380382,0.20539],[9.374278,0.198065],[9.368907,0.189114],[9.360199,0.181098],[9.35727,0.190131],[9.356456,0.201728],[9.358409,0.211656],[9.363617,0.215969],[9.373871,0.219184],[9.373383,0.227444],[9.368907,0.23843],[9.367035,0.250067],[9.376638,0.287299],[9.378673,0.307563],[9.374522,0.332017],[9.365896,0.351549],[9.356212,0.358629],[9.345388,0.35578],[9.313487,0.32746],[9.309093,0.32453],[9.30714,0.318996],[9.302013,0.292548],[9.298839,0.283515],[9.310232,0.251288],[9.345388,0.061957],[9.34669,0.040595],[9.348969,0.032904],[9.353526,0.024848],[9.355317,0.016181],[9.350352,0.006781],[9.345019,0.000072],[9.342784,-0.00274],[9.33725,-0.013482],[9.334158,-0.025405],[9.333018,-0.037896],[9.344412,-0.06349],[9.34669,-0.072686],[9.345958,-0.084731],[9.341563,-0.106134],[9.340505,-0.11712],[9.335704,-0.137302],[9.313162,-0.182061],[9.305675,-0.203058],[9.306488,-0.332289],[9.292166,-0.373712],[9.267426,-0.412367],[9.177989,-0.510837],[9.160004,-0.546808],[9.100841,-0.599705],[9.09254,-0.625665],[9.100841,-0.642348],[9.112478,-0.658298],[9.113209696527031,-0.6666666666666666],[9.10687806240088,-0.6666666666666666],[9.100841,-0.65488],[9.089122,-0.659926],[9.088185561952441,-0.6666666666666666],[9.040768977147064,-0.6666666666666666],[9.033458,-0.635431],[8.997244,-0.627618],[8.997244,-0.620212],[9.00587,-0.616957],[9.010427,-0.611017],[9.01002,-0.602797],[9.004649,-0.592869],[8.996104,-0.603692],[8.974376,-0.616957],[8.963145,-0.627618],[8.951671,-0.642999],[8.949474,-0.650649],[8.949474,-0.661716],[8.951002408745934,-0.6666666666666666],[8.789575903042715,-0.6666666666666666],[8.787364,-0.657647],[8.772309,-0.633233],[8.750824,-0.633884],[8.747081,-0.627211],[8.745453,-0.622247],[8.74643,-0.616143],[8.750824,-0.60711],[8.718598,-0.600844],[8.707693,-0.592218],[8.716563,-0.572931],[8.709158,-0.565606],[8.695567,-0.586602],[8.718923,-0.660252],[8.723891850905245,-0.6666666666666666],[8.7,-0.6666666666666666]],[[6.609548,0.390367],[6.578298,0.364569],[6.540782,0.351874],[6.533051,0.348131],[6.497813,0.31269],[6.495372,0.306383],[6.494314,0.299994],[6.490245,0.290961],[6.470876,0.26789],[6.468516,0.259955],[6.46811,0.239814],[6.466319,0.231024],[6.461681,0.222154],[6.467296,0.21247],[6.502696,0.098578],[6.505707,0.094875],[6.509613,0.092678],[6.513682,0.088284],[6.516938,0.078111],[6.516612,0.069973],[6.511729,0.05272],[6.510102,0.051418],[6.516368,0.033637],[6.526622,0.024115],[6.536957,0.026435],[6.5442,0.043931],[6.557302,0.028266],[6.567719,0.042141],[6.57838,0.078111],[6.582856,0.077338],[6.616222,0.078111],[6.618175,0.081204],[6.633637,0.098578],[6.641449,0.10102],[6.652599,0.103217],[6.660004,0.107327],[6.653331,0.124579],[6.65919,0.128852],[6.668468,0.131008],[6.674571,0.133368],[6.703136,0.180406],[6.715587,0.195461],[6.740082,0.218573],[6.748546,0.230699],[6.756521,0.250067],[6.760509,0.268297],[6.760916,0.284166],[6.756521,0.310858],[6.746104,0.33808],[6.727061,0.366929],[6.703868,0.391832],[6.681407,0.407131],[6.641856,0.410793],[6.609548,0.390367]],[[7.448741,1.693183],[7.421235,1.695705],[7.403005,1.699774],[7.385265,1.692328],[7.371837,1.677191],[7.366547,1.658108],[7.366466,1.641791],[7.364024,1.629381],[7.355968,1.620022],[7.339366,1.613105],[7.330089,1.614651],[7.329356,1.596259],[7.33253,1.565334],[7.343761,1.559882],[7.358409,1.558905],[7.372244,1.554145],[7.381033,1.537991],[7.38738,1.542467],[7.394054,1.545396],[7.395681,1.542385],[7.398774,1.53498],[7.401378,1.531195],[7.402517,1.54206],[7.40211,1.550727],[7.405772,1.556464],[7.418224,1.558498],[7.425548,1.56273],[7.430512,1.57274],[7.435557,1.592597],[7.434418,1.61522],[7.438243,1.623928],[7.452647,1.627346],[7.461762,1.630805],[7.456716,1.638332],[7.443533,1.645453],[7.428722,1.647854],[7.434825,1.658881],[7.446137,1.665473],[7.457367,1.669989],[7.462738,1.674547],[7.459727,1.6883],[7.448741,1.693183]],[[8.911469,3.753811],[8.908458,3.758205],[8.880626,3.747301],[8.84669,3.746405],[8.814301,3.751288],[8.791759,3.758205],[8.781912,3.750963],[8.76824,3.751695],[8.737153,3.758205],[8.741222,3.768622],[8.743419,3.772406],[8.702403,3.760932],[8.667166,3.726264],[8.640961,3.683539],[8.62794,3.648342],[8.621104,3.555854],[8.615245,3.543118],[8.60141,3.529731],[8.585704,3.518459],[8.573253,3.511786],[8.582286,3.497748],[8.585134,3.479315],[8.5796,3.463324],[8.562755,3.456529],[8.52711,3.463039],[8.510265,3.463813],[8.497569,3.456529],[8.473888,3.46308],[8.455251,3.446519],[8.442149,3.421332],[8.435395,3.401923],[8.42921,3.359605],[8.425304,3.350409],[8.422048,3.339301],[8.428559,3.326239],[8.437673,3.313137],[8.442231,3.302314],[8.450206,3.272935],[8.469412,3.257961],[8.493175,3.252427],[8.514659,3.251695],[8.52768,3.248847],[8.548839,3.235297],[8.559581,3.230618],[8.569672,3.230414],[8.592621,3.235541],[8.599864,3.238023],[8.627615,3.222602],[8.6421,3.217353],[8.648448,3.220038],[8.653656,3.213568],[8.676606,3.203803],[8.686209,3.197333],[8.695486,3.208564],[8.729747,3.264797],[8.774669,3.316555],[8.780935,3.332913],[8.781423,3.378974],[8.784923,3.395087],[8.81365,3.412177],[8.815929,3.415513],[8.818696,3.420885],[8.823416,3.444403],[8.840668,3.458075],[8.860688,3.511786],[8.863536,3.515123],[8.896739,3.554429],[8.906993,3.582099],[8.943126,3.614203],[8.951182,3.627427],[8.95753,3.643012],[8.961599,3.660468],[8.963145,3.679674],[8.959158,3.700832],[8.949229,3.717922],[8.922699,3.750718],[8.914561,3.752143],[8.911469,3.753811]],[[7.487804,4.473375],[7.469574,4.471381],[7.451915,4.475531],[7.416352,4.493842],[7.404552,4.498033],[7.356212,4.483303],[7.346202,4.478176],[7.336925,4.46015],[7.342784,4.447089],[7.358165,4.439276],[7.431814,4.434801],[7.449229,4.436591],[7.499034,4.454495],[7.514415,4.457099],[7.552582,4.455552],[7.569998,4.459418],[7.578868,4.471381],[7.584483,4.484605],[7.574229,4.48786],[7.541026,4.484442],[7.523774,4.482367],[7.487804,4.473375]],[[7.243175,4.5244],[7.229503,4.532782],[7.225597,4.516181],[7.221446,4.506659],[7.202159,4.484442],[7.179698,4.449774],[7.147716,4.41592],[7.138031,4.39704],[7.147716,4.385077],[7.181651,4.382025],[7.270681,4.400377],[7.284841,4.406195],[7.29835,4.41474],[7.307791,4.424506],[7.312022,4.440009],[7.312266,4.455634],[7.314301,4.469143],[7.320486,4.481024],[7.33253,4.491889],[7.319672,4.496527],[7.274181,4.491889],[7.258556,4.497545],[7.243175,4.5244]],[[9.301594,0.90303],[9.314052,0.895347],[9.322218,0.881535],[9.334347,0.885605],[9.336782,0.895347],[9.342465,0.899406],[9.328712,0.91124],[9.331911,0.922136],[9.3279,0.930723],[9.319782,0.936406],[9.306793,0.936406],[9.301594,0.90303]],[[9.384086,0.809629],[9.376786,0.809986],[9.379643,0.806971],[9.384086,0.809629]]]},"properties":{"name":"JWLA 034 Precision Reference - Gulf of Guinea Water Only","mapKind":"precision-reference-display-only","scope":"precision-reference","circular":"JWLA-034","publishedAt":"2026-07-29","monitoringMode":"reference-only","contractAlertEligible":false,"manualReviewRequired":true,"geometryStatus":"derived-water-only-reference","reviewStatus":"manual-review-display-only","sourceUrl":"https://lmalloyds.com/wp-content/uploads/2025/06/JWLA-034-Saudi-Arabia.pdf","sourceDocumentSha256":"125e507bbd187051315bdf80ae30583bc92ec9ad2d280d02fac2d10a019d03b9","sourceArtifactSha256":"1b18b7248d47e3c4db53cb2cb80be635dcca781149ec6aabfeea4bf9ce164f22","sourceManifestSha256":"3bbb5fca57b73d43ed2ab7a583ee2b7ede10d9769030854cf36eb19e332aa800","sourceSubsetSha256":"cb1cd8304062373c48610be14bcd6b8f63389bb66cff10a8f9e3b74727b7bef9","hashAlgorithm":"SHA-256","hashScope":"All SHA-256 values hash exact raw bytes; per-feature geometrySha256 hashes canonical compact geometry JSON plus newline.","geometrySource":"JWLA-034 official limits independently intersected with Natural Earth v5.1.2 cartographic geometry","naturalEarthVersion":"v5.1.2","naturalEarthTagCommit":"f1890d9f152c896d250a77557a5751a93d494776","naturalEarthOceanUrl":"https://raw.githubusercontent.com/nvkelso/natural-earth-vector/v5.1.2/geojson/ne_10m_ocean.geojson","naturalEarthAdmin0CountriesUrl":"https://raw.githubusercontent.com/nvkelso/natural-earth-vector/v5.1.2/geojson/ne_10m_admin_0_countries.geojson","license":"Public domain","licenseUrl":"https://www.naturalearthdata.com/about/terms-of-use/","limitations":["Official coordinate boundary clipped to a Natural Earth ocean mask; Natural Earth coastline generalization limits precision.","Reference-only and not for navigation or automatic contract determination."],"accuracyNote":"Reference visualization only; not for navigation or automatic determination of contract coverage."}},{"type":"Feature","id":"jwla-034:precision:iran-caspian-12nm","geometry":{"type":"Polygon","coordinates":[[[48.926323452092035,38.63002308559091],[48.93864487376346,38.62775158666792],[48.95080673308247,38.6250025034465],[48.96277889820808,38.62178264828031],[48.974531718423975,38.618099999641636],[48.9860360991054,38.613963681905844],[48.99726357515051,38.609383942241124],[49.00818638267713,38.604372124667215],[49.01877752879144,38.59894064135437],[49.02901085924268,38.593102941241284],[49.03886112378462,38.586873476057804],[49.04830403907341,38.58026766384506],[49.05731634893909,38.57330185007211],[49.06587588187775,38.565993266454534],[49.07396160562038,38.55835998758603],[49.081553678644234,38.55042088549951],[49.088633498502865,38.54219558227938],[49.09518374686105,38.53370440085114],[49.101188431131796,38.52496831407879],[49.106632922622815,38.51600889230448],[49.111503991111405,38.50684824946771],[49.11578983577689,38.49750898794522],[49.11948011243123,38.48801414225433],[49.12256595699911,38.47838712176542],[49.12504000520963,38.46865165257025],[49.126896408472305,38.45883171865468],[49.128130845921184,38.4489515025249],[49.128740532620405,38.43903532543673],[49.1313638936954,38.351135599980346],[49.13136961654853,38.34194293178302],[49.1308394672021,38.3327597549428],[49.12977476536012,38.32360542817409],[49.128177955422046,38.314499242196014],[49.12647490736662,38.30725657073773],[49.12685583738009,38.30111240302188],[49.12742617439545,38.284101220644665],[49.12931676227994,38.28037635061551],[49.13363768510427,38.27121970209578],[49.137385706964956,38.261907666932295],[49.140552099028596,38.252462477631695],[49.143129530352404,38.24290667611955],[49.145112083325024,38.23326305960328],[49.14649526564242,38.22355462590561],[49.158040589577936,38.11956556095265],[49.19278279038114,38.0206167979574],[49.195807267517324,38.01108673534823],[49.19823629736924,38.00145068439344],[49.20006425341845,37.99173189491282],[49.201286965158275,37.98195380727142],[49.20190172588627,37.972139995638976],[49.20190729691792,37.962314111014436],[49.20130390823402,37.952499824154586],[49.200948161647815,37.94962652115422],[49.202890340830194,37.9471116182481],[49.20894974077974,37.93882502245679],[49.21450050078284,37.930318180838476],[49.21953005182274,37.921610626593235],[49.224027034216185,37.912722346973865],[49.22798132224048,37.90367373694405],[49.23138404579591,37.89448555195764],[49.234227609067986,37.88517885997132],[49.23650570616239,37.875774992806015],[49.238213333693096,37.86629549697109],[49.23934680031193,37.856762084068215],[49.23990373317575,37.84719658089023],[49.24019436501908,37.83681961342],[49.24017907669182,37.831457775634696],[49.2625290747736,37.80478432621434],[49.29814856227442,37.775352474108324],[49.33780213006065,37.7527186617385],[49.465869555915475,37.69970520150973],[49.49914505966809,37.69077043575067],[49.813085366406796,37.65708077205443],[49.818197725282324,37.658629741592414],[49.83061068819734,37.66181506537988],[49.8432153642899,37.66448392813278],[49.8559777047587,37.66662911538946],[49.888285845346665,37.67136191327395],[49.90089318450788,37.67294485989402],[49.91358560506141,37.67401684472317],[49.92633026421939,37.67457509246259],[49.939094180575125,37.674618157154214],[49.951844321508176,37.674145926026384],[49.964547690739586,37.6731596198062],[49.97717141578357,37.671661789497946],[49.989682835042075,37.6696563096365],[50.00204958429008,37.66714836803533],[50.01423968230207,37.664144452058366],[50.026221615372755,37.66065233145577],[50.03796442048995,37.65668103781269],[50.04943776692208,37.65224084067033],[50.08522665117263,37.63747630194279],[50.09605637586884,37.632733215553046],[50.106578800685405,37.627572099461425],[50.116768444805025,37.62200548271427],[50.126600651516654,37.61604687596864],[50.13196795547739,37.61244875570109],[50.205330652889096,37.59897720005388],[50.216995735233574,37.59659511574466],[50.22850337091229,37.59377057449027],[50.23982702116568,37.590510093807815],[50.28680190809244,37.575948458962],[50.29803784787134,37.57220999280192],[50.309032094485076,37.568042075172194],[50.31975873933862,37.56345454296792],[50.33019251893921,37.558458221649424],[50.340308875293545,37.5530648991597],[50.35008401446747,37.54728729754383],[50.359494963162014,37.54113904234408],[50.368519623165085,37.5346346298499],[50.40018324722364,37.51066254231996],[50.4090737948575,37.50358163355988],[50.417507092396264,37.49615479858091],[50.42546206737561,37.48840071655218],[50.43291886901595,37.48033888384984],[50.43985891735395,37.471989564297246],[50.44626494894745,37.46337373751093],[50.45212105904806,37.45451304549174],[50.45741274014662,37.44542973760366],[50.4621269168084,37.436146614086866],[50.46625197672598,37.426686968254664],[50.46977779792975,37.417074527526324],[50.47269577210657,37.40733339345037],[50.47499882398928,37.39748798087422],[50.47668142679032,37.38756295641767],[50.477739613664035,37.37758317640855],[50.47817098519301,37.36757362443896],[50.47797471290435,37.35755934870076],[50.47795272153449,37.35729239026383],[50.478009117032244,37.35713451067171],[50.47950740143047,37.35527164576365],[50.48571916746044,37.34712684160303],[50.4914368695743,37.338754868248444],[50.496647658636455,37.33017478409494],[50.50133985186422,37.32140611473934],[50.50550295808128,37.312468808087324],[50.51986603962821,37.27921312741781],[50.58018320105643,37.24279017540146],[50.58939613680735,37.2369441565792],[50.598254163741125,37.23075805615838],[50.60673771803942,37.224245598806554],[50.61482808120695,37.217421229650284],[50.62250742141356,37.21030008168639],[50.63492806803191,37.198215745483964],[50.64245554239621,37.194794671168566],[50.653497983025574,37.18914311827145],[50.73013692606755,37.147561892718585],[50.736990571298996,37.14553703071972],[50.748436883909015,37.14162588336026],[50.762379501837266,37.13652772897624],[50.773528983533026,37.13217849517381],[50.7843941083002,37.1273910365681],[50.79494802868945,37.122177207259206],[50.805164683581204,37.116549914549566],[50.81501886333737,37.110523086345616],[50.82448627263706,37.10411163601189],[50.833543590833855,37.09733142477271],[50.84216852968037,37.090199221763676],[50.852428967222686,37.08127966866041],[50.98033239138549,37.02534893805925],[50.99287835677585,37.01946417616114],[51.00497409469012,37.01300283758245],[51.12951129424261,36.94205079894177],[51.165251693330745,36.92899364023224],[51.416542696112124,36.88896581450222],[51.42683885915071,36.88713057540721],[51.43702863163972,36.88494626111188],[51.60286878738832,36.846214043231164],[51.7751069290213,36.8213357534683],[51.787606016810464,36.819252619962995],[51.79995519965142,36.81665606537642],[51.92802323779796,36.78679985526056],[52.034260551645716,36.79816315375807],[52.173266429466125,36.83907883199336],[52.185841025891854,36.84246762538556],[52.198623241617845,36.845312333060924],[52.3709929655982,36.879576646874774],[52.38370963457552,36.88181193082264],[52.56044684934527,36.908859473401165],[52.71872270103261,36.93482972847105],[52.878208048482605,36.97295417204129],[53.042373437588985,37.01363609853935],[53.05151537990453,37.01574144459358],[53.060751206042546,37.01756533953095],[53.39343818054829,37.07736066489763],[53.40647607025719,37.07939300246663],[53.45134917712205,37.08538920262654],[53.46444596885931,37.08685175365067],[53.47762148751687,37.087755911776846],[53.72341890471532,37.09911226487873],[53.717160634257525,37.122521675538074],[53.69314142377987,37.17394893502476],[53.68889082113576,37.183819271445344],[53.68528811233189,37.19385322070148],[53.68068801938889,37.20804542775431],[53.67764328636527,37.21860445719193],[53.67531675756746,37.22927958252558],[53.67371554716416,37.2400395715257],[53.66399541314997,37.32478114474065],[53.66317952873675,37.33446263503056],[53.66295211228806,37.34416423040521],[53.663313926321514,37.35386314101068],[53.66426434875724,37.36353657453133],[53.66580137223652,37.37316178980114],[53.66792160671491,37.38271615037656],[53.67062028534367,37.392177177944426],[53.67389127364536,37.401522605436774],[53.67772708198168,37.41073042972548],[53.682118881302365,37.41977896376934],[53.687056522156375,37.42864688808674],[53.69252855693709,37.437313301428496],[53.69852226532493,37.44575777052601],[53.70502368288179,37.45396037879208],[53.71201763274267,37.46190177385334],[53.71948776034126,37.46956321379565],[53.727416571096946,37.4769266120064],[53.735785470982464,37.483974580500764],[53.74457480988196,37.490690471622116],[53.753763927641614,37.497058418010496],[53.763331202705785,37.50306337073706],[53.77325410322392,37.50869113550677],[53.7835092405056,37.51392840683605],[53.79407242469341,37.5187628001171],[53.80491872251614,37.52318288148587],[53.81602251697803,37.52717819541598],[53.827357568833406,37.53073928996675],[53.83889707968986,37.5338577396193],[53.85061375657795,37.53652616564106],[53.862479877820284,37.538738253925224],[53.87446736002835,37.54048877025837],[53.874549483045506,37.54049750872145],[53.889822,37.50812400000001],[53.89966900000001,37.46841100000001],[53.91374799999999,37.343004],[53.91374799999999,37.34275999999999],[53.923188,37.25800199999999],[53.927744999999994,37.243801],[53.958018,37.178534],[53.98031699999999,37.09406200000001],[53.996267,37.057318000000016],[54.02003,37.027737],[53.99724400000001,36.993719999999996],[53.99439499999999,36.979153],[54.013357000000006,36.97308999999999],[54.028087,36.96621300000001],[54.03353899999999,36.949123],[54.03305100000001,36.845771000000006],[54.026215,36.829088000000006],[54.014334,36.821112],[53.889171000000005,36.79360600000001],[53.872081,36.79840700000001],[53.856456,36.80548700000001],[53.70101999999999,36.816596000000004],[53.660167,36.831204],[53.63599700000001,36.857001],[53.643891,36.857815],[53.66382899999999,36.863227000000016],[53.63103300000001,36.861965],[53.616954,36.865668],[53.60914100000001,36.87689900000001],[53.66041100000001,36.87689900000001],[53.719005,36.870673],[53.73438600000001,36.873236],[53.76205499999999,36.881822],[53.77711,36.883734000000004],[53.803884,36.877021],[53.81820699999999,36.87523000000001],[53.830740000000006,36.880276],[53.87647499999999,36.89166900000001],[53.94760200000001,36.898749],[54.004242,36.91461799999999],[54.006521000000006,36.952622999999996],[53.95777400000001,36.919623],[53.88591600000001,36.905829],[53.492361,36.887885],[53.447602,36.881903],[53.11573299999999,36.82225200000001],[52.950531000000005,36.78131700000001],[52.779306999999996,36.74038300000001],[52.608653000000004,36.71238799999999],[52.430512,36.685126],[52.258556000000006,36.65094600000001],[52.094086,36.602525],[51.909028,36.58270900000001],[51.73096799999999,36.62425399999999],[51.54607200000001,36.650946],[51.367849,36.69257200000001],[51.088634,36.73700600000001],[51.004731,36.76764600000001],[50.86085,36.849555],[50.703136,36.918442999999996],[50.688243,36.928697],[50.658702,36.954332],[50.644786,36.95941800000001],[50.624034,36.963284],[50.513437999999994,37.023261],[50.493987999999995,37.027736999999995],[50.478852,37.03497999999999],[50.429454,37.082953],[50.357188,37.126532],[50.322275999999995,37.153266],[50.292247,37.19281600000001],[50.268728,37.246894000000005],[50.254242000000005,37.264838000000005],[50.245128,37.279283],[50.23210699999999,37.315416],[50.22331799999999,37.32933200000001],[50.227306,37.365424],[50.195649,37.38935000000001],[50.14877399999999,37.403876],[50.01872799999999,37.427719999999994],[49.935312999999994,37.453559000000006],[49.94312599999999,37.46161500000001],[49.948904,37.460924],[49.959972,37.458482000000004],[49.96949299999999,37.459703000000005],[49.933767,37.474433000000005],[49.90154100000001,37.469713000000006],[49.86744199999998,37.45856400000002],[49.82618200000001,37.45355900000001],[49.441742,37.494859],[49.366873000000005,37.51496000000001],[49.205577,37.581692000000004],[49.132498000000005,37.623358],[49.065196,37.67886],[49.01449600000001,37.739163000000005],[48.993663,37.77676000000001],[48.983165,37.815985000000005],[48.984711,37.82318800000001],[48.987804,37.832099],[48.98747800000001,37.84247499999999],[48.952159,37.888007],[48.944509,37.90338799999999],[48.940196,37.924993999999984],[48.941173,37.94774],[48.949067,37.96686400000001],[48.907725,38.083482000000004],[48.893728,38.205797],[48.874848,38.242743],[48.872895,38.29555899999999],[48.86589599999999,38.316881000000016],[48.877207999999996,38.346177],[48.87427799999999,38.434068],[48.87427799999999,38.434231],[48.86849999999999,38.602484000000004],[48.86720672676188,38.63969535769689],[48.926323452092035,38.63002308559091]]]},"properties":{"name":"JWLA 034 Precision Reference - Iran Caspian 12NM Provisional","mapKind":"precision-reference-display-only","scope":"precision-reference","circular":"JWLA-034","publishedAt":"2026-07-29","monitoringMode":"reference-only","contractAlertEligible":false,"manualReviewRequired":true,"geometryStatus":"provisional-derived-12nm-reference","reviewStatus":"manual-review-display-only","sourceUrl":"https://lmalloyds.com/wp-content/uploads/2025/06/JWLA-034-Saudi-Arabia.pdf","sourceDocumentSha256":"125e507bbd187051315bdf80ae30583bc92ec9ad2d280d02fac2d10a019d03b9","sourceArtifactSha256":"1b18b7248d47e3c4db53cb2cb80be635dcca781149ec6aabfeea4bf9ce164f22","sourceManifestSha256":"3bbb5fca57b73d43ed2ab7a583ee2b7ede10d9769030854cf36eb19e332aa800","sourceSubsetSha256":"cb1cd8304062373c48610be14bcd6b8f63389bb66cff10a8f9e3b74727b7bef9","hashAlgorithm":"SHA-256","hashScope":"All SHA-256 values hash exact raw bytes; per-feature geometrySha256 hashes canonical compact geometry JSON plus newline.","geometrySource":"JWLA-034 official limits independently intersected with Natural Earth v5.1.2 cartographic geometry","naturalEarthVersion":"v5.1.2","naturalEarthTagCommit":"f1890d9f152c896d250a77557a5751a93d494776","naturalEarthOceanUrl":"https://raw.githubusercontent.com/nvkelso/natural-earth-vector/v5.1.2/geojson/ne_10m_ocean.geojson","naturalEarthAdmin0CountriesUrl":"https://raw.githubusercontent.com/nvkelso/natural-earth-vector/v5.1.2/geojson/ne_10m_admin_0_countries.geojson","license":"Public domain","licenseUrl":"https://www.naturalearthdata.com/about/terms-of-use/","limitations":["Provisional cartographic derivation from a 22,224m buffer of Natural Earth Iran geometry; it is not an authoritative Iranian territorial-sea boundary.","Caspian delimitation, baselines, islands, and legal claims are not represented; manual review is required."],"accuracyNote":"Reference visualization only; not for navigation or automatic determination of contract coverage."}}]}