{"type":"FeatureCollection","features":[{"type":"Feature","id":"eez.117","geometry":{"type":"MultiPolygon","coordinates":[[[[-56.0665,8.5935],[-56.20516667,7.89133333],[-56.24983333,7.666],[-56.32816667,7.483],[-56.348,7.43516667],[-56.36233333,7.4075],[-56.70566667,6.73316667],[-56.782,6.5855],[-56.82033333,6.53533333],[-56.86166667,6.46683333],[-56.95016667,6.3195],[-56.97716667,6.26983333],[-56.99783333,6.2245],[-57.12216667,6.13883333],[-57.14735556,5.99616944],[-57.14735685,5.99614623],[-57.15747094,6.02360547],[-57.15757906,6.02409554],[-57.16050065,6.04838884],[-57.16347826,6.05624914],[-57.16315115,6.06477463],[-57.16525614,6.06993294],[-57.16463256,6.07576454],[-57.16470993,6.07615101],[-57.1692363,6.09243464],[-57.17698753,6.10981286],[-57.17726135,6.11024964],[-57.18466306,6.11869562],[-57.18847263,6.12651587],[-57.19477963,6.13579035],[-57.20027065,6.14047825],[-57.20108485,6.14355791],[-57.20479071,6.14964235],[-57.20732725,6.15234375],[-57.21894014,6.16592288],[-57.22796965,6.17422831],[-57.22934926,6.17754698],[-57.23449683,6.18002558],[-57.25514185,6.19995904],[-57.25879455,6.20203924],[-57.25936866,6.20375395],[-57.26905561,6.21198416],[-57.27681577,6.22177291],[-57.28117955,6.22419035],[-57.28306925,6.22401011],[-57.28384936,6.22566974],[-57.3046875,6.24246645],[-57.31329584,6.24941516],[-57.31780314,6.25124323],[-57.34184515,6.26886094],[-57.34212875,6.26904714],[-57.35249913,6.27440524],[-57.35763693,6.27955174],[-57.36408246,6.28268337],[-57.36739635,6.28596365],[-57.37516093,6.28894174],[-57.37506747,6.29032183],[-57.38109052,6.2940948],[-57.38527524,6.29823017],[-57.39237976,6.30258346],[-57.39470625,6.30291796],[-57.39956856,6.30757737],[-57.39984036,6.30772972],[-57.40383005,6.30834401],[-57.40502286,6.30905151],[-57.41136956,6.31405342],[-57.41174376,6.31425262],[-57.41585696,6.31543565],[-57.42463291,6.32038784],[-57.42620325,6.32012224],[-57.42793262,6.32431102],[-57.43655837,6.328125],[-57.43765736,6.32856655],[-57.44020605,6.328125],[-57.44026613,6.32795048],[-57.44038641,6.32788086],[-57.44058681,6.32788086],[-57.44070697,6.32795048],[-57.44076705,6.328125],[-57.44115663,6.328125],[-57.44284475,6.32933116],[-57.44856501,6.33029985],[-57.45283985,6.33311796],[-57.47952855,6.34228897],[-57.47999155,6.34243035],[-57.48844481,6.34191346],[-57.48905754,6.34301138],[-57.49409306,6.34214973],[-57.49940991,6.33975244],[-57.50307465,6.33935714],[-57.50391352,6.33896005],[-57.50625312,6.33670437],[-57.51096165,6.33480716],[-57.51190126,6.33403492],[-57.51363301,6.33021748],[-57.51528788,6.328125],[-57.51744401,6.32664156],[-57.51843941,6.32388222],[-57.51870525,6.32181215],[-57.51764512,6.29673552],[-57.52178526,6.28004944],[-57.52241385,6.25582755],[-57.52401125,6.25070155],[-57.52662361,6.22809696],[-57.52507937,6.19822812],[-57.52973926,6.18792045],[-57.53125298,6.18638384],[-57.53153372,6.18638384],[-57.53283691,6.18765485],[-57.53419876,6.18908501],[-57.53213584,6.19334793],[-57.53211355,6.19934392],[-57.53971195,6.23773932],[-57.53966677,6.24538934],[-57.53800023,6.25049782],[-57.53770697,6.25627637],[-57.53557157,6.26599193],[-57.53348064,6.27050924],[-57.53496945,6.28171766],[-57.53450942,6.28547871],[-57.534832,6.28696346],[-57.53591478,6.29124737],[-57.53784311,6.29436946],[-57.53885066,6.29570293],[-57.54581726,6.30194533],[-57.54929686,6.30660105],[-57.55208445,6.31215477],[-57.5560497,6.31638837],[-57.56289744,6.32738066],[-57.56294835,6.32775474],[-57.56274331,6.328125],[-57.56664395,6.33998203],[-57.56871772,6.35204232],[-57.57400334,6.37156975],[-57.57653225,6.37625468],[-57.58158565,6.38490593],[-57.59067655,6.39818597],[-57.59752881,6.40587378],[-57.5987035,6.4096812],[-57.60245132,6.41279018],[-57.60761952,6.41971266],[-57.60965681,6.42527485],[-57.61535954,6.42915142],[-57.61935616,6.43464005],[-57.62596321,6.44738507],[-57.62724125,6.44890141],[-57.63064575,6.45225251],[-57.63344896,6.45345271],[-57.63977933,6.46024895],[-57.64541686,6.4642508],[-57.64876068,6.46506965],[-57.64960372,6.46569097],[-57.65440655,6.47117424],[-57.65625,6.47265625],[-57.66122937,6.47554088],[-57.6631577,6.47722495],[-57.6685127,6.48255265],[-57.68657637,6.50390625],[-57.68685722,6.50390625],[-57.69568765,6.51441193],[-57.69884217,6.51603198],[-57.70237064,6.52020526],[-57.71828127,6.53095818],[-57.721753,6.53446376],[-57.72967994,6.53843367],[-57.73304832,6.54154432],[-57.74074125,6.54536927],[-57.74309683,6.54743814],[-57.76127398,6.56843138],[-57.77470267,6.58191657],[-57.7760874,6.58346343],[-57.77729356,6.58600676],[-57.78362465,6.58865845],[-57.79033852,6.5934391],[-57.79607093,6.59451604],[-57.79880178,6.59270322],[-57.79994547,6.59503448],[-57.79904306,6.59806216],[-57.79980457,6.60110092],[-57.80024397,6.60226774],[-57.80288422,6.60692573],[-57.80900443,6.61467016],[-57.81015778,6.61815631],[-57.81725907,6.62573516],[-57.81999898,6.62862027],[-57.83273172,6.63730311],[-57.84262824,6.64731205],[-57.85670698,6.65838575],[-57.85962975,6.66206133],[-57.86566556,6.66509414],[-57.86938965,6.67019904],[-57.88078773,6.67923737],[-57.88117135,6.6796875],[-57.88601756,6.68550515],[-57.89271891,6.69158554],[-57.89722264,6.69527638],[-57.90526843,6.70059395],[-57.90845943,6.70390511],[-57.91612363,6.70772231],[-57.91771293,6.70824516],[-57.91999662,6.70819843],[-57.92081487,6.70675015],[-57.9214015,6.70659745],[-57.92163634,6.70680118],[-57.92344606,6.7124778],[-57.92363644,6.71280432],[-57.92613506,6.71666038],[-57.93086386,6.72067225],[-57.93112028,6.72098458],[-57.93289924,6.72483754],[-57.94804096,6.73857617],[-57.95151401,6.74299276],[-57.96409345,6.75190258],[-57.97454643,6.75682294],[-57.98101616,6.76603496],[-57.99628115,6.77726924],[-57.99991465,6.78031492],[-58.0078125,6.78850436],[-58.0078125,6.78878343],[-58.02174485,6.79907107],[-58.02850711,6.80213594],[-58.03493273,6.80192685],[-58.03938735,6.80365741],[-58.04531646,6.80412304],[-58.05235386,6.81191242],[-58.05722976,6.81412601],[-58.07008314,6.81857085],[-58.09062064,6.82319021],[-58.09125233,6.82330787],[-58.10095537,6.82261264],[-58.12173712,6.82664001],[-58.12863004,6.82536197],[-58.14210582,6.82610452],[-58.15578365,6.82437694],[-58.15942562,6.8258208],[-58.16304111,6.82587874],[-58.16471183,6.82812071],[-58.16694963,6.82304084],[-58.16676235,6.82093251],[-58.1671046,6.82066941],[-58.16971266,6.80322123],[-58.17095721,6.79670656],[-58.17568076,6.77693117],[-58.18104458,6.76391613],[-58.18792021,6.75237274],[-58.19522655,6.72836554],[-58.19447994,6.7181766],[-58.18521225,6.68462467],[-58.1892395,6.66241002],[-58.19411576,6.64903152],[-58.1993705,6.63876677],[-58.20210481,6.63588858],[-58.20723295,6.62479806],[-58.21101522,6.60603082],[-58.21086097,6.60086346],[-58.21423066,6.59142935],[-58.22690845,6.56598496],[-58.23276663,6.55105114],[-58.24300313,6.53705943],[-58.25995147,6.52129352],[-58.26460254,6.51572812],[-58.28158236,6.50119472],[-58.29386485,6.48774946],[-58.30897021,6.47928131],[-58.31160617,6.47560751],[-58.31226134,6.45655072],[-58.30545902,6.44774163],[-58.29546034,6.43906844],[-58.29313624,6.43515158],[-58.29101455,6.42397475],[-58.29064631,6.40888774],[-58.29117227,6.40343678],[-58.29302037,6.39886463],[-58.30431092,6.38573885],[-58.31341434,6.37101674],[-58.30939245,6.35505021],[-58.31157243,6.33319426],[-58.30925202,6.32898188],[-58.30117214,6.32069504],[-58.29074144,6.31411386],[-58.26989567,6.29781485],[-58.26777232,6.29500222],[-58.26681507,6.29136658],[-58.26741433,6.28199494],[-58.27248287,6.27247858],[-58.27078605,6.26516974],[-58.27186382,6.25906897],[-58.27411795,6.25424898],[-58.28412581,6.24486125],[-58.28834164,6.23950124],[-58.29560936,6.21919775],[-58.29574192,6.21886802],[-58.29883873,6.21357012],[-58.2993015,6.21184766],[-58.29930425,6.20856726],[-58.29830134,6.20650744],[-58.29500127,6.20458806],[-58.2912755,6.20315886],[-58.28264046,6.20142126],[-58.28001726,6.19797206],[-58.27955747,6.19709003],[-58.27695191,6.18066394],[-58.27836442,6.16614938],[-58.26695132,6.15024495],[-58.26008785,6.14464772],[-58.25820947,6.14046347],[-58.25786757,6.13883114],[-58.25925934,6.13181055],[-58.25941825,6.1313076],[-58.26626205,6.11374104],[-58.27390814,6.10505176],[-58.27393806,6.10508585],[-58.27438903,6.1055963],[-58.27477753,6.10593581],[-58.27489924,6.10604453],[-58.27486515,6.10620356],[-58.26904547,6.11218715],[-58.26693475,6.1156404],[-58.26672792,6.11612165],[-58.25970626,6.13493443],[-58.25923884,6.14018583],[-58.26100707,6.14415097],[-58.26798844,6.14931047],[-58.27385151,6.15864372],[-58.27936172,6.1643846],[-58.27994215,6.16922986],[-58.27859855,6.17439187],[-58.27859855,6.18472195],[-58.28161454,6.1982429],[-58.28387415,6.20058417],[-58.29534674,6.20296562],[-58.30098116,6.20719945],[-58.30179465,6.21056664],[-58.29477048,6.22476101],[-58.28918433,6.24036264],[-58.28530085,6.24570906],[-58.27422571,6.25654435],[-58.27214527,6.2621814],[-58.27376902,6.27383387],[-58.26908505,6.28119445],[-58.26798046,6.28998554],[-58.26868868,6.29395342],[-58.27143836,6.29739726],[-58.30137777,6.31950021],[-58.3102349,6.328125],[-58.31311715,6.33323717],[-58.31412685,6.33805215],[-58.31194806,6.35499764],[-58.31557035,6.36735332],[-58.31456101,6.37386096],[-58.3053534,6.38913953],[-58.29385185,6.40098882],[-58.29254437,6.40499425],[-58.29319584,6.42873061],[-58.29444528,6.43490982],[-58.29892635,6.44054651],[-58.30444014,6.44423437],[-58.31336045,6.45322454],[-58.31542361,6.45912898],[-58.31543255,6.47027826],[-58.31410694,6.47661388],[-58.31116545,6.48100984],[-58.29454637,6.49321938],[-58.28466725,6.50482082],[-58.26549745,6.5226444],[-58.24843335,6.54446006],[-58.2396605,6.55137897],[-58.23531115,6.55715442],[-58.23013914,6.57628584],[-58.22312474,6.59248865],[-58.21735716,6.62651765],[-58.21351612,6.63551807],[-58.20889664,6.64089322],[-58.20206404,6.66056478],[-58.19244587,6.6796875],[-58.19197166,6.68499863],[-58.19334531,6.69140172],[-58.20046675,6.70385981],[-58.20156956,6.70612681],[-58.20450044,6.71363187],[-58.20534301,6.7175765],[-58.20502794,6.73005223],[-58.20000386,6.75571167],[-58.1974467,6.76392233],[-58.19110346,6.77969146],[-58.18902516,6.78387332],[-58.17911196,6.7998383],[-58.17666841,6.80742371],[-58.17656195,6.81352592],[-58.17744756,6.8135792],[-58.18099093,6.81256533],[-58.19306397,6.81774187],[-58.19540346,6.81923234],[-58.2000066,6.82247806],[-58.20189154,6.8250277],[-58.20626903,6.82727277],[-58.22290885,6.84181798],[-58.23221934,6.84592128],[-58.23759317,6.85089314],[-58.24561596,6.85421443],[-58.247527,6.85546875],[-58.24780786,6.85546875],[-58.25918341,6.86297274],[-58.27599776,6.87055874],[-58.28164577,6.87421942],[-58.28679395,6.87297165],[-58.29856181,6.87764132],[-58.30084526,6.87724376],[-58.30245745,6.87896764],[-58.30977535,6.88205075],[-58.31020355,6.88217604],[-58.31371415,6.88245678],[-58.32537901,6.88206995],[-58.33323598,6.88385785],[-58.34453118,6.88308322],[-58.34735274,6.88175046],[-58.35049164,6.88247883],[-58.35140085,6.88239992],[-58.35359132,6.88177025],[-58.35646415,6.88017583],[-58.35839522,6.87752235],[-58.36637604,6.87649763],[-58.36866307,6.87398291],[-58.38558662,6.87284875],[-58.41209722,6.86526251],[-58.42058456,6.86519361],[-58.42412901,6.863222],[-58.42736232,6.85919607],[-58.4322108,6.8564527],[-58.43216038,6.85546875],[-58.43591261,6.85263801],[-58.44589996,6.84151053],[-58.44913483,6.83876705],[-58.45585728,6.83553255],[-58.46560252,6.82686925],[-58.47540092,6.81303012],[-58.48216844,6.80672145],[-58.48861527,6.79893064],[-58.49029756,6.79668713],[-58.49861324,6.78401995],[-58.50182498,6.7765398],[-58.50263047,6.77419162],[-58.50435424,6.76765835],[-58.50557554,6.75834513],[-58.50861907,6.74991334],[-58.51507151,6.74549174],[-58.52051663,6.73893607],[-58.52493656,6.73210168],[-58.53602457,6.70917714],[-58.54594076,6.70015812],[-58.55831444,6.68259215],[-58.56990802,6.64422917],[-58.57045257,6.64208424],[-58.57319784,6.62516856],[-58.57343972,6.58514786],[-58.57509696,6.57890046],[-58.58045495,6.56805825],[-58.57892466,6.55893147],[-58.58323014,6.55199063],[-58.58401561,6.54868865],[-58.58226287,6.53681695],[-58.57789993,6.52760458],[-58.57590163,6.51877904],[-58.57567716,6.50818157],[-58.57814813,6.50039506],[-58.58127093,6.49743736],[-58.58043635,6.49380875],[-58.58183503,6.4900701],[-58.58608186,6.48478568],[-58.58563745,6.47702944],[-58.58410573,6.46870744],[-58.58404732,6.46472847],[-58.58320665,6.46374202],[-58.58422124,6.46228695],[-58.58421958,6.45891976],[-58.58507085,6.45608926],[-58.59152961,6.44147325],[-58.59438646,6.43230093],[-58.59411716,6.42821944],[-58.59134674,6.42225015],[-58.59128702,6.41868281],[-58.58901215,6.41157508],[-58.58857095,6.40548944],[-58.5937556,6.3874855],[-58.59331167,6.37906778],[-58.59462237,6.37430191],[-58.59195292,6.36576438],[-58.59082222,6.35546815],[-58.58715916,6.34923065],[-58.58651125,6.34032238],[-58.5840342,6.33880746],[-58.58323503,6.33667827],[-58.58617723,6.33054125],[-58.58626187,6.328125],[-58.59364855,6.3281337],[-58.60002124,6.328125],[-58.60254955,6.33002186],[-58.60403371,6.33274424],[-58.60954237,6.33724511],[-58.60994828,6.33772194],[-58.61276495,6.34378564],[-58.61454606,6.34517348],[-58.61443853,6.35070574],[-58.60966587,6.35306835],[-58.60887265,6.35452306],[-58.60964775,6.35842562],[-58.61399364,6.366907],[-58.61649203,6.38738537],[-58.61861944,6.39016342],[-58.62018776,6.39489365],[-58.61690974,6.40524173],[-58.61666024,6.40646255],[-58.61714315,6.40745795],[-58.61992002,6.40965748],[-58.62262738,6.41063964],[-58.62618256,6.41122627],[-58.62931097,6.41050315],[-58.63052106,6.41141236],[-58.63411117,6.40710294],[-58.63534892,6.40005803],[-58.64146614,6.39496446],[-58.64991975,6.39294446],[-58.65369666,6.38958621],[-58.66007566,6.38942671],[-58.66883135,6.38644338],[-58.67572165,6.37911451],[-58.69275784,6.38116991],[-58.69324505,6.38337076],[-58.69423306,6.38550055],[-58.69842875,6.38693416],[-58.70351458,6.38485885],[-58.7109375,6.38699782],[-58.7109375,6.39202011],[-58.70661593,6.3910557],[-58.69736195,6.39400268],[-58.69144142,6.39164913],[-58.68944395,6.39152503],[-58.68847227,6.39167118],[-58.68688345,6.39236045],[-58.68099105,6.39316261],[-58.67460251,6.39711654],[-58.67324674,6.39753401],[-58.66990674,6.39824164],[-58.66344607,6.39930403],[-58.65629947,6.39874124],[-58.65163803,6.40941894],[-58.64750504,6.41274095],[-58.64450085,6.41987586],[-58.63881373,6.42512143],[-58.63511896,6.43371665],[-58.63326061,6.43552041],[-58.62919605,6.44680452],[-58.62131441,6.45639324],[-58.61974084,6.46580756],[-58.61796117,6.46884847],[-58.61577046,6.47028887],[-58.61509407,6.48690617],[-58.61428678,6.49878001],[-58.61413574,6.49927044],[-58.60559964,6.51231515],[-58.60979235,6.52137673],[-58.61655867,6.53162992],[-58.61868477,6.53950298],[-58.62016654,6.55059326],[-58.61949444,6.55997384],[-58.61686242,6.56480551],[-58.6132313,6.56697476],[-58.61346531,6.57141864],[-58.61072314,6.57400334],[-58.61301625,6.57663846],[-58.61466074,6.58098602],[-58.61745954,6.60113347],[-58.62015152,6.60644102],[-58.62081814,6.60941768],[-58.62161064,6.61593294],[-58.62003398,6.61633515],[-58.61998785,6.61897981],[-58.62128878,6.62264705],[-58.62128866,6.62314904],[-58.62074447,6.62556255],[-58.61493325,6.64220226],[-58.61244631,6.66015077],[-58.6133275,6.66394341],[-58.61062753,6.66954303],[-58.60603178,6.68999827],[-58.60617661,6.69778323],[-58.60126126,6.7088443],[-58.60113478,6.70947731],[-58.59967983,6.72229588],[-58.59833682,6.73611045],[-58.59858942,6.74459887],[-58.59719467,6.75071716],[-58.59719944,6.75099635],[-58.59762287,6.75835931],[-58.60098875,6.77200913],[-58.60243213,6.78806531],[-58.59332323,6.80444276],[-58.58974767,6.82113326],[-58.58424246,6.83314896],[-58.58351135,6.83551145],[-58.58215928,6.84667826],[-58.57613552,6.86564267],[-58.57306862,6.88192594],[-58.56599641,6.89612782],[-58.55531836,6.92648184],[-58.5488739,6.93883216],[-58.54819715,6.93986535],[-58.54006147,6.95067525],[-58.53097427,6.95941806],[-58.52303362,6.96536315],[-58.51695335,6.96838427],[-58.51280844,6.9704442],[-58.50589454,6.97502625],[-58.50057316,6.97944701],[-58.49221337,6.99537528],[-58.49210656,6.99564624],[-58.49028432,7.00511456],[-58.48571146,7.01602626],[-58.48534882,7.01770985],[-58.48330712,7.03125],[-58.47972548,7.05636287],[-58.48006022,7.06113982],[-58.47719634,7.08707345],[-58.47761726,7.09961104],[-58.47566354,7.11363804],[-58.47563374,7.12605786],[-58.47438192,7.13025117],[-58.47447073,7.13739085],[-58.47324622,7.13934064],[-58.47350144,7.14411271],[-58.47662735,7.15801764],[-58.47690117,7.15881908],[-58.48299026,7.17020595],[-58.48693073,7.18235815],[-58.48828077,7.18991983],[-58.48855805,7.19581056],[-58.48824465,7.20379412],[-58.48597455,7.20655632],[-58.48583627,7.20703125],[-58.48613644,7.21269083],[-58.48416114,7.21746445],[-58.48474264,7.22525644],[-58.48027015,7.24815822],[-58.47936988,7.26067305],[-58.47679257,7.26344562],[-58.47623742,7.26652145],[-58.47608662,7.26857471],[-58.47686815,7.27024424],[-58.47532082,7.28241146],[-58.4763056,7.29085326],[-58.47609985,7.30954826],[-58.47756135,7.3118366],[-58.47772157,7.31253707],[-58.47813773,7.32190537],[-58.4782505,7.32240701],[-58.47990203,7.3238976],[-58.47981524,7.32890832],[-58.4837172,7.34281504],[-58.49230647,7.35794115],[-58.49424684,7.35890901],[-58.4963901,7.3629024],[-58.50294995,7.36986995],[-58.50877213,7.37974834],[-58.512905,7.38205981],[-58.51293755,7.3828125],[-58.51267254,7.38404655],[-58.5129379,7.38417184],[-58.51758063,7.38396084],[-58.52978635,7.39556241],[-58.53244412,7.39971888],[-58.53253555,7.40251291],[-58.53490925,7.40476334],[-58.53796554,7.41094661],[-58.54243207,7.41501617],[-58.54400146,7.41813672],[-58.54345381,7.42034924],[-58.54553986,7.42120516],[-58.5587517,7.4373399],[-58.56689715,7.45117176],[-58.57397115,7.46003056],[-58.57387996,7.46169198],[-58.57781494,7.46651316],[-58.58122933,7.4682883],[-58.58100021,7.47196138],[-58.58480084,7.47211385],[-58.58548856,7.47527897],[-58.58874178,7.47602737],[-58.58811045,7.47880912],[-58.59138918,7.47908735],[-58.59899986,7.48618865],[-58.60122037,7.48869956],[-58.60220814,7.49063218],[-58.60229015,7.49093628],[-58.60112214,7.49310374],[-58.60171127,7.49468172],[-58.61018908,7.50295067],[-58.61409807,7.50885725],[-58.61726165,7.50908506],[-58.61788273,7.51222086],[-58.62553406,7.52039754],[-58.62598991,7.52291417],[-58.62878406,7.52548516],[-58.62948632,7.52753985],[-58.63196456,7.52897894],[-58.63376605,7.53213406],[-58.63734567,7.53519785],[-58.63767946,7.53563631],[-58.64371085,7.54609573],[-58.64875138,7.55089843],[-58.65243745,7.55859375],[-58.65274894,7.55858362],[-58.65280426,7.56238604],[-58.65685534,7.56491601],[-58.66233182,7.5725193],[-58.66320181,7.57751608],[-58.66729665,7.58132231],[-58.66816986,7.58621716],[-58.67769337,7.59612095],[-58.67837143,7.59844673],[-58.67254102,7.59157312],[-58.67045057,7.59091783],[-58.67708528,7.60095155],[-58.67737472,7.60118771],[-58.68491244,7.60548544],[-58.68483198,7.60289454],[-58.67994583,7.59939265],[-58.68940854,7.60337555],[-58.6950078,7.6080358],[-58.69621301,7.61039484],[-58.69911695,7.60848951],[-58.70025575,7.60849977],[-58.70323467,7.60931861],[-58.70358932,7.60954571],[-58.69855213,7.60932291],[-58.69879937,7.60991704],[-58.70268846,7.61100662],[-58.70654964,7.61379814],[-58.7109375,7.61216521],[-58.72087324,7.62010956],[-58.72478795,7.61949062],[-58.72581053,7.62119186],[-58.72522771,7.62269855],[-58.72870564,7.62458837],[-58.73352647,7.62338185],[-58.74291921,7.62519646],[-58.74797595,7.62397826],[-58.74821222,7.62385201],[-58.74858201,7.62273908],[-58.74749935,7.60856867],[-58.74717546,7.60639155],[-58.74560356,7.60139596],[-58.74532843,7.60096848],[-58.74037266,7.59435832],[-58.73122096,7.58517015],[-58.72219133,7.56801283],[-58.71679068,7.56352556],[-58.7109375,7.56082594],[-58.70791483,7.55979681],[-58.70762813,7.55877638],[-58.70812488,7.55859375],[-58.70810664,7.55835426],[-58.70924854,7.55811083],[-58.71009374,7.55859375],[-58.71037447,7.55859375],[-58.7109375,7.55915165],[-58.71165013,7.55923402],[-58.71362186,7.56005335],[-58.72219634,7.56542957],[-58.72408402,7.56758666],[-58.73404872,7.58576584],[-58.74553895,7.59729564],[-58.74956596,7.60584974],[-58.75080895,7.62150288],[-58.75097465,7.62173414],[-58.75558495,7.62256527],[-58.76747727,7.62746155],[-58.77924967,7.64212155],[-58.78010166,7.64500797],[-58.78197324,7.64633513],[-58.78171563,7.64797723],[-58.78504205,7.64955401],[-58.78549194,7.65546477],[-58.78619897,7.65657234],[-58.78837883,7.65998697],[-58.79044902,7.66109157],[-58.78960454,7.66349244],[-58.79661942,7.66640651],[-58.79440415,7.66905677],[-58.79414964,7.67178535],[-58.79688597,7.67221475],[-58.79906857,7.6781553],[-58.80718005,7.68634975],[-58.81421077,7.70131195],[-58.81527972,7.70691717],[-58.81906748,7.71130621],[-58.82283461,7.72075176],[-58.82806647,7.72870374],[-58.83366072,7.734375],[-58.83422363,7.734375],[-58.83965993,7.73663664],[-58.84532011,7.74287605],[-58.84913754,7.74379981],[-58.85005414,7.74496567],[-58.85633957,7.74596095],[-58.86239445,7.74863851],[-58.8686496,7.75310147],[-58.87134254,7.75586021],[-58.87415361,7.75919378],[-58.87629926,7.76385903],[-58.88261366,7.76943564],[-58.88538301,7.77480245],[-58.89134371,7.77863324],[-58.89248955,7.78276503],[-58.89862263,7.78589726],[-58.89990854,7.78837895],[-58.91299784,7.79654884],[-58.92420387,7.81082284],[-58.92978477,7.81280816],[-58.93705511,7.81838512],[-58.94059026,7.82268345],[-58.94147503,7.82597637],[-58.95551085,7.84222221],[-58.95791936,7.84786594],[-58.96529675,7.85785806],[-58.97186494,7.86621094],[-58.97467971,7.86955905],[-58.98130524,7.87553978],[-58.97317231,7.86518347],[-58.97696495,7.86638534],[-58.97818565,7.86780977],[-58.98097372,7.86717773],[-58.97919893,7.86968362],[-58.98141277,7.87115121],[-58.98119891,7.87277281],[-58.98342574,7.87496996],[-58.98315167,7.87622976],[-58.99431717,7.88757706],[-58.99594414,7.89079213],[-58.99877107,7.89294565],[-59.00075042,7.89271557],[-59.00223994,7.89524984],[-59.00210011,7.89778018],[-59.00670493,7.90069067],[-59.00612664,7.90344751],[-59.00774038,7.90478551],[-59.0097059,7.90436387],[-59.00913835,7.90643656],[-59.01352334,7.90973771],[-59.01352334,7.91015625],[-59.01376581,7.91015625],[-59.01513934,7.91507685],[-59.01830781,7.92021978],[-59.02194285,7.92132401],[-59.02336824,7.92450321],[-59.02907407,7.92906904],[-59.03093326,7.93206561],[-59.03825355,7.93742025],[-59.04196572,7.94205332],[-59.04520035,7.94232333],[-59.04789984,7.94839025],[-59.04916155,7.94919014],[-59.05005813,7.94798124],[-59.05225635,7.95273936],[-59.05509186,7.95436895],[-59.05861485,7.96026671],[-59.05797362,7.96081471],[-59.0625,7.96428573],[-59.0625,7.96623886],[-59.06274855,7.96646333],[-59.06504285,7.96725643],[-59.06535625,7.96485174],[-59.07091606,7.96589565],[-59.07477045,7.96887755],[-59.07633936,7.97220147],[-59.07944882,7.97438312],[-59.08354712,7.975425],[-59.08459055,7.97975361],[-59.08708155,7.98102498],[-59.08416545,7.98290682],[-59.0812211,7.98181665],[-59.07923651,7.97926354],[-59.07805026,7.97920632],[-59.07829261,7.98050237],[-59.07721293,7.98060131],[-59.07329857,7.97640371],[-59.07061934,7.97568572],[-59.08449686,7.99115956],[-59.08676541,7.99040413],[-59.08665562,7.99339366],[-59.0879848,7.99545443],[-59.09301186,7.99918854],[-59.10291076,8.01050615],[-59.12248206,8.02822065],[-59.12825656,8.03287423],[-59.13563144,8.03736842],[-59.15467274,8.05236411],[-59.15713012,8.05391955],[-59.16988134,8.05973601],[-59.18377256,8.06770802],[-59.20870256,8.0859375],[-59.20881975,8.0859375],[-59.22241867,8.09555781],[-59.2275784,8.09854865],[-59.25747097,8.11293221],[-59.25777388,8.11311841],[-59.27245498,8.12441528],[-59.28005326,8.12828112],[-59.29367006,8.13863122],[-59.32561362,8.15459454],[-59.35283542,8.17316437],[-59.36968684,8.18214071],[-59.38148522,8.18993735],[-59.40211308,8.20037317],[-59.41087115,8.20697784],[-59.4140625,8.20842636],[-59.4140625,8.20870531],[-59.44270372,8.22501302],[-59.45083451,8.23125625],[-59.4554888,8.23406196],[-59.46914005,8.24082863],[-59.47993183,8.24912822],[-59.48876011,8.25181735],[-59.50709832,8.26171875],[-59.52730703,8.2731204],[-59.54334641,8.27936435],[-59.55717087,8.2860316],[-59.56183302,8.28835297],[-59.59972906,8.30855],[-59.61183286,8.31559825],[-59.62226534,8.32254457],[-59.62992835,8.32893264],[-59.63641453,8.33311725],[-59.64933813,8.34039724],[-59.66201651,8.35013902],[-59.66388392,8.3513422],[-59.68203354,8.36241448],[-59.68938911,8.36517835],[-59.70548928,8.37637305],[-59.71726525,8.38286746],[-59.74861884,8.39807451],[-59.76324821,8.4023143],[-59.765625,8.40234375],[-59.77750361,8.40337276],[-59.77987611,8.40339315],[-59.79754913,8.40175605],[-59.80571795,8.39948905],[-59.81251931,8.39629543],[-59.81306815,8.39589381],[-59.81380153,8.39466894],[-59.81379485,8.39126611],[-59.81343615,8.39011967],[-59.81307244,8.38962674],[-59.80161345,8.38045442],[-59.77309775,8.36381066],[-59.77032816,8.36185515],[-59.76649141,8.35833895],[-59.765625,8.35770094],[-59.75076926,8.34528434],[-59.72397506,8.33106244],[-59.70351875,8.31513596],[-59.69866741,8.31252944],[-59.67957628,8.30602503],[-59.67324305,8.30233693],[-59.6641314,8.29450333],[-59.65018487,8.27905607],[-59.6435461,8.27545631],[-59.62551153,8.27169204],[-59.62475705,8.27145493],[-59.6219455,8.26984358],[-59.61860025,8.26702011],[-59.61713791,8.26554358],[-59.61451232,8.26171875],[-59.61423028,8.26171875],[-59.60747266,8.25134051],[-59.60300493,8.24818051],[-59.60050833,8.24699795],[-59.59710383,8.24612308],[-59.57831526,8.24383307],[-59.57077491,8.2421205],[-59.54184806,8.23542404],[-59.53514993,8.23211324],[-59.52474582,8.22045624],[-59.49946606,8.19579065],[-59.47840202,8.18125224],[-59.46551394,8.16796875],[-59.45059705,8.15676308],[-59.44463694,8.14947236],[-59.44022965,8.13910675],[-59.43749261,8.1355617],[-59.43302715,8.13399136],[-59.43222356,8.13412762],[-59.4140625,8.140625],[-59.4130758,8.14090395],[-59.40418267,8.14115345],[-59.39789236,8.13999987],[-59.39567637,8.13916278],[-59.39107585,8.13733816],[-59.38508737,8.13378477],[-59.37893391,8.1296854],[-59.37084377,8.12052751],[-59.3702085,8.11962914],[-59.36325705,8.10226905],[-59.36203134,8.10020435],[-59.35147464,8.0859375],[-59.35124326,8.0859375],[-59.34661734,8.08068764],[-59.34320664,8.07889605],[-59.33982468,8.078197],[-59.3390069,8.07820153],[-59.32578015,8.07949054],[-59.30230868,8.06879163],[-59.29324257,8.06119227],[-59.28613532,8.04619002],[-59.27645171,8.03459823],[-59.26885331,8.02936184],[-59.25309145,8.02404571],[-59.24550796,8.01866508],[-59.24525511,8.01829815],[-59.24370682,8.01305175],[-59.24811101,7.99501502],[-59.24776864,7.98615456],[-59.24555683,7.97715783],[-59.2369647,7.95472717],[-59.24109817,7.93373323],[-59.24011075,7.91015625],[-59.24008095,7.90952086],[-59.23059022,7.87877822],[-59.21991324,7.860291],[-59.21597135,7.83962226],[-59.21328914,7.83414197],[-59.21415865,7.83360302],[-59.21457875,7.82514334],[-59.2189002,7.81811202],[-59.23004615,7.80973136],[-59.24052262,7.80615687],[-59.24356925,7.80411685],[-59.24871325,7.79791617],[-59.26031101,7.77748287],[-59.25792766,7.77429986],[-59.24790835,7.76612902],[-59.24441504,7.75995731],[-59.24327898,7.75516486],[-59.24295533,7.75305986],[-59.24300587,7.7444396],[-59.24405146,7.734375],[-59.24496365,7.72361243],[-59.24510956,7.72285473],[-59.25254774,7.70886815],[-59.25325227,7.70039284],[-59.25218463,7.69627464],[-59.24466431,7.68955743],[-59.23877084,7.67672491],[-59.23863101,7.67623222],[-59.23710704,7.65994],[-59.23710704,7.65775335],[-59.23804545,7.65107071],[-59.23829973,7.65070045],[-59.23937666,7.65041113],[-59.23979306,7.65104163],[-59.2387768,7.66137195],[-59.23880017,7.66449857],[-59.2398591,7.67620444],[-59.24436223,7.68648088],[-59.24793327,7.69113576],[-59.25331497,7.69520545],[-59.25495577,7.70274603],[-59.25405824,7.70848405],[-59.2476536,7.72000575],[-59.24693406,7.72181904],[-59.24595761,7.72574902],[-59.24517727,7.734375],[-59.24517727,7.73758376],[-59.24379992,7.74458385],[-59.24379981,7.75510895],[-59.24564981,7.76051605],[-59.24827361,7.76492751],[-59.2502439,7.76715946],[-59.26070023,7.77536094],[-59.26173735,7.77697837],[-59.26147413,7.77859843],[-59.24737394,7.8023411],[-59.2413851,7.80705297],[-59.23151457,7.8103348],[-59.22328174,7.81573296],[-59.21695948,7.82297611],[-59.2151376,7.83129144],[-59.22131622,7.85741782],[-59.22522485,7.86644375],[-59.23081505,7.87543964],[-59.24046707,7.90449941],[-59.24179971,7.91015625],[-59.24166155,7.91015625],[-59.24247634,7.91630328],[-59.24275684,7.93414402],[-59.23859274,7.95575488],[-59.24708855,7.97644877],[-59.24951935,7.98602152],[-59.24917555,8.00039673],[-59.24563575,8.01136017],[-59.24563515,8.01464844],[-59.24708974,8.01744115],[-59.25390005,8.02240157],[-59.26710474,8.02601671],[-59.27335298,8.02904725],[-59.28219664,8.03757036],[-59.28877735,8.04757226],[-59.29464996,8.05956924],[-59.30151105,8.06589997],[-59.32505095,8.07665718],[-59.32721841,8.07725787],[-59.32981443,8.07725835],[-59.33684838,8.07592225],[-59.34143662,8.07592225],[-59.34382987,8.07651937],[-59.34831536,8.07902122],[-59.35406017,8.0859375],[-59.35457587,8.0859375],[-59.36533415,8.10028446],[-59.37347043,8.12009287],[-59.37783492,8.12555802],[-59.38035095,8.12773955],[-59.38571942,8.13091695],[-59.39705694,8.13642478],[-59.40198183,8.13639867],[-59.4140625,8.13169634],[-59.41590035,8.13090014],[-59.42549646,8.12754095],[-59.42801797,8.12754047],[-59.43083727,8.12884927],[-59.43592036,8.13173437],[-59.44052076,8.13465631],[-59.44176495,8.13614738],[-59.44794178,8.14939356],[-59.45160902,8.15417755],[-59.46814454,8.16585767],[-59.48067975,8.1790421],[-59.50019097,8.19168532],[-59.50244653,8.19363844],[-59.52598727,8.21609926],[-59.53991294,8.23096776],[-59.5423969,8.23257434],[-59.5456717,8.23375213],[-59.57461965,8.23828125],[-59.60041571,8.23747373],[-59.60681474,8.23862743],[-59.60841954,8.23943448],[-59.61049116,8.24088788],[-59.6134423,8.24481964],[-59.6141386,8.25400305],[-59.61845934,8.26171875],[-59.61874116,8.26171875],[-59.62222648,8.26611531],[-59.62500834,8.26801896],[-59.62599373,8.26856005],[-59.63078153,8.26978076],[-59.64191711,8.27099311],[-59.64878905,8.27346694],[-59.65687275,8.27930415],[-59.67256927,8.29544342],[-59.69118726,8.29820287],[-59.69179571,8.29833686],[-59.7017771,8.30128121],[-59.70353901,8.30232215],[-59.70516336,8.30337656],[-59.70740783,8.30629635],[-59.70859265,8.30812252],[-59.70932806,8.31241786],[-59.71222746,8.31608283],[-59.72282088,8.32493508],[-59.72653413,8.32773554],[-59.73450291,8.33283162],[-59.73475444,8.33294737],[-59.75009274,8.33802128],[-59.75958741,8.34553051],[-59.765625,8.35100436],[-59.765625,8.35128343],[-59.76960862,8.35217023],[-59.77343798,8.35320711],[-59.77615285,8.35320711],[-59.77896666,8.35246634],[-59.78150594,8.35125816],[-59.78305984,8.34940481],[-59.78303194,8.34863985],[-59.78138602,8.34481275],[-59.78124595,8.34467006],[-59.77952886,8.34295392],[-59.77841294,8.3421241],[-59.765625,8.33537936],[-59.75756013,8.33113503],[-59.74290013,8.32081151],[-59.73987985,8.31633246],[-59.73976147,8.31584501],[-59.74017632,8.31401074],[-59.740435,8.31363177],[-59.74416995,8.31040621],[-59.75212121,8.29643512],[-59.75735152,8.29256666],[-59.76136625,8.28613257],[-59.75834525,8.27826405],[-59.75957286,8.27346015],[-59.75293815,8.26171875],[-59.74591994,8.24287725],[-59.74140871,8.22325933],[-59.74032295,8.21280825],[-59.74070168,8.21207178],[-59.74128723,8.21180165],[-59.74273396,8.21203375],[-59.74310064,8.22101116],[-59.74764943,8.24135304],[-59.74793124,8.24227142],[-59.75216007,8.25482261],[-59.75519371,8.26171875],[-59.75891078,8.26969194],[-59.76501405,8.27596724],[-59.765625,8.27622771],[-59.77619064,8.28102887],[-59.78599954,8.28713107],[-59.80007625,8.29899383],[-59.80853415,8.30473745],[-59.80875312,8.30483072],[-59.80830624,8.30587156],[-59.80895555,8.30597984],[-59.80878984,8.30700964],[-59.80862594,8.30698347],[-59.80301416,8.30344784],[-59.79872155,8.30044305],[-59.78516555,8.28866637],[-59.78263545,8.28686893],[-59.765625,8.27790165],[-59.765625,8.27762282],[-59.7622205,8.27601647],[-59.76169872,8.27600968],[-59.76064742,8.27658081],[-59.76006126,8.27901447],[-59.76338375,8.28394473],[-59.76333976,8.28641164],[-59.75803888,8.29412568],[-59.75412548,8.29726398],[-59.74247682,8.31544006],[-59.74256074,8.31666565],[-59.74268722,8.31745875],[-59.74318063,8.31829512],[-59.75275862,8.32554603],[-59.76180136,8.33153725],[-59.765625,8.33314717],[-59.78332555,8.34305334],[-59.78416026,8.34348786],[-59.80157328,8.35162962],[-59.80692697,8.35318494],[-59.81595147,8.35842442],[-59.82023811,8.35851276],[-59.8218801,8.36072516],[-59.82605314,8.35850883],[-59.82927823,8.35977745],[-59.83309722,8.35900283],[-59.83707964,8.36067045],[-59.83827412,8.35934591],[-59.83906806,8.3595829],[-59.84135544,8.3607161],[-59.83917229,8.36493115],[-59.83913339,8.36850948],[-59.8391072,8.36865038],[-59.83235013,8.38104231],[-59.83462441,8.38417431],[-59.83489144,8.3845216],[-59.83814974,8.38883932],[-59.83965736,8.39291722],[-59.8399346,8.39353755],[-59.84033865,8.39447044],[-59.84415119,8.40874255],[-59.84433515,8.41362731],[-59.84489199,8.42327905],[-59.84410776,8.4297948],[-59.84225661,8.43601886],[-59.83893492,8.44747445],[-59.83625937,8.45520471],[-59.83352449,8.4649354],[-59.82483631,8.48351982],[-59.81331689,8.51169076],[-59.8012235,8.5364752],[-59.79294006,8.5567323],[-59.77707233,8.59001147],[-59.76349885,8.61894788],[-59.75269386,8.63891205],[-59.72796873,8.68807492],[-59.64424003,8.85128691],[-59.63002763,8.87745766],[-59.6043139,8.91860886],[-58.92470341,10.03919923],[-58.87111853,10.12930787],[-58.82,10.16638889],[-58.75677227,10.17707278],[-58.73720943,10.18037841],[-58.72334866,10.18272053],[-58.70204198,10.19004958],[-58.62729605,10.21602666],[-58.57229555,10.233507],[-58.50142379,10.25651491],[-58.46685116,10.2679182],[-58.45933924,10.27078563],[-58.32292001,10.31895657],[-58.28080585,10.33269873],[-58.17617792,10.36683961],[-58.13742705,10.37948432],[-58.10348772,10.39080987],[-58.04889955,10.40998081],[-57.97922514,10.4349451],[-57.80202187,10.50099702],[-57.56764243,10.59229139],[-57.55496466,10.59741617],[-57.51988369,10.61159709],[-57.32015099,10.69243156],[-57.30536096,10.69841729],[-57.22818027,10.69670113],[-57.19102659,10.69587499],[-57.16196054,10.69522869],[-57.15615579,10.69509962],[-57.15544322,10.69505918],[-57.15534945,10.69505386],[-57.07752289,10.69335113],[-57.07743992,10.69334932],[-57.05153984,10.6737576],[-57.04713682,10.67039807],[-57.03836003,10.66364395],[-57.03398698,10.66024991],[-57.01654764,10.64659884],[-57.01220343,10.64316921],[-57.00354152,10.63627277],[-56.9992254,10.63280721],[-56.99343838,10.62812131],[-56.99284295,10.6276386],[-56.99165187,10.62667188],[-56.99105677,10.62618831],[-56.98867608,10.62425153],[-56.98808151,10.62376727],[-56.98689261,10.62279779],[-56.98629877,10.62231298],[-56.98154566,10.61842801],[-56.98095245,10.61794258],[-56.97976596,10.61697051],[-56.97917315,10.61648428],[-56.97680178,10.61453694],[-56.9762097,10.61405016],[-56.9750258,10.61307568],[-56.97443477,10.61258863],[-56.96496436,10.60477506],[-56.96444458,10.60434576],[-56.96340418,10.60348558],[-56.96288433,10.60305535],[-56.960804,10.60133186],[-56.96028442,10.60090096],[-56.95924541,10.60003841],[-56.95872641,10.59960711],[-56.95439065,10.59600017],[-56.95327932,10.5950743],[-56.95156657,10.59364543],[-56.95032276,10.59260514],[-56.94793594,10.59060395],[-56.94674338,10.58960172],[-56.94334625,10.58674],[-56.94249799,10.58602422],[-56.94080221,10.5845909],[-56.93995531,10.58387387],[-56.93437032,10.57913732],[-56.93367335,10.5785454],[-56.93227947,10.57735999],[-56.93158313,10.57676697],[-56.92879792,10.57439172],[-56.92810255,10.57379789],[-56.92671227,10.57260897],[-56.92601823,10.57201463],[-56.91601545,10.56343665],[-56.91476764,10.56236388],[-56.91227332,10.56021414],[-56.91102784,10.55913805],[-56.90604863,10.55482531],[-56.90480585,10.55374619],[-56.9023223,10.55158436],[-56.90108255,10.55050252],[-56.89116624,10.54182759],[-56.88992923,10.54074272],[-56.88745658,10.53856881],[-56.88622194,10.53748065],[-56.88128619,10.53311964],[-56.88005428,10.53202848],[-56.87759252,10.52984257],[-56.87636367,10.52874872],[-56.86653476,10.51997768],[-56.86592214,10.5194303],[-56.86469623,10.51833359],[-56.86408379,10.51778502],[-56.86163339,10.51558744],[-56.86102147,10.51503797],[-56.85979797,10.51393799],[-56.8591869,10.51338793],[-56.8542958,10.50897968],[-56.85368559,10.50842902],[-56.8524652,10.50732637],[-56.85185551,10.50677482],[-56.84941681,10.50456596],[-56.84880831,10.50401413],[-56.84759167,10.50290943],[-56.84698503,10.50235792],[-56.82739782,10.48452763],[-56.82378086,10.48121062],[-56.81656902,10.47454806],[-56.81297645,10.47120464],[-56.79865015,10.4577732],[-56.79508295,10.45440408],[-56.78797174,10.44763827],[-56.78443061,10.44424434],[-56.75618258,10.41696879],[-56.75265441,10.41353661],[-56.7520431,10.41293755],[-56.74262376,10.40389358],[-56.74130194,10.40262089],[-56.73866038,10.40007057],[-56.73734173,10.39879396],[-56.73207143,10.39367762],[-56.73075636,10.39239744],[-56.72812904,10.38983282],[-56.72681788,10.38854943],[-56.7163333,10.3782584],[-56.71502577,10.37697143],[-56.71241285,10.37439256],[-56.71110854,10.37310171],[-56.70589569,10.36792842],[-56.70459498,10.36663403],[-56.70199646,10.36404102],[-56.70069971,10.36274346],[-56.69033065,10.35233915],[-56.68903757,10.35103806],[-56.6864536,10.34843096],[-56.68516377,10.34712601],[-56.68000898,10.3418964],[-56.6787228,10.34058796],[-56.67615338,10.33796688],[-56.67487119,10.33665531],[-56.66461889,10.32613898],[-56.6633404,10.32482392],[-56.66078568,10.3221889],[-56.6595105,10.32087002],[-56.65441438,10.31558473],[-56.65314288,10.31426239],[-56.65060286,10.31161356],[-56.64933538,10.31028814],[-56.63920104,10.29966107],[-56.6379373,10.29833219],[-56.63541214,10.29566958],[-56.63415174,10.29433693],[-56.6291149,10.2889966],[-56.62785823,10.28766052],[-56.62534791,10.28498425],[-56.62409529,10.28364515],[-56.6140801,10.27290862],[-56.612334,10.27102949],[-56.60884774,10.26726315],[-56.60710874,10.2653772],[-56.60016428,10.25781671],[-56.59843278,10.2559243],[-56.59497619,10.25213192],[-56.59325251,10.25023348],[-56.57948096,10.2350064],[-56.57772663,10.23305889],[-56.57422383,10.22915502],[-56.57247678,10.22720022],[-56.56971709,10.22410012],[-56.56883859,10.22317623],[-56.56631387,10.22051374],[-56.5650537,10.21918116],[-56.56001773,10.21384108],[-56.55876128,10.21250508],[-56.5562514,10.20982894],[-56.554999,10.2084899],[-56.54498554,10.19775389],[-56.54373692,10.19641143],[-56.54124204,10.19372168],[-56.5399968,10.19237548],[-56.53962358,10.19197089],[-56.53638121,10.18932348],[-56.53532735,10.1884612],[-56.53322027,10.18673357],[-56.5321679,10.18586894],[-56.52795974,10.18240427],[-56.52690911,10.18153747],[-56.52480907,10.17980127],[-56.52376039,10.1789325],[-56.51686692,10.17320956],[-56.51581043,10.17233124],[-56.51422528,10.17101168],[-56.51389701,10.17073821],[-56.51299349,10.16998487],[-56.50991355,10.1674137],[-56.50938127,10.166969],[-56.50833432,10.16609359],[-56.50720329,10.16514571],[-56.50496133,10.16326259],[-56.50384164,10.16232002],[-56.50020138,10.15924883],[-56.49929247,10.15848061],[-56.49747553,10.15694216],[-56.49656817,10.15617249],[-56.49043934,10.15096426],[-56.48967455,10.15031334],[-56.48814512,10.14900968],[-56.48738112,10.14835745],[-56.48432541,10.14574487],[-56.48356257,10.14509165],[-56.48203747,10.14378374],[-56.48127617,10.14312987],[-56.47013627,10.13354704],[-56.46874677,10.1323484],[-56.4659696,10.12994605],[-56.46458305,10.12874333],[-56.4590406,10.12392228],[-56.45765741,10.12271578],[-56.45489365,10.12029839],[-56.45351419,10.11908848],[-56.44497138,10.11136089],[-56.44255608,10.10929367],[-56.44117975,10.10808447],[-56.43840594,10.10567986],[-56.43702029,10.10447697],[-56.43544769,10.10310989],[-56.43151045,10.09962198],[-56.43013762,10.09840414],[-56.42739294,10.09596597],[-56.42602678,10.09474162],[-56.41865679,10.08807405],[-56.41516231,10.08485658],[-56.41381382,10.08361324],[-56.41108168,10.08115936],[-56.4098851,10.07998645],[-56.40422071,10.07506009],[-56.40286479,10.07382381],[-56.40015564,10.07134689],[-56.39880351,10.07010727],[-56.38799044,10.06016629],[-56.38664182,10.05892298],[-56.38394656,10.05643135],[-56.38260102,10.05518405],[-56.37722294,10.05018483],[-56.37588089,10.04893388],[-56.37319952,10.04642765],[-56.37186131,10.04517341],[-56.36115976,10.03511543],[-56.35982509,10.03385753],[-56.35715778,10.03133674],[-56.35582623,10.03007488],[-56.35050423,10.02501749],[-56.3491762,10.02375201],[-56.34652295,10.02121678],[-56.3451988,10.01994805],[-56.33461005,10.00977431],[-56.33328948,10.00850197],[-56.33065044,10.00595233],[-56.32933304,10.00467607],[-56.32406774,9.9995611],[-56.3227539,9.99828126],[-56.32012907,9.99571733],[-56.31881915,9.99443428],[-56.30834444,9.984146],[-56.30703813,9.98285938],[-56.30442767,9.98028119],[-56.30312458,9.97899068],[-56.2979166,9.97381877],[-56.29661711,9.97252472],[-56.29402101,9.9699324],[-56.29272546,9.96863518],[-56.28236604,9.95823362],[-56.28107415,9.95693287],[-56.27849257,9.95432645],[-56.27720394,9.95302185],[-56.2720539,9.94779362],[-56.27076891,9.94648551],[-56.26820185,9.94386512],[-56.26692083,9.94255389],[-56.25667792,9.93204031],[-56.2554006,9.93072559],[-56.25284821,9.92809126],[-56.25157419,9.92677272],[-56.2464827,9.9214888],[-56.24521236,9.9201668],[-56.24267464,9.91751865],[-56.24140831,9.91619357],[-56.23128311,9.90556924],[-56.23002051,9.90424071],[-56.22749762,9.90157878],[-56.22623835,9.90024647],[-56.22120602,9.8949075],[-56.21995047,9.89357177],[-56.2174424,9.89089618],[-56.21619089,9.88955742],[-56.20618461,9.87882362],[-56.20493687,9.87748144],[-56.20244377,9.87479224],[-56.20119942,9.87344632],[-56.19622682,9.86805295],[-56.19498622,9.86670365],[-56.19250808,9.86400095],[-56.19127156,9.86264866],[-56.18138536,9.85180671],[-56.18015264,9.85045104],[-56.17768962,9.84773489],[-56.17646032,9.84637552],[-56.17154806,9.84092841],[-56.17032255,9.8395657],[-56.16787464,9.83683621],[-56.16665324,9.83547056],[-56.15688829,9.82452176],[-56.15567073,9.82315277],[-56.15323808,9.82041],[-56.15202398,9.81903735],[-56.14717262,9.81353715],[-56.14596235,9.81216119],[-56.14354496,9.80940526],[-56.14233883,9.8080264],[-56.13269627,9.79697208],[-56.13149402,9.79558994],[-56.12909202,9.79282089],[-56.12789327,9.79143511],[-56.12310339,9.78588249],[-56.12190849,9.78449346],[-56.1195219,9.78171141],[-56.11833117,9.78031952],[-56.10881215,9.76916102],[-56.10828542,9.76854279],[-56.10723143,9.76730417],[-56.10670495,9.76668471],[-56.10459873,9.76420342],[-56.10407284,9.76358311],[-56.10302154,9.76234154],[-56.10249656,9.76172077],[-56.09829509,9.75674652],[-56.09793623,9.75632128],[-56.09714139,9.75537852],[-56.09675212,9.75491639],[-56.0951248,9.75298268],[-56.0937218,9.75130998],[-56.09108748,9.74815883],[-56.08977151,9.74657974],[-56.08586937,9.74188267],[-56.08489568,9.74070789],[-56.08295049,9.7383555],[-56.0819797,9.73717875],[-56.07532211,9.72908973],[-56.0744918,9.72807886],[-56.07283228,9.72605442],[-56.07200375,9.72504166],[-56.06869184,9.72098524],[-56.06786551,9.71997112],[-56.0662144,9.71794071],[-56.06539067,9.71692573],[-56.05323941,9.70192243],[-56.05172536,9.70004602],[-56.04870245,9.69628574],[-56.04719483,9.69440342],[-56.0411749,9.6868593],[-56.03967418,9.6849716],[-56.03667879,9.6811898],[-56.03518536,9.67929726],[-56.02325486,9.66412157],[-56.02176841,9.66222367],[-56.01880083,9.65842052],[-56.0173209,9.65651681],[-56.01141194,9.6488873],[-56.00993898,9.6469783],[-56.00699922,9.64315402],[-56.00553362,9.6412403],[-55.9938263,9.62589539],[-55.99236776,9.62397641],[-55.98945609,9.62013117],[-55.98800415,9.61820647],[-55.98220737,9.61049316],[-55.98076247,9.60856328],[-55.97787893,9.60469732],[-55.97644146,9.60276281],[-55.96495967,9.5872519],[-55.96352934,9.58531225],[-55.96067418,9.58142572],[-55.95925053,9.57948044],[-55.95356708,9.57168495],[-55.95215054,9.56973458],[-55.9493238,9.56582774],[-55.94791474,9.56387286],[-55.93666081,9.5481992],[-55.93525897,9.54623927],[-55.93246089,9.54231228],[-55.93106581,9.54034682],[-55.92549684,9.53247078],[-55.92410894,9.53050034],[-55.92133957,9.52655344],[-55.91995922,9.52457859],[-55.9089354,9.50874546],[-55.90747107,9.50666159],[-55.90611563,9.50500639],[-55.90550096,9.50425456],[-55.89666812,9.49343431],[-55.89556685,9.49208161],[-55.89336668,9.48937188],[-55.89226868,9.48801597],[-55.88788147,9.4825837],[-55.88678706,9.48122494],[-55.88460122,9.47850387],[-55.88351068,9.47714266],[-55.87479278,9.46623145],[-55.87370588,9.4648674],[-55.87153449,9.46213503],[-55.87045088,9.46076781],[-55.86612137,9.45529036],[-55.86504139,9.45392033],[-55.86288444,9.45117675],[-55.86180836,9.44980431],[-55.85320632,9.43880334],[-55.8521339,9.4374281],[-55.84999152,9.43467337],[-55.84892244,9.43329499],[-55.84465108,9.42777297],[-55.84358564,9.42639183],[-55.84145782,9.42362604],[-55.84039631,9.42224252],[-55.83191104,9.41115299],[-55.83085322,9.40976672],[-55.82874008,9.40698993],[-55.82768562,9.40560055],[-55.82347286,9.40003455],[-55.82242208,9.39864244],[-55.82032361,9.39585475],[-55.81927678,9.39446031],[-55.81090918,9.38328344],[-55.80986483,9.3818846],[-55.80777866,9.37908271],[-55.80673609,9.37767861],[-55.806262,9.37703837],[-55.802394,9.37190286],[-55.80129364,9.37043772],[-55.79909638,9.36750367],[-55.79800037,9.36603595],[-55.78924912,9.35428274],[-55.78815829,9.35281347],[-55.7859795,9.34987037],[-55.78489243,9.34839774],[-55.78331997,9.34626141],[-55.78054998,9.34249813],[-55.779467,9.34102255],[-55.77730453,9.33806765],[-55.77622591,9.33658954],[-55.76760552,9.32474183],[-55.76734366,9.32438089],[-55.88133333,9.1045],[-55.93483333,9.0005],[-56.0625,8.61266667],[-56.0665,8.5935]],[[-58.73849535,7.62790668],[-58.73386252,7.62677467],[-58.73365271,7.62702894],[-58.73560405,7.62864566],[-58.73624206,7.62868297],[-58.73849535,7.62790668]],[[-58.69500136,7.60977423],[-58.68640137,7.60377598],[-58.68640256,7.60560501],[-58.68749583,7.60562384],[-58.68763196,7.60585785],[-58.68685091,7.60712326],[-58.69039917,7.60801792],[-58.6927824,7.61021197],[-58.69500136,7.60977423]],[[-58.48117936,7.01579845],[-58.48067224,7.01329875],[-58.48027265,7.01332295],[-58.47666526,7.01489174],[-58.47100937,7.02439058],[-58.47072828,7.02511847],[-58.46987224,7.02845216],[-58.46925581,7.03125],[-58.46537781,7.04545724],[-58.46525514,7.04633915],[-58.46482623,7.06330454],[-58.4634335,7.06802464],[-58.46170056,7.06988883],[-58.46145713,7.07352126],[-58.46441436,7.08361626],[-58.46455026,7.08406794],[-58.46887755,7.09400606],[-58.47285676,7.07439888],[-58.47383904,7.05600381],[-58.47796762,7.03125],[-58.48117936,7.01579845]],[[-58.44710255,7.01463854],[-58.44992614,7.00673127],[-58.45214212,6.99498045],[-58.45373154,6.99011064],[-58.45646751,6.98348272],[-58.46260643,6.97380197],[-58.47589111,6.95594382],[-58.47732615,6.95136285],[-58.48577571,6.93580461],[-58.50272667,6.91230631],[-58.51812446,6.89522874],[-58.51878858,6.89203095],[-58.51127624,6.89131784],[-58.50729644,6.89221275],[-58.50281632,6.89348114],[-58.49502993,6.89818275],[-58.47800326,6.91537356],[-58.46626091,6.9290961],[-58.44078708,6.94982302],[-58.42248726,6.97427833],[-58.41601145,6.97884607],[-58.40419674,6.98384655],[-58.40322077,6.98479605],[-58.40129995,6.98644876],[-58.40030706,6.98818851],[-58.4002037,6.98949146],[-58.40069318,6.99171364],[-58.40193701,6.99317682],[-58.40481925,6.99448133],[-58.40545034,6.99713325],[-58.41095483,7.0009042],[-58.41198266,7.00344408],[-58.41533256,7.00452995],[-58.42218494,7.01085305],[-58.43312335,7.02087462],[-58.43766046,7.02338254],[-58.43992937,7.02374494],[-58.44106293,7.02323854],[-58.44396901,7.01988065],[-58.44477403,7.01906991],[-58.44710255,7.01463854]],[[-58.46847463,6.89418185],[-58.47372293,6.87458301],[-58.47399282,6.87028575],[-58.46944451,6.87282085],[-58.46153486,6.88114583],[-58.45048654,6.88543332],[-58.44902551,6.88790858],[-58.44199681,6.89219892],[-58.43450582,6.90035224],[-58.41821945,6.90703797],[-58.41226435,6.91148734],[-58.39615655,6.91484773],[-58.38950205,6.91912246],[-58.38365185,6.91954553],[-58.37609172,6.92255986],[-58.36401474,6.93613446],[-58.35897446,6.93908286],[-58.35475087,6.93880045],[-58.35139811,6.94104028],[-58.34639871,6.94268465],[-58.34578276,6.94351232],[-58.34609485,6.94606495],[-58.34673238,6.94679523],[-58.35641456,6.95095026],[-58.359375,6.95256686],[-58.359375,6.95284593],[-58.36147428,6.95459926],[-58.36202884,6.95475864],[-58.36858404,6.95476747],[-58.37221766,6.95760465],[-58.38026297,6.95931137],[-58.38450575,6.96174502],[-58.38622773,6.96239936],[-58.39193058,6.96397722],[-58.39260328,6.96397722],[-58.397089,6.96397722],[-58.40689373,6.96131992],[-58.40915954,6.95716405],[-58.41765463,6.94766855],[-58.43535387,6.93087184],[-58.44967937,6.92162538],[-58.46107602,6.91666996],[-58.46847463,6.89418185]],[[-58.48400676,6.89003742],[-58.48971403,6.89139426],[-58.50258756,6.88729191],[-58.51158071,6.88662231],[-58.51637995,6.88576281],[-58.5199908,6.88442886],[-58.52638185,6.8811295],[-58.53580797,6.87025344],[-58.53621316,6.86971295],[-58.5414561,6.86180985],[-58.54294193,6.85813797],[-58.54372752,6.85421312],[-58.54319513,6.83761811],[-58.54656744,6.82345545],[-58.55018485,6.81347036],[-58.55913246,6.79919445],[-58.56319427,6.79453075],[-58.56541836,6.78943813],[-58.56483591,6.76056755],[-58.56829905,6.74319804],[-58.56826103,6.72714341],[-58.57121015,6.71443057],[-58.56934643,6.71502995],[-58.56681526,6.72030556],[-58.55530822,6.74983132],[-58.55110145,6.76764953],[-58.54902828,6.77471554],[-58.54704177,6.77942944],[-58.54576063,6.78168881],[-58.54471648,6.78293061],[-58.53075135,6.79535675],[-58.52350152,6.80858767],[-58.51478076,6.82016838],[-58.51485872,6.82180846],[-58.51114476,6.82590473],[-58.50487912,6.83666945],[-58.50491345,6.84028292],[-58.5011605,6.85061395],[-58.49763942,6.85546875],[-58.49314356,6.85845137],[-58.49088132,6.86420548],[-58.48776555,6.86782944],[-58.48053181,6.87378156],[-58.47940242,6.87597644],[-58.47940254,6.88037491],[-58.48059094,6.88491344],[-58.48197865,6.88733816],[-58.48400676,6.89003742]],[[-58.51921594,6.78025234],[-58.51898086,6.77943873],[-58.52578485,6.76873934],[-58.53696525,6.75316596],[-58.53711414,6.75148666],[-58.54150665,6.75024438],[-58.54416537,6.7473855],[-58.54435897,6.74708807],[-58.55409086,6.72469103],[-58.55455041,6.72195256],[-58.55424488,6.72163463],[-58.55360985,6.72169936],[-58.55062425,6.72483838],[-58.54623055,6.73225582],[-58.53920746,6.74115825],[-58.527408,6.75477815],[-58.51924562,6.76878154],[-58.50806653,6.78144336],[-58.50500381,6.78844786],[-58.50587296,6.79382014],[-58.51155007,6.79380584],[-58.51211214,6.79352665],[-58.51388681,6.79168332],[-58.51593626,6.78796887],[-58.51921594,6.78025234]],[[-58.51867795,6.75784814],[-58.51803148,6.75764406],[-58.51556575,6.75893867],[-58.51340055,6.76199806],[-58.51327193,6.76477313],[-58.5151,6.76537526],[-58.51779652,6.76325881],[-58.51867795,6.75784814]],[[-58.51185012,6.75876427],[-58.51321626,6.75759316],[-58.52396226,6.74743497],[-58.52720845,6.74259937],[-58.5273844,6.74215448],[-58.52849674,6.73787725],[-58.52838004,6.73692811],[-58.52784312,6.73723626],[-58.51728702,6.74740505],[-58.51117218,6.7516036],[-58.51032674,6.75684071],[-58.51185012,6.75876427]],[[-58.54125023,6.72952211],[-58.53834307,6.73769557],[-58.54509032,6.73084223],[-58.55490947,6.71832514],[-58.5551846,6.71778154],[-58.55859196,6.7037642],[-58.55848336,6.70092666],[-58.55827737,6.70056701],[-58.55693996,6.70038402],[-58.55527961,6.70107842],[-58.55078292,6.70912385],[-58.54784524,6.71491385],[-58.54770184,6.7153244],[-58.54706931,6.72056437],[-58.54125023,6.72952211]],[[-58.59414566,6.70258391],[-58.59435225,6.70314085],[-58.59484005,6.70260656],[-58.59495163,6.70203602],[-58.59510517,6.70160961],[-58.59525597,6.70124304],[-58.59536636,6.70079374],[-58.59530365,6.70028281],[-58.59503901,6.70004332],[-58.59473562,6.70028257],[-58.59452045,6.70079434],[-58.59434664,6.70124555],[-58.59420574,6.70161366],[-58.59410155,6.7020359],[-58.59414566,6.70258391]],[[-58.60109031,6.70300365],[-58.6015228,6.70365345],[-58.60281217,6.70275557],[-58.60510421,6.69678974],[-58.60513091,6.68931735],[-58.60770917,6.67774153],[-58.60745013,6.67784476],[-58.60098505,6.68767095],[-58.60028541,6.69691622],[-58.60109031,6.70300365]],[[-58.5912503,6.70971346],[-58.59125352,6.71665585],[-58.59239876,6.71795392],[-58.59402311,6.71521032],[-58.59452963,6.70704925],[-58.59368837,6.70552123],[-58.59241331,6.70547485],[-58.59223795,6.70575714],[-58.5912503,6.70971346]],[[-58.58680224,6.71650553],[-58.58630908,6.71590054],[-58.58523381,6.71617556],[-58.58495605,6.71659875],[-58.58179891,6.72482145],[-58.5815047,6.72981441],[-58.58258677,6.73141277],[-58.58611345,6.72532642],[-58.58678794,6.72281873],[-58.58725667,6.72044778],[-58.58730948,6.71816683],[-58.58680224,6.71650553]],[[-58.58046305,6.71615052],[-58.58013725,6.71556282],[-58.57935846,6.71571577],[-58.57905662,6.71593761],[-58.5771116,6.71886873],[-58.57694674,6.71915984],[-58.574108,6.72699952],[-58.57413077,6.73313105],[-58.57645535,6.74066782],[-58.58034682,6.72512746],[-58.58046734,6.72429645],[-58.58096445,6.71794605],[-58.58046305,6.71615052]],[[-58.58966994,6.73858523],[-58.58987176,6.74189913],[-58.59200466,6.74000192],[-58.59245038,6.73913825],[-58.59304416,6.73671246],[-58.59274352,6.73366475],[-58.59237194,6.73334408],[-58.59155774,6.73339093],[-58.59139931,6.73365796],[-58.58966994,6.73858523]],[[-58.59207833,6.74155033],[-58.58918846,6.74475276],[-58.58846355,6.74937117],[-58.58961391,6.75033724],[-58.59282017,6.74543238],[-58.59280884,6.74167144],[-58.59207833,6.74155033]],[[-58.58669174,6.74389386],[-58.58677375,6.74116588],[-58.58596385,6.74108887],[-58.58053422,6.74680233],[-58.58123922,6.75636482],[-58.58399713,6.75895476],[-58.58455443,6.75182748],[-58.58669174,6.74389386]],[[-58.59135377,6.7529453],[-58.58934116,6.76084101],[-58.58871961,6.76523244],[-58.58885562,6.77187335],[-58.59143925,6.78745604],[-58.59444797,6.79271495],[-58.59763265,6.78992486],[-58.59985006,6.78393435],[-58.59423375,6.75216615],[-58.59411883,6.75179267],[-58.59334624,6.75117886],[-58.59304833,6.75128806],[-58.59186363,6.75239253],[-58.59135377,6.7529453]],[[-58.57906628,6.75922513],[-58.57687163,6.75276232],[-58.57525265,6.7523874],[-58.57329357,6.76049685],[-58.57189786,6.78095961],[-58.57344866,6.79716694],[-58.57587111,6.80277705],[-58.58075416,6.78860486],[-58.58243167,6.77725875],[-58.58243155,6.77660358],[-58.58141351,6.76570976],[-58.58131516,6.76528287],[-58.57906628,6.75922513]],[[-58.58339202,6.80242383],[-58.58316243,6.81353211],[-58.58791482,6.80262947],[-58.58806062,6.80196905],[-58.58843851,6.79819441],[-58.58780706,6.79445362],[-58.58752406,6.79408884],[-58.58602774,6.79399514],[-58.58465433,6.79477763],[-58.58383286,6.79830611],[-58.58339202,6.80242383]],[[-58.57061493,6.80279911],[-58.57062185,6.80238223],[-58.56964421,6.79873574],[-58.56808007,6.79724455],[-58.56419778,6.80324495],[-58.55816543,6.80953336],[-58.55491352,6.81431091],[-58.55360651,6.81737292],[-58.54970133,6.82939255],[-58.54813826,6.83829427],[-58.54803038,6.83911967],[-58.54823887,6.84484541],[-58.54840422,6.84563315],[-58.54995704,6.84755051],[-58.55449855,6.84342992],[-58.56027818,6.83206677],[-58.56956494,6.81093776],[-58.57061493,6.80279911]],[[-58.55929494,6.84749031],[-58.55714548,6.85143244],[-58.55553055,6.85546875],[-58.55531561,6.85641432],[-58.55607963,6.85816264],[-58.55820978,6.85696721],[-58.56119955,6.84986031],[-58.57262421,6.8353399],[-58.57773805,6.8204571],[-58.57764673,6.81563938],[-58.57695746,6.81474221],[-58.57664466,6.81488597],[-58.57375014,6.81932056],[-58.56280756,6.84251833],[-58.55929494,6.84749031]],[[-58.5629847,6.85075235],[-58.55634511,6.86620247],[-58.54321015,6.88312745],[-58.53883755,6.89243066],[-58.53021634,6.90270066],[-58.51256681,6.92011583],[-58.51079082,6.92305291],[-58.508165,6.92795432],[-58.50345135,6.94100797],[-58.50333607,6.94194794],[-58.50367761,6.94284475],[-58.50485206,6.94271982],[-58.51357865,6.94060457],[-58.51400506,6.94043195],[-58.52034605,6.93786848],[-58.52157307,6.93694258],[-58.52385151,6.93497503],[-58.54718685,6.90982723],[-58.56235635,6.86564565],[-58.56908774,6.85110235],[-58.57091296,6.84499073],[-58.57054317,6.844033],[-58.56984091,6.84407854],[-58.56687963,6.84618115],[-58.56342423,6.85007012],[-58.5629847,6.85075235]],[[-58.53435016,6.93921006],[-58.52917492,6.94402587],[-58.52776456,6.94626737],[-58.52606261,6.95181978],[-58.52638543,6.95387161],[-58.53283763,6.95284414],[-58.54174387,6.94280076],[-58.54622173,6.93577051],[-58.55404246,6.91869712],[-58.55460024,6.91502261],[-58.55426586,6.9146744],[-58.55336738,6.91476417],[-58.55199134,6.91612852],[-58.54005933,6.9328351],[-58.53435016,6.93921006]],[[-58.52624321,6.94573152],[-58.52597356,6.94560695],[-58.5255506,6.94562006],[-58.51641548,6.95306325],[-58.51579154,6.95478606],[-58.51620626,6.95523465],[-58.51827383,6.95610786],[-58.52222896,6.95619404],[-58.52360427,6.95561051],[-58.52426755,6.95432174],[-58.52624321,6.94573152]],[[-58.51818192,6.94569504],[-58.51931107,6.94479418],[-58.52151477,6.94209111],[-58.52165687,6.94177687],[-58.52136517,6.94042742],[-58.52058017,6.94044578],[-58.51519096,6.94258106],[-58.51386607,6.94338048],[-58.51230717,6.94533014],[-58.51289976,6.94697785],[-58.51548445,6.94698656],[-58.51818192,6.94569504]],[[-58.53745937,6.72098756],[-58.54413772,6.70480573],[-58.53801346,6.70901465],[-58.53636861,6.71162796],[-58.53139782,6.72149813],[-58.52549517,6.73343444],[-58.52555287,6.73650384],[-58.52998376,6.73221636],[-58.53682578,6.72143245],[-58.53745937,6.72098756]],[[-58.53491414,6.77456665],[-58.53540623,6.77748477],[-58.54033685,6.77652395],[-58.54562855,6.76294851],[-58.54733455,6.75685465],[-58.54721868,6.75539446],[-58.54646862,6.75568461],[-58.54460704,6.75659275],[-58.53665566,6.76795685],[-58.53647041,6.76827276],[-58.53491414,6.77456665]],[[-58.53257227,6.77542007],[-58.53206301,6.77522302],[-58.53083777,6.77641833],[-58.52943754,6.77979994],[-58.5326153,6.77968562],[-58.53257227,6.77542007]],[[-58.57993185,6.66754246],[-58.5792433,6.66749716],[-58.57817805,6.67072392],[-58.57909286,6.67312181],[-58.58086395,6.66906655],[-58.58087826,6.6685729],[-58.57993185,6.66754246]],[[-58.58138704,6.66728365],[-58.58184624,6.66751754],[-58.58339727,6.66581833],[-58.58464611,6.65600252],[-58.58815372,6.64817464],[-58.58510351,6.63795471],[-58.58361936,6.63703096],[-58.58307672,6.63707018],[-58.58198178,6.6387887],[-58.57973182,6.64497387],[-58.57819164,6.65445948],[-58.58064914,6.66582894],[-58.58138704,6.66728365]],[[-58.58593583,6.65757096],[-58.58630133,6.65779877],[-58.59152722,6.64507425],[-58.59128785,6.63831365],[-58.59026778,6.63319945],[-58.58855236,6.62951171],[-58.58817744,6.62951398],[-58.58573055,6.6308676],[-58.58521175,6.63425004],[-58.58510864,6.63579035],[-58.58875954,6.64699543],[-58.58588123,6.65553176],[-58.58593583,6.65757096]],[[-58.60003996,6.59565663],[-58.59843743,6.59442663],[-58.59750497,6.60188973],[-58.59846556,6.60422456],[-58.60030746,6.59919894],[-58.60022712,6.59602857],[-58.60003996,6.59565663]],[[-58.58566892,6.55945504],[-58.58542585,6.55658543],[-58.58500242,6.55618632],[-58.58202255,6.55933785],[-58.58353055,6.56325436],[-58.58566892,6.55945504]],[[-58.61342645,6.55877018],[-58.61354637,6.55912566],[-58.6151396,6.55653095],[-58.61541235,6.55474305],[-58.61496472,6.54929304],[-58.61598921,6.550053],[-58.61650705,6.54801857],[-58.61655867,6.54096305],[-58.61441696,6.53628397],[-58.61464453,6.54717815],[-58.6144911,6.54792416],[-58.61363614,6.54682612],[-58.61333215,6.54710352],[-58.61301136,6.54825735],[-58.61311376,6.54952931],[-58.61342645,6.55877018]],[[-58.62645793,6.42497897],[-58.62545872,6.42486155],[-58.62025428,6.42747271],[-58.61945605,6.43808866],[-58.62037027,6.43953705],[-58.62275922,6.43729508],[-58.62668621,6.42862523],[-58.62689114,6.42809701],[-58.62689757,6.42538905],[-58.62645793,6.42497897]],[[-58.615309,6.42841125],[-58.61457253,6.42835867],[-58.61463797,6.43189812],[-58.61271012,6.43792844],[-58.61356115,6.43867946],[-58.61555004,6.43304312],[-58.61565757,6.43206978],[-58.61560285,6.42871284],[-58.615309,6.42841125]],[[-58.59785366,6.39464211],[-58.59707916,6.39410806],[-58.5965451,6.39413214],[-58.59468663,6.40174258],[-58.59627664,6.40270793],[-58.59821367,6.39887464],[-58.59785366,6.39464211]],[[-58.59754837,6.37535775],[-58.59542942,6.37452912],[-58.59526014,6.37498665],[-58.59385073,6.37937546],[-58.59381425,6.38321602],[-58.59484148,6.38423681],[-58.59952641,6.37607861],[-58.59754837,6.37535775]],[[-58.59663844,6.37440586],[-58.59913814,6.37520754],[-58.60061252,6.37515581],[-58.59953785,6.36927485],[-58.5994184,6.36899865],[-58.59514618,6.36171937],[-58.59310305,6.36066961],[-58.59264767,6.36552227],[-58.59525454,6.37291014],[-58.59663844,6.37440586]],[[-58.59752655,6.3553493],[-58.59700716,6.34853923],[-58.59500682,6.34742546],[-58.5917201,6.33522725],[-58.59056175,6.33527935],[-58.58910334,6.33809567],[-58.58886266,6.34268415],[-58.59184527,6.35004914],[-58.59186804,6.35388815],[-58.59490037,6.35712898],[-58.59932804,6.35941315],[-58.59924686,6.35755396],[-58.59752655,6.3553493]],[[-58.58872116,6.33579755],[-58.58859777,6.33516777],[-58.58764267,6.33214748],[-58.58741653,6.33176243],[-58.58650613,6.33179212],[-58.58420062,6.33574235],[-58.58405852,6.33695436],[-58.58454025,6.33818054],[-58.58660078,6.33933568],[-58.58872116,6.33579755]],[[-58.61152744,6.35109782],[-58.61195123,6.35136986],[-58.61369753,6.34996033],[-58.61223495,6.34666765],[-58.61211646,6.34699893],[-58.61104155,6.35031366],[-58.61152744,6.35109782]],[[-58.22042692,6.58970284],[-58.21882713,6.58914864],[-58.21854508,6.58921194],[-58.21647704,6.5916326],[-58.2134304,6.59964895],[-58.21300685,6.60528624],[-58.21312714,6.60651135],[-58.21356583,6.60978997],[-58.21432447,6.6105839],[-58.21462595,6.6107496],[-58.21651125,6.6090281],[-58.22037137,6.59377837],[-58.22042692,6.58970284]],[[-58.22779417,6.57656264],[-58.22758484,6.57460141],[-58.22717392,6.574651],[-58.22536802,6.57731915],[-58.22525442,6.5777508],[-58.22587991,6.57910752],[-58.22635484,6.57934535],[-58.22738504,6.5781821],[-58.22779417,6.57656264]],[[-58.24955463,6.5369817],[-58.24889565,6.53696394],[-58.24448895,6.54037845],[-58.24371386,6.54395366],[-58.24402094,6.54404497],[-58.24608994,6.54359913],[-58.24856985,6.54121327],[-58.25001085,6.53807735],[-58.24955463,6.5369817]]]]},"geometry_name":"the_geom","properties":{"mrgid":8460,"geoname":"Guyanese Exclusive Economic Zone","mrgid_ter1":2124,"pol_type":"200NM","mrgid_sov1":2124,"territory1":"Guyana","iso_ter1":"GUY","sovereign1":"Guyana","mrgid_ter2":null,"mrgid_sov2":null,"territory2":null,"iso_ter2":null,"sovereign2":null,"mrgid_ter3":null,"mrgid_sov3":null,"territory3":null,"iso_ter3":null,"sovereign3":null,"x_1":-57.64094,"y_1":8.61338,"mrgid_eez":8460,"area_km2":135060,"iso_sov1":"GUY","iso_sov2":null,"iso_sov3":null,"un_sov1":328,"un_sov2":null,"un_sov3":null,"un_ter1":328,"un_ter2":null,"un_ter3":null}},{"type":"Feature","id":"eez.128","geometry":{"type":"MultiPolygon","coordinates":[[[[-57.14637684,10.74499116],[-57.14638889,10.745],[-57.14666667,10.74361111],[-57.1470141,10.74135281],[-57.14722222,10.74],[-57.1475,10.73805556],[-57.14839724,10.73356936],[-57.14870623,10.73202442],[-57.14916667,10.72972222],[-57.14979935,10.72624247],[-57.14994962,10.72541599],[-57.15027778,10.72361111],[-57.15027778,10.72360113],[-57.15027778,10.72305556],[-57.15055556,10.72166667],[-57.15055556,10.72083333],[-57.15111111,10.71805556],[-57.15138889,10.71722222],[-57.15149852,10.71667406],[-57.15166667,10.71583333],[-57.15166667,10.71527778],[-57.15277778,10.70916667],[-57.15305556,10.70833333],[-57.15333333,10.70666667],[-57.15361111,10.705],[-57.15416667,10.70138889],[-57.15472222,10.69944444],[-57.15534945,10.69505386],[-57.15544322,10.69505918],[-57.15615579,10.69509962],[-57.16196054,10.69522869],[-57.19102659,10.69587499],[-57.22818027,10.69670113],[-57.30536096,10.69841729],[-57.32015099,10.69243156],[-57.51988369,10.61159709],[-57.55496466,10.59741617],[-57.56764243,10.59229139],[-57.80202187,10.50099702],[-57.97922514,10.4349451],[-58.04889955,10.40998081],[-58.10348772,10.39080987],[-58.13742705,10.37948432],[-58.17617792,10.36683961],[-58.28080585,10.33269873],[-58.32292001,10.31895657],[-58.45933924,10.27078563],[-58.46685116,10.2679182],[-58.50142379,10.25651491],[-58.57229555,10.233507],[-58.62729605,10.21602666],[-58.70204198,10.19004958],[-58.72334866,10.18272053],[-58.73720943,10.18037841],[-58.75677227,10.17707278],[-58.82,10.16638889],[-58.82,10.26694444],[-57.19964793,10.94226298],[-57.1175,10.9765],[-57.11442454,10.97618764],[-57.11453679,10.97508244],[-57.11491092,10.97144854],[-57.11510043,10.96963234],[-57.11586888,10.96236463],[-57.11606338,10.96054894],[-57.11619687,10.95931886],[-57.1164575,10.9569171],[-57.11665694,10.95510244],[-57.11827392,10.94057372],[-57.11847834,10.93875959],[-57.11889239,10.93512992],[-57.11910186,10.93331585],[-57.11995015,10.92605682],[-57.12016461,10.92424332],[-57.12059862,10.92061593],[-57.120818,10.91880351],[-57.12259456,10.90429299],[-57.1228189,10.90248116],[-57.12327282,10.89885615],[-57.12350221,10.89704444],[-57.12443022,10.88979493],[-57.12466459,10.88798384],[-57.12513843,10.88436132],[-57.12537771,10.88255136],[-57.12731359,10.86806076],[-57.12755783,10.86625144],[-57.12805155,10.86263151],[-57.12830082,10.86082237],[-57.12930842,10.85358325],[-57.12956267,10.85177478],[-57.13007627,10.84815755],[-57.13033542,10.84635027],[-57.13243033,10.8318813],[-57.13269442,10.83007471],[-57.13322786,10.82646029],[-57.133497,10.82465393],[-57.13458402,10.81742605],[-57.13485811,10.81562042],[-57.1354114,10.81200891],[-57.13569038,10.81020452],[-57.13794403,10.79575888],[-57.13822794,10.79395524],[-57.13880102,10.79034675],[-57.13908997,10.78854339],[-57.14025628,10.7813276],[-57.14055017,10.77952502],[-57.14114307,10.77591967],[-57.14144183,10.77411837],[-57.14258431,10.76728803],[-57.14319587,10.76363175],[-57.14385389,10.75969777],[-57.14415758,10.75789728],[-57.14477023,10.75429516],[-57.14503529,10.75274959],[-57.14507895,10.75249501],[-57.14550394,10.75003708],[-57.14595813,10.74741026],[-57.14632437,10.74529216],[-57.14637684,10.74499116]]]]},"geometry_name":"the_geom","properties":{"mrgid":33185,"geoname":"Overlapping claim: Guyana / Trinidad and Tobago / Venezuela","mrgid_ter1":2124,"pol_type":"Overlapping claim","mrgid_sov1":2124,"territory1":"Guyana","iso_ter1":"GUY","sovereign1":"Guyana","mrgid_ter2":2186,"mrgid_sov2":2186,"territory2":"Trinidad and Tobago","iso_ter2":"TTO","sovereign2":"Trinidad and Tobago","mrgid_ter3":2201,"mrgid_sov3":2201,"territory3":"Venezuela","iso_ter3":"VEN","sovereign3":"Venezuela","x_1":-57.88712,"y_1":10.56539,"mrgid_eez":33185,"area_km2":3612,"iso_sov1":"GUY","iso_sov2":"TTO","iso_sov3":"VEN","un_sov1":328,"un_sov2":780,"un_sov3":862,"un_ter1":328,"un_ter2":780,"un_ter3":862}}],"totalFeatures":2,"numberMatched":2,"numberReturned":2,"timeStamp":"2026-04-02T06:35:11.215Z","crs":{"type":"name","properties":{"name":"urn:ogc:def:crs:EPSG::4326"}}}