{"type":"FeatureCollection","features":[{"type":"Feature","id":"iho.35","geometry":{"type":"MultiPolygon","coordinates":[[[[51.28665993,11.83500524],[51.27958262,11.84083283],[51.27501202,11.84214127],[51.2731564,11.84256423],[51.26106727,11.84204626],[51.25956845,11.84172535],[51.25071287,11.83739221],[51.23880255,11.83489335],[51.22544074,11.83940852],[51.21995986,11.84342384],[51.2136023,11.84623158],[51.20932531,11.84603596],[51.20068026,11.84842086],[51.1971395,11.84772825],[51.18665826,11.85021627],[51.16413355,11.86200535],[51.15250576,11.86966896],[51.14339244,11.87303901],[51.13323855,11.87357295],[51.11929095,11.8708868],[51.11190355,11.87112331],[51.10707521,11.87242091],[51.10312986,11.87069964],[51.09452367,11.87130213],[51.09110916,11.87059545],[51.07337511,11.87409365],[51.07131302,11.87340415],[51.06853616,11.87028873],[51.06367183,11.87033725],[51.05629456,11.87231851],[51.05284262,11.87503314],[51.04891741,11.87499917],[51.04239416,11.878654],[51.03538787,11.88389933],[51.01825857,11.8941344],[51.01202095,11.89776957],[50.99718654,11.90524244],[50.9765625,11.91880584],[50.97525847,11.91943192],[50.96550775,11.92152905],[50.96507442,11.92166412],[50.95318186,11.92625952],[50.93369555,11.92909992],[50.92218566,11.93212736],[50.89587414,11.9410603],[50.89012766,11.94245875],[50.87964952,11.94444585],[50.86993384,11.94478393],[50.85508645,11.94733226],[50.85199177,11.94858384],[50.85171616,11.94852126],[50.84580696,11.94040573],[50.84847546,11.94512582],[50.84860694,11.94548655],[50.84926403,11.94936764],[50.84903443,11.94966686],[50.84426308,11.953125],[50.84397805,11.953125],[50.82039475,11.96995735],[50.81361771,11.96264982],[50.80702305,11.96138334],[50.81487787,11.96475506],[50.81759882,11.97188807],[50.80366325,11.98218512],[50.80194306,11.98432446],[50.79507875,11.98797274],[50.78912234,11.98775256],[50.78564835,11.98908865],[50.77418995,11.98823214],[50.77376032,11.98791897],[50.76340687,11.97467375],[50.76311874,11.97408271],[50.76334822,11.97332334],[50.76368225,11.97312367],[50.7687999,11.97799861],[50.77263856,11.98354447],[50.77415538,11.9848119],[50.77667665,11.98601294],[50.78153837,11.98685682],[50.78619707,11.98687577],[50.78762174,11.98621595],[50.78763473,11.98589385],[50.78715503,11.98532677],[50.77827215,11.98549688],[50.77570164,11.98446655],[50.77462566,11.98324895],[50.77586114,11.98269474],[50.77523935,11.9811939],[50.7720592,11.97985637],[50.77223766,11.97966886],[50.7754848,11.97801352],[50.77805662,11.97754455],[50.78093851,11.98055017],[50.78168094,11.98406613],[50.78266037,11.98145831],[50.78532946,11.98262322],[50.78687751,11.9805963],[50.78665197,11.98009336],[50.78422225,11.97888064],[50.78050184,11.97869885],[50.78003788,11.97659397],[50.77794874,11.97547674],[50.77513838,11.97539103],[50.77354026,11.97727108],[50.77295208,11.97726703],[50.77244866,11.97704601],[50.76565051,11.97128725],[50.75875616,11.96845961],[50.7560091,11.96615672],[50.75255477,11.96462834],[50.74696946,11.96294844],[50.72564948,11.95836866],[50.72462893,11.95799923],[50.71481526,11.953125],[50.71424484,11.953125],[50.70353436,11.94789147],[50.69191635,11.94009352],[50.68101776,11.93641377],[50.67788696,11.93561923],[50.67532015,11.93587875],[50.64264452,11.94273758],[50.63032365,11.9433068],[50.62828624,11.94253981],[50.62745142,11.93984056],[50.62670672,11.94052041],[50.62601495,11.93939793],[50.62591457,11.93910027],[50.62743497,11.93619811],[50.62660146,11.9326359],[50.62632287,11.93230164],[50.625,11.93191958],[50.61911547,11.92893672],[50.60705483,11.92823994],[50.60537457,11.92794907],[50.60205281,11.92643344],[50.59681976,11.92369235],[50.59233046,11.92070651],[50.56927586,11.90294981],[50.55590057,11.88737488],[50.55405867,11.88654184],[50.54804575,11.87580955],[50.54561341,11.87029517],[50.54348361,11.86397254],[50.53953564,11.8501935],[50.53654206,11.83482623],[50.53040588,11.81379914],[50.52497065,11.79850698],[50.52501321,11.79822934],[50.52620685,11.79824543],[50.52684665,11.79959691],[50.52770305,11.80182576],[50.53439772,11.82402158],[50.53664052,11.82904947],[50.53802991,11.82989407],[50.53859985,11.83457983],[50.53977692,11.82856941],[50.53799915,11.82154906],[50.53497481,11.81871963],[50.53596616,11.81445837],[50.53596592,11.81388962],[50.53512514,11.81054735],[50.53495824,11.81004763],[50.5301733,11.80349195],[50.52931643,11.79723406],[50.52627945,11.79595542],[50.52513516,11.79224491],[50.52242124,11.79309762],[50.52136624,11.79240811],[50.52085686,11.79170084],[50.52000046,11.78899765],[50.51975763,11.78720975],[50.51997685,11.78680694],[50.52199745,11.78718197],[50.52281225,11.78613186],[50.52273071,11.78584445],[50.51893234,11.77734375],[50.51844847,11.77734375],[50.50985456,11.75768232],[50.49866235,11.73891985],[50.49392033,11.73228514],[50.48514605,11.72123838],[50.46773696,11.70298553],[50.46616995,11.70145094],[50.44454086,11.68173754],[50.4157083,11.66390121],[50.40395582,11.65966523],[50.38640964,11.65537834],[50.38072991,11.65089095],[50.36899757,11.64561725],[50.35876322,11.63898027],[50.35042167,11.6360625],[50.32340825,11.62177265],[50.32181156,11.62205541],[50.30941045,11.61721694],[50.30553961,11.61668587],[50.30238545,11.61758375],[50.30203283,11.61743796],[50.29832995,11.61556053],[50.29607356,11.61246753],[50.29426551,11.61198425],[50.29209292,11.60723853],[50.28731155,11.60628557],[50.28576756,11.60237706],[50.28453934,11.6015625],[50.27984238,11.59626114],[50.2734375,11.59207594],[50.27004957,11.58992815],[50.26925528,11.58792031],[50.26373017,11.58466554],[50.25248992,11.58219337],[50.24787164,11.57911766],[50.23715055,11.57818973],[50.23505604,11.57973397],[50.23273551,11.57877922],[50.23203611,11.57688165],[50.22779906,11.57692885],[50.22661126,11.57428813],[50.21894741,11.56663287],[50.21635413,11.5678395],[50.20981491,11.56476164],[50.19377232,11.56271195],[50.19314146,11.56256688],[50.17952263,11.55838156],[50.16229844,11.55489957],[50.15151763,11.55155122],[50.14792848,11.55003095],[50.14734006,11.54970145],[50.14570785,11.54488122],[50.14429533,11.54354656],[50.14343417,11.54310203],[50.13989306,11.54297864],[50.13625908,11.54039717],[50.1246587,11.54003716],[50.12159586,11.53673387],[50.12076163,11.53427863],[50.11809516,11.53239036],[50.11643827,11.53279412],[50.11184323,11.52904415],[50.10774255,11.52749884],[50.10727882,11.52484214],[50.10628104,11.52528596],[50.1049757,11.52327096],[50.09926796,11.52241635],[50.09711206,11.52022755],[50.09484863,11.51979375],[50.09353435,11.51732087],[50.08964157,11.51658773],[50.08013344,11.51161146],[50.07118416,11.50533164],[50.06263328,11.50716627],[50.05743825,11.50436628],[50.04896796,11.50426555],[50.04634523,11.50688362],[50.04094994,11.50508153],[50.03442514,11.50523186],[50.02841675,11.50365627],[50.01555884,11.50429845],[50.00913334,11.50209534],[50.00280225,11.50231922],[49.96300411,11.5104717],[49.94653594,11.51561785],[49.94066083,11.51271892],[49.93646145,11.51214242],[49.93434966,11.50961053],[49.92709851,11.5078094],[49.925843,11.50609291],[49.92536044,11.50472546],[49.92536294,11.50419736],[49.92671204,11.49935246],[49.93667877,11.49688017],[49.93808222,11.49616694],[49.93920493,11.49510872],[49.9398216,11.49291778],[49.9398216,11.48605156],[49.94239092,11.48359716],[49.94202328,11.48332071],[49.94049966,11.48402691],[49.93880904,11.48611355],[49.93804395,11.49403834],[49.93596601,11.49581456],[49.92946494,11.49593318],[49.921875,11.50223207],[49.92020178,11.50344825],[49.91819584,11.50404024],[49.91750371,11.50382555],[49.91110575,11.50009024],[49.90585005,11.49523795],[49.8944391,11.48788464],[49.89325452,11.48589563],[49.88788736,11.48348236],[49.88019085,11.47742903],[49.8704133,11.4743129],[49.85930645,11.46863246],[49.83914888,11.46236205],[49.82771873,11.46028972],[49.82694316,11.46017158],[49.80088985,11.46062708],[49.77396381,11.45856214],[49.75406444,11.45870531],[49.73528111,11.46393645],[49.72444177,11.46844137],[49.72083235,11.46774495],[49.70712757,11.47296011],[49.70508623,11.47519505],[49.69540966,11.47975636],[49.69256341,11.47814775],[49.68954766,11.4792999],[49.68741274,11.47807574],[49.68494785,11.47871363],[49.68096328,11.47764981],[49.67537773,11.4704318],[49.67128205,11.46892524],[49.66152263,11.46228433],[49.65315092,11.45957136],[49.64609802,11.45873475],[49.63539052,11.46027744],[49.6275959,11.45708275],[49.61977065,11.45570886],[49.60819757,11.45899844],[49.60397375,11.45745516],[49.60174835,11.45432377],[49.59578085,11.45560455],[49.58755505,11.45458984],[49.5814532,11.45605695],[49.57847655,11.45375764],[49.57154262,11.45377922],[49.5703125,11.453125],[49.56108332,11.44938195],[49.55924845,11.44997644],[49.55536747,11.44893956],[49.55230367,11.4464699],[49.54738593,11.43901432],[49.54042256,11.42578125],[49.53434753,11.41363645],[49.52705622,11.40255642],[49.50836635,11.38185155],[49.49335396,11.3761456],[49.47608006,11.37532127],[49.47349513,11.36554468],[49.47178698,11.36362076],[49.46750522,11.36072636],[49.46276224,11.35916543],[49.45918405,11.35958195],[49.44926596,11.35790765],[49.44633067,11.35320926],[49.44679737,11.34989941],[49.44522905,11.34684014],[49.44221675,11.34435844],[49.43410027,11.34016824],[49.43123555,11.33907807],[49.41771281,11.33510041],[49.39065433,11.33099711],[49.36097634,11.33154106],[49.35657346,11.33241844],[49.32909107,11.33150315],[49.31434965,11.33349323],[49.30249834,11.33682406],[49.29799271,11.33280361],[49.29801655,11.33115041],[49.29448116,11.32882226],[49.29276705,11.32592332],[49.28038394,11.31769741],[49.27526057,11.3130213],[49.26840508,11.30921078],[49.25192523,11.30333054],[49.22855687,11.29829955],[49.21875,11.29799104],[49.21385264,11.29756224],[49.21307683,11.29733634],[49.21102226,11.2943933],[49.21065545,11.29429233],[49.18840837,11.29025173],[49.18391144,11.2897464],[49.18122756,11.29181945],[49.17786443,11.29216242],[49.18091702,11.28917694],[49.17763317,11.28717351],[49.17422926,11.28768182],[49.17336655,11.28941274],[49.1707679,11.2892611],[49.16380954,11.28585875],[49.14756143,11.28342354],[49.13378417,11.27960551],[49.10826492,11.27731431],[49.09533942,11.2737236],[49.07029808,11.26952398],[49.04523885,11.26296568],[49.03508103,11.25889885],[49.03205526,11.25825143],[49.02131355,11.25778306],[49.00921321,11.25495422],[49.00034547,11.25061893],[48.99819362,11.25064993],[48.99745905,11.25],[48.99706936,11.25],[48.99508727,11.24835444],[48.97890985,11.24400938],[48.97469068,11.24305475],[48.95930612,11.24082196],[48.95529115,11.24031413],[48.93578184,11.24100327],[48.93478465,11.24084425],[48.92303395,11.23995531],[48.90690041,11.24137998],[48.89955223,11.24281693],[48.89761221,11.24336767],[48.89413714,11.24589396],[48.88987434,11.24597943],[48.8890655,11.2461971],[48.87770295,11.25],[48.87714267,11.25],[48.87304986,11.251899],[48.86906326,11.25031745],[48.86931896,11.25247073],[48.86850154,11.25379002],[48.8671875,11.25418532],[48.86045861,11.25775528],[48.85546827,11.25963461],[48.83157635,11.26704955],[48.80827796,11.27898824],[48.80028987,11.28101695],[48.79310894,11.28481257],[48.78804004,11.28569806],[48.77538466,11.29151583],[48.73783439,11.30128598],[48.70028412,11.31105614],[48.69432604,11.31418943],[48.69085336,11.31452441],[48.67386937,11.32086325],[48.66484284,11.32219911],[48.65812516,11.32570314],[48.65537214,11.32397664],[48.64928615,11.32325351],[48.64600384,11.32065821],[48.63382685,11.31996405],[48.61534452,11.31225252],[48.59455955,11.30800581],[48.58215606,11.30880535],[48.58004844,11.30659235],[48.57864726,11.30856824],[48.56504226,11.31007946],[48.56392181,11.31019592],[48.54307306,11.31110477],[48.53795326,11.31110477],[48.5291357,11.31054676],[48.52639186,11.31018627],[48.515625,11.30775654],[48.51519728,11.30772626],[48.49989235,11.29783177],[48.49268234,11.29473257],[48.48477852,11.28913605],[48.47771478,11.28593552],[48.46940422,11.28379107],[48.44697511,11.28289437],[48.4434756,11.28188014],[48.41237485,11.28479755],[48.40040731,11.28428972],[48.39598155,11.28344393],[48.39284027,11.28175223],[48.38366163,11.27439916],[48.37666166,11.27268314],[48.36165976,11.27195585],[48.35430407,11.26968622],[48.35394073,11.26950455],[48.34969175,11.26406693],[48.34506822,11.26074755],[48.33636463,11.24991775],[48.33303392,11.24618065],[48.32860482,11.24209201],[48.32318795,11.23971188],[48.32052135,11.233446],[48.31553805,11.23071766],[48.31222916,11.22716224],[48.30523455,11.22270703],[48.29794228,11.21963656],[48.27655935,11.21264112],[48.25293195,11.20948994],[48.23917377,11.20554662],[48.23865831,11.20523834],[48.23372853,11.20107365],[48.23136294,11.19546604],[48.22881377,11.1929754],[48.21410334,11.18479931],[48.20038557,11.17185438],[48.19900668,11.1685338],[48.19310307,11.16186428],[48.19065797,11.16117215],[48.18154144,11.15181375],[48.17516565,11.14769912],[48.16787672,11.14066195],[48.1640625,11.13839281],[48.15796781,11.13316512],[48.14942646,11.12884295],[48.13891351,11.12571371],[48.11404216,11.12731183],[48.09539115,11.13078582],[48.07922697,11.12555802],[48.07184064,11.12530851],[48.06024873,11.12799656],[48.05284083,11.12778234],[48.04910111,11.12502825],[48.04239726,11.12294042],[48.03985918,11.12061596],[48.03598201,11.11905181],[48.0351752,11.11886156],[48.02848244,11.11933315],[48.01841462,11.11725545],[48.00205934,11.11849535],[47.99607778,11.11855471],[47.98434877,11.11794293],[47.96668148,11.11495531],[47.96139574,11.11474824],[47.95598114,11.11572051],[47.95177221,11.11502731],[47.94785547,11.11610067],[47.91815054,11.12715936],[47.91745591,11.12715924],[47.91378498,11.12562263],[47.91184163,11.12365532],[47.90501714,11.12199914],[47.89778948,11.11696005],[47.89032817,11.11462474],[47.88040483,11.113361],[47.87032521,11.11307883],[47.86951506,11.11307406],[47.85863698,11.11520493],[47.83856595,11.11526442],[47.81434655,11.11823106],[47.8125,11.11774552],[47.80538511,11.11800754],[47.79587102,11.12270725],[47.79213393,11.11915052],[47.76433611,11.11475027],[47.7541486,11.10941207],[47.74348664,11.1065346],[47.73959804,11.1037724],[47.73050666,11.10023892],[47.72406054,11.09952927],[47.71637285,11.09557903],[47.69830835,11.08987308],[47.69447744,11.08983862],[47.66840041,11.09552681],[47.66641808,11.09765816],[47.65506816,11.10254335],[47.64897621,11.1075778],[47.64067495,11.11243713],[47.63471818,11.11485767],[47.63027668,11.11465764],[47.61592293,11.12636065],[47.58107245,11.1512624],[47.55623424,11.17210281],[47.54548192,11.17863536],[47.54511213,11.17879534],[47.53703344,11.18189013],[47.53095257,11.18328524],[47.52587855,11.18359375],[47.50683737,11.18372285],[47.49112081,11.18166995],[47.47518516,11.18127728],[47.46373892,11.17865098],[47.4609375,11.17857134],[47.45389855,11.17825043],[47.45324111,11.17808473],[47.45162463,11.17734087],[47.45147145,11.17524672],[47.44386935,11.17413652],[47.43325901,11.17413664],[47.41788018,11.17801344],[47.41108525,11.17755008],[47.40889144,11.17429817],[47.39812577,11.17240346],[47.39198434,11.17013443],[47.38066578,11.16269553],[47.36063647,11.15576625],[47.34145832,11.15102196],[47.33744884,11.14835036],[47.32512605,11.14431512],[47.32064402,11.14010155],[47.30865073,11.13285661],[47.29970896,11.13037753],[47.29238713,11.13034511],[47.26976836,11.11858952],[47.2623142,11.11688471],[47.26135147,11.11553383],[47.25042534,11.11036622],[47.24911714,11.10838604],[47.24341667,11.10504961],[47.23072434,11.09431601],[47.22234225,11.08979547],[47.21221674,11.08637667],[47.20175576,11.0803802],[47.19440198,11.07763445],[47.18560255,11.07611692],[47.18241584,11.07421875],[47.18171763,11.07407558],[47.17067611,11.07137072],[47.16405666,11.06813776],[47.14921296,11.06386554],[47.14710677,11.06073534],[47.14571524,11.04952896],[47.1436491,11.04452991],[47.14125085,11.04082692],[47.13910711,11.03804564],[47.13285255,11.03230166],[47.12001157,11.02655542],[47.11957216,11.0262928],[47.11654973,11.02363884],[47.11404645,11.02104604],[47.11120212,11.01545715],[47.10974574,11.01162934],[47.109375,11.00809145],[47.10830712,11.00098705],[47.10261023,10.9906255],[47.10064304,10.98839414],[47.09979522,10.98786604],[47.09244215,10.98412538],[47.08585465,10.9829396],[47.08556998,10.98279607],[47.08258772,10.97910321],[47.07738221,10.97661746],[47.06416774,10.97501278],[47.06231534,10.97355056],[47.05998731,10.97389865],[47.05071485,10.96891701],[47.04797792,10.96580911],[47.043437,10.96351588],[47.03927732,10.96236205],[47.02937114,10.96233261],[47.02112055,10.96414995],[47.01595402,10.96398091],[47.01538146,10.96295321],[47.01147091,10.96219385],[47.00839102,10.96064246],[47.00771725,10.95975244],[47.00728345,10.95518601],[46.99828815,10.94010711],[46.99068642,10.93007362],[46.98263824,10.92571235],[46.97669625,10.92441642],[46.96917164,10.92455411],[46.96752143,10.92091155],[46.96348822,10.91790605],[46.94075036,10.91413271],[46.93123031,10.91584683],[46.92643654,10.90219355],[46.92606437,10.90181363],[46.92208326,10.8984375],[46.92195058,10.8984375],[46.92104924,10.89778304],[46.91487455,10.895877],[46.91293764,10.89541686],[46.90092146,10.89462352],[46.89625013,10.89115596],[46.89051306,10.8846997],[46.88603234,10.87576616],[46.88257575,10.87225795],[46.87371695,10.8667171],[46.87177885,10.86275232],[46.86904395,10.86031544],[46.85800731,10.85477877],[46.8448137,10.85264897],[46.84092033,10.84692848],[46.83514476,10.84181702],[46.82462776,10.83568776],[46.8204298,10.83443963],[46.81512344,10.82843566],[46.81364357,10.82515836],[46.78455734,10.81179845],[46.77728045,10.80505395],[46.77154136,10.80137753],[46.76932216,10.80028045],[46.7578125,10.796875],[46.75626397,10.79638755],[46.74521065,10.78940928],[46.74491525,10.78927481],[46.72428215,10.78172076],[46.7239331,10.78153157],[46.71979737,10.77804804],[46.71788704,10.77495527],[46.70911551,10.77001405],[46.70063806,10.76773906],[46.69915235,10.76601386],[46.69010484,10.76250815],[46.66905606,10.74781775],[46.6673758,10.74699783],[46.65252125,10.74001277],[46.6271131,10.73149896],[46.62134874,10.73099506],[46.61415446,10.72828901],[46.60686398,10.72766948],[46.59084105,10.72860634],[46.58967924,10.72846317],[46.57741344,10.72653306],[46.55958223,10.72251308],[46.52987444,10.71565115],[46.52706027,10.71477687],[46.52051175,10.71230304],[46.50026464,10.70263374],[46.49586678,10.70162141],[46.49530494,10.7013669],[46.48869014,10.69677246],[46.48839891,10.69664073],[46.47217095,10.69035566],[46.45627022,10.68529725],[46.43886483,10.68194914],[46.42361045,10.68134105],[46.4210844,10.68010545],[46.41603923,10.68164062],[46.40905702,10.6808933],[46.40625,10.68191957],[46.39503348,10.68282473],[46.39433241,10.68296874],[46.38676167,10.68551648],[46.36766553,10.68715286],[46.35717118,10.68648052],[46.35658586,10.6865679],[46.350793,10.68838763],[46.34369624,10.69174027],[46.33119094,10.69897687],[46.32992196,10.70019531],[46.30949223,10.72265625],[46.30913007,10.72265625],[46.28815651,10.74555564],[46.27441084,10.75827432],[46.25759423,10.77126765],[46.24253845,10.77982461],[46.23457241,10.78299534],[46.23217261,10.78344226],[46.23132062,10.78336251],[46.22794855,10.78111672],[46.22182107,10.78020692],[46.20233464,10.7817347],[46.2016834,10.78163052],[46.19853616,10.77960527],[46.19076371,10.77793133],[46.16630876,10.77504468],[46.15356135,10.77067685],[46.13846862,10.76894355],[46.11840355,10.76500905],[46.11786592,10.76495194],[46.10054958,10.76395094],[46.08407903,10.76395094],[46.06687701,10.76481736],[46.0546875,10.76729906],[46.01716626,10.77560294],[46.00236654,10.77709544],[45.9966917,10.7786653],[45.97819304,10.77762985],[45.97447491,10.77895606],[45.96445072,10.78473806],[45.95523942,10.79153085],[45.95037174,10.79335666],[45.92310023,10.81340206],[45.91141391,10.81858134],[45.90578675,10.82223606],[45.89183605,10.82637715],[45.88413584,10.82983744],[45.87336087,10.83447027],[45.86950672,10.83158183],[45.86469555,10.83023524],[45.86397767,10.83016443],[45.86229002,10.8309499],[45.86207306,10.83052766],[45.86298466,10.82358646],[45.86967885,10.82334244],[45.87250102,10.82023001],[45.87465847,10.82015407],[45.8783226,10.81499136],[45.87822437,10.81473374],[45.87652886,10.81456006],[45.86610305,10.82026553],[45.86311007,10.81651437],[45.86209083,10.81614721],[45.86022472,10.81638634],[45.85849023,10.81763864],[45.85759866,10.82017755],[45.85603786,10.81965375],[45.85496747,10.82128286],[45.85497665,10.82164407],[45.85813034,10.83049285],[45.85798943,10.83090901],[45.85713863,10.83191943],[45.85150135,10.83758307],[45.83320296,10.84628963],[45.82463932,10.85169935],[45.81673265,10.85931265],[45.81249106,10.86095381],[45.80520773,10.86860144],[45.80168808,10.86617732],[45.80179656,10.86366844],[45.80071044,10.86291552],[45.79434776,10.86135745],[45.79074526,10.86182594],[45.77922273,10.86046147],[45.77042115,10.85796595],[45.76194632,10.85138631],[45.76080215,10.84670746],[45.76212776,10.84172261],[45.76082754,10.83833802],[45.75751972,10.83269477],[45.75357008,10.82963133],[45.7190963,10.81805074],[45.70556796,10.80932081],[45.70422482,10.80652297],[45.70379901,10.80648911],[45.703125,10.80691957],[45.70074105,10.80702817],[45.70043111,10.80690241],[45.69626844,10.80263257],[45.69235134,10.80171084],[45.68932474,10.79520571],[45.68775332,10.79520226],[45.67918265,10.78677535],[45.67260218,10.78324628],[45.65953457,10.77790165],[45.65027773,10.77664006],[45.62618566,10.76624763],[45.61332476,10.76398075],[45.60595095,10.76395786],[45.60166764,10.76515675],[45.59402907,10.76186156],[45.59242105,10.75977695],[45.59292698,10.75647855],[45.58691764,10.74676073],[45.57815611,10.73760486],[45.57639432,10.736889],[45.5756222,10.73419356],[45.57725692,10.72858047],[45.57636046,10.72515595],[45.57448375,10.72265625],[45.57409131,10.72253466],[45.56793714,10.71869552],[45.55143428,10.71156061],[45.53780186,10.70734024],[45.52989495,10.70717204],[45.52421784,10.70225096],[45.52239001,10.69498277],[45.51846957,10.69126236],[45.51115525,10.68773174],[45.50580883,10.68702126],[45.50264573,10.68792045],[45.49017382,10.68579733],[45.47937393,10.68143415],[45.47540605,10.67760754],[45.47509706,10.67716944],[45.47334862,10.67197454],[45.47308433,10.67160356],[45.47005296,10.66830373],[45.46605074,10.66567886],[45.46099162,10.66399908],[45.45178664,10.66241622],[45.44747257,10.66189826],[45.42876542,10.66192377],[45.42226875,10.65990663],[45.40675116,10.65848207],[45.38750875,10.65904725],[45.36995041,10.66176283],[45.35581875,10.66022587],[45.35198796,10.66043532],[45.3515625,10.66071415],[45.34028816,10.66347492],[45.33413184,10.66399443],[45.33325076,10.66398704],[45.32419312,10.66235876],[45.31827486,10.65874231],[45.31621623,10.65669155],[45.31302404,10.65278304],[45.30865395,10.64634967],[45.30530286,10.63971186],[45.29518831,10.62778318],[45.28243291,10.61875272],[45.27731824,10.61275208],[45.2727319,10.60927844],[45.26669145,10.60007072],[45.26485503,10.59895682],[45.26187682,10.59180117],[45.25383735,10.58101642],[45.24277091,10.57110465],[45.24004996,10.5682199],[45.23673451,10.56286395],[45.23625815,10.56239462],[45.22924495,10.55790114],[45.22944558,10.55679715],[45.22400916,10.55543351],[45.21871388,10.55148268],[45.21834552,10.55128408],[45.20855403,10.546875],[45.20770276,10.546875],[45.20107305,10.54341435],[45.19587028,10.54351234],[45.19257224,10.54134226],[45.19131792,10.54104531],[45.18392944,10.54111814],[45.18146944,10.53901672],[45.16773117,10.53279066],[45.15310407,10.52253711],[45.14141977,10.51667404],[45.12896287,10.51422977],[45.12112594,10.51426625],[45.11714971,10.51251936],[45.10712445,10.51281965],[45.10240984,10.51055372],[45.09275734,10.50945616],[45.08611715,10.50750506],[45.07327115,10.4959501],[45.06377924,10.48396814],[45.06240404,10.48262107],[45.05717886,10.47874844],[45.04728901,10.47289348],[45.03929901,10.46895754],[45.03808022,10.46850038],[45.02314317,10.46406996],[45.01768053,10.46199405],[45,10.45424104],[44.98282337,10.447317],[44.98136961,10.44635487],[44.97964585,10.44390428],[44.9796437,10.44337332],[44.98023093,10.44177723],[44.98195136,10.44096994],[44.98190701,10.44304526],[44.9906429,10.44757354],[44.99217868,10.45008242],[44.99425304,10.44791687],[44.994771,10.44800997],[44.99641967,10.45042515],[44.99998784,10.45068753],[45,10.45061386],[45.00277793,10.45233321],[45.00604701,10.45002353],[45.00601053,10.4448446],[45.00785172,10.44321632],[45.00775254,10.44102716],[45.00696337,10.43980741],[45.00561428,10.44084716],[45.00412536,10.4398334],[45.00311351,10.44069695],[45.00420713,10.43789816],[44.99996197,10.43924046],[44.99945211,10.43937325],[44.993752,10.43699825],[44.99435186,10.43564105],[44.99766695,10.43708682],[44.99831486,10.43295324],[44.99394965,10.43162584],[44.99693894,10.43342817],[44.99630606,10.43619633],[44.99530256,10.43580997],[44.99445164,10.43308485],[44.98936927,10.42891765],[44.98648715,10.4268316],[44.9807831,10.42545044],[44.97766483,10.42190444],[44.94588017,10.40851164],[44.93576086,10.40789545],[44.93112898,10.40627861],[44.90903664,10.40646994],[44.90191412,10.4037683],[44.88465691,10.40345967],[44.8412497,10.40962756],[44.83159804,10.41319513],[44.82626855,10.41325486],[44.81826365,10.41570711],[44.8157165,10.4157058],[44.81346476,10.41408491],[44.80844915,10.41409194],[44.80121446,10.41595137],[44.7966845,10.41325295],[44.78978205,10.41303301],[44.74842727,10.41790664],[44.72235346,10.41015625],[44.69521236,10.40761554],[44.67677855,10.40367508],[44.66972744,10.40171862],[44.65461695,10.39615095],[44.6542536,10.39600146],[44.6484375,10.39229906],[44.64826012,10.39217937],[44.64826012,10.39102364],[44.6484375,10.39090395],[44.64972281,10.391065],[44.65004206,10.39078558],[44.64972413,10.39018536],[44.6484375,10.38978791],[44.6484375,10.38950884],[44.64462304,10.38770151],[44.6437124,10.3873347],[44.63328016,10.38485765],[44.61846888,10.38303256],[44.60964084,10.38030815],[44.60074091,10.38079274],[44.59090185,10.3786869],[44.5841639,10.37931883],[44.56950545,10.3780992],[44.56036615,10.37926674],[44.54899085,10.3822875],[44.54045892,10.38732696],[44.53630531,10.38859785],[44.52731156,10.38640165],[44.51906705,10.38920605],[44.50834775,10.38993573],[44.49847615,10.39294708],[44.49103725,10.39265478],[44.47526526,10.39713371],[44.45785391,10.39880335],[44.45270956,10.40038335],[44.44853556,10.40060008],[44.44403195,10.39933193],[44.41842282,10.39037526],[44.4133625,10.38999557],[44.40776575,10.39071596],[44.40218222,10.39197135],[44.38512194,10.39716256],[44.37565601,10.39679277],[44.36119497,10.4004426],[44.36061072,10.40060401],[44.33899796,10.41022074],[44.32820511,10.41260624],[44.32253695,10.41582453],[44.31717241,10.41707468],[44.296875,10.42689717],[44.29210067,10.42934155],[44.28429127,10.43362415],[44.27295351,10.44143832],[44.26078641,10.45033121],[44.24912882,10.46033621],[44.22504103,10.48211646],[44.20342565,10.50494981],[44.18688095,10.51457965],[44.16005528,10.53635871],[44.15195346,10.54211771],[44.14478648,10.546875],[44.14421904,10.546875],[44.13790107,10.55002165],[44.13738871,10.55018365],[44.11768615,10.55499494],[44.10374165,10.56525683],[44.09780395,10.56789684],[44.08324862,10.58166516],[44.07700145,10.59039998],[44.07308233,10.60087681],[44.06865776,10.60758197],[44.06606925,10.61008787],[44.06201458,10.61325276],[44.05730426,10.61598897],[44.04903555,10.61870134],[44.04074264,10.62316406],[44.03649664,10.62595272],[44.01463306,10.64474821],[44.01274014,10.64512396],[44.0030694,10.65251994],[43.98373044,10.66415143],[43.97350502,10.6693176],[43.95683157,10.68140745],[43.95501995,10.68385947],[43.9453125,10.69056904],[43.9453125,10.69112706],[43.94463456,10.69185746],[43.92882836,10.70270395],[43.92419565,10.70758104],[43.92047298,10.70933926],[43.91898334,10.71150684],[43.90409327,10.72257924],[43.90385187,10.72265625],[43.89440727,10.73048842],[43.87755501,10.74587131],[43.85986412,10.76246071],[43.85846007,10.76491415],[43.84607077,10.77727234],[43.84192216,10.7800889],[43.82593918,10.79648173],[43.82190931,10.79900491],[43.79662379,10.82577109],[43.77133826,10.85253727],[43.74605274,10.87930346],[43.73062634,10.8984375],[43.73045301,10.8984375],[43.72138596,10.91002345],[43.71684265,10.91341293],[43.69820124,10.9353416],[43.67955983,10.95727026],[43.66514564,10.97583544],[43.65558767,10.99180794],[43.65331495,10.99368381],[43.65393484,10.98881257],[43.65275407,10.98660684],[43.65266883,10.98922133],[43.64878523,10.99848485],[43.64941573,11.00348532],[43.64477158,11.01074398],[43.63294041,11.03501785],[43.63009584,11.04018211],[43.62581635,11.04616594],[43.61215746,11.06176198],[43.60509205,11.07375443],[43.60454965,11.07421875],[43.60426545,11.07421875],[43.60011506,11.07938254],[43.59375,11.09040165],[43.59375,11.09095967],[43.5923866,11.09277213],[43.58516347,11.11035287],[43.57748234,11.12038136],[43.57731545,11.12067485],[43.56696665,11.14133227],[43.56511343,11.14584684],[43.56081223,11.15724754],[43.55939114,11.16172016],[43.55904484,11.16806376],[43.55872393,11.16908765],[43.55631435,11.17480755],[43.55557442,11.17597878],[43.55332816,11.17870176],[43.54939544,11.18102097],[43.53744006,11.18143284],[43.52994478,11.18418133],[43.52199936,11.19119036],[43.52164972,11.19153965],[43.521384,11.19017506],[43.52302062,11.18739605],[43.53147078,11.18312407],[43.53202665,11.18188846],[43.52637565,11.18433797],[43.52443135,11.18354416],[43.52279401,11.18580413],[43.51782048,11.18765843],[43.52038026,11.18900526],[43.51766372,11.19033384],[43.51884055,11.19418871],[43.51892066,11.19428957],[43.51676035,11.19656813],[43.51264572,11.20496643],[43.5098052,11.20706606],[43.50593042,11.21386707],[43.50435615,11.21515203],[43.50422692,11.21514153],[43.50229466,11.21491516],[43.50094187,11.21434236],[43.49801934,11.21154666],[43.49728966,11.21219695],[43.50260687,11.21681857],[43.50287378,11.21715915],[43.50329816,11.2193166],[43.50317883,11.22001815],[43.49889314,11.23010814],[43.49875712,11.23053217],[43.49519885,11.24391615],[43.49399376,11.25],[43.49419737,11.25],[43.49166405,11.26978016],[43.49021196,11.26682115],[43.49150598,11.27357554],[43.49086952,11.27890325],[43.49201345,11.29157615],[43.48882294,11.29811347],[43.48790967,11.30565524],[43.48104787,11.31729925],[43.4789021,11.32973874],[43.47897446,11.33087695],[43.48304641,11.35140193],[43.48818374,11.36055076],[43.49320257,11.36529815],[43.50523293,11.36821067],[43.50063646,11.36879826],[43.49967611,11.3680619],[43.49985147,11.37005115],[43.48881876,11.36845422],[43.47888982,11.36298597],[43.47478545,11.36297274],[43.46856725,11.36054742],[43.47983324,11.36239243],[43.48061764,11.36106455],[43.48254204,11.36314595],[43.48598254,11.36415994],[43.48694825,11.36595392],[43.49067891,11.36648834],[43.48047221,11.35218167],[43.47930312,11.35412264],[43.47933757,11.35751533],[43.47149956,11.35579216],[43.46920598,11.35900295],[43.46895754,11.35529876],[43.47085297,11.35057175],[43.46840322,11.34875762],[43.46021736,11.34829748],[43.45574033,11.35093486],[43.45231664,11.35045946],[43.45146811,11.35372055],[43.44762707,11.35507715],[43.44741476,11.3573333],[43.44831502,11.35815847],[43.43592131,11.36659396],[43.43344617,11.36729574],[43.42908216,11.37153161],[43.42810106,11.37659717],[43.42338061,11.38000894],[43.41695416,11.38342631],[43.41412795,11.38361907],[43.41162527,11.38231075],[43.40848422,11.38412607],[43.39851785,11.38467491],[43.39313233,11.38369274],[43.38791525,11.38577211],[43.37858081,11.39238393],[43.37227905,11.393996],[43.36335087,11.40286946],[43.35182488,11.40945601],[43.34987211,11.41386497],[43.34998846,11.42578125],[43.34979117,11.42578125],[43.34976065,11.42920566],[43.34889913,11.43234074],[43.34853411,11.43271256],[43.34718811,11.43298793],[43.34115636,11.43277192],[43.33938408,11.4315356],[43.33856416,11.43071544],[43.33906984,11.42867625],[43.33783531,11.42578125],[43.33775795,11.42578125],[43.33765721,11.42548025],[43.33453214,11.42362034],[43.33137643,11.42456186],[43.33093143,11.42578125],[43.33071864,11.42578125],[43.32924855,11.42784393],[43.32606912,11.42971623],[43.32167625,11.43621814],[43.31685305,11.44850886],[43.31521654,11.45824265],[43.31202304,11.46481514],[43.31134844,11.46192515],[43.30922985,11.45983934],[43.30032623,11.45932496],[43.29992485,11.45932591],[43.29779935,11.46048057],[43.29753816,11.46080112],[43.29595351,11.46489072],[43.29471064,11.46626055],[43.29154694,11.46818352],[43.28640556,11.46800542],[43.27825332,11.46588135],[43.27755761,11.46517575],[43.27845442,11.46410453],[43.28104424,11.46540165],[43.28369784,11.46520746],[43.27989805,11.46409762],[43.27900016,11.46264195],[43.27595067,11.46408558],[43.27316356,11.46124601],[43.26904786,11.46012986],[43.25947487,11.46068788],[43.25720024,11.46134114],[43.25285184,11.46303964],[43.24968624,11.46491694],[43.24816537,11.46637833],[43.24677277,11.46805406],[43.24563813,11.47188056],[43.24283075,11.47362006],[43.2421875,11.47433031],[43.2421875,11.47460926],[43.23944151,11.47811556],[43.239151,11.47885251],[43.23798275,11.49233747],[43.23636186,11.49516523],[43.23375332,11.49803007],[43.23186755,11.49860621],[43.22737145,11.50456846],[43.22463608,11.50511754],[43.22177422,11.50880516],[43.21701157,11.51275516],[43.21028078,11.51724505],[43.20842993,11.51767886],[43.20605254,11.51535285],[43.20511794,11.51515853],[43.20078135,11.51593447],[43.19796598,11.51526475],[43.19758344,11.51495194],[43.1970278,11.51308715],[43.20218861,11.51313472],[43.20334578,11.51076424],[43.20819116,11.51091754],[43.20943141,11.51292992],[43.21326232,11.50963414],[43.21324193,11.50933445],[43.2110852,11.50730765],[43.21067131,11.50729895],[43.20289087,11.51064765],[43.20142364,11.50999451],[43.19791806,11.5122143],[43.19684887,11.51145983],[43.19769907,11.50949645],[43.19681704,11.50871837],[43.19664264,11.51036632],[43.19506025,11.51146436],[43.19553494,11.51408386],[43.19432807,11.51542795],[43.19307494,11.51572502],[43.19313037,11.51737642],[43.19001126,11.52107215],[43.18901396,11.52272391],[43.1872313,11.52699411],[43.18722165,11.53001094],[43.18335426,11.53348744],[43.18522668,11.53353095],[43.18548906,11.53387892],[43.18543983,11.53453255],[43.1829648,11.53868067],[43.18246937,11.53951085],[43.18029583,11.54726374],[43.17737055,11.54737091],[43.17228711,11.55326498],[43.17003536,11.55390155],[43.17000544,11.5615406],[43.16843355,11.5657953],[43.16821635,11.56628478],[43.16077876,11.57534695],[43.16042078,11.57593214],[43.15787685,11.58328056],[43.15483236,11.58758187],[43.15244424,11.59391725],[43.15228736,11.594401],[43.15191364,11.59800744],[43.15200281,11.59851468],[43.15351045,11.60126054],[43.15500915,11.6015625],[43.15561676,11.60183215],[43.15654755,11.60181356],[43.1570034,11.6015625],[43.15757322,11.6015625],[43.1585505,11.60309231],[43.15604734,11.60927451],[43.15312076,11.61033106],[43.15017664,11.61344445],[43.15025616,11.61887181],[43.1515429,11.62164927],[43.15074575,11.62329876],[43.14733064,11.62154007],[43.14738357,11.61757851],[43.14531326,11.61262023],[43.14220607,11.61227083],[43.1400212,11.61321437],[43.13637865,11.61222112],[43.13019645,11.60728836],[43.13069141,11.60465825],[43.13263655,11.60539961],[43.13271701,11.60699391],[43.13455951,11.60881507],[43.13461804,11.60687423],[43.13645065,11.60670137],[43.13748455,11.60792983],[43.13831472,11.60759342],[43.13853598,11.60728514],[43.13611984,11.60448623],[43.135921,11.6015625],[43.13429904,11.6015625],[43.13378584,11.60062838],[43.13433766,11.60044587],[43.13653135,11.60019505],[43.13744771,11.60020995],[43.13773656,11.60047746],[43.13714576,11.6015625],[43.13734555,11.6015625],[43.13750231,11.60285377],[43.13856125,11.60362387],[43.13889575,11.60372961],[43.14552927,11.60443747],[43.14634561,11.60389614],[43.14674711,11.6015625],[43.14682424,11.6015625],[43.14494193,11.597718],[43.14289534,11.59677505],[43.14160633,11.59132588],[43.13843286,11.59110367],[43.13521802,11.59233666],[43.13179433,11.5881772],[43.12651765,11.58589673],[43.12385035,11.58346105],[43.12175882,11.58502853],[43.11851346,11.58405817],[43.11515522,11.58530796],[43.11401832,11.58302486],[43.11048234,11.58357024],[43.10244727,11.57791781],[43.09460401,11.58067572],[43.09129047,11.58658195],[43.08464694,11.59189582],[43.08117116,11.59186053],[43.07693815,11.59483755],[43.07524598,11.59336793],[43.07348704,11.59509075],[43.07050025,11.59591866],[43.05974972,11.59468126],[43.05946195,11.59082615],[43.06168425,11.5899384],[43.06399727,11.58619404],[43.06072235,11.58807278],[43.05275083,11.58801305],[43.0496906,11.5905503],[43.04442024,11.59260392],[43.02772737,11.59506035],[43.02173614,11.59464693],[43.01610816,11.59275198],[43.00671864,11.59326375],[43.00591445,11.59282422],[43.00702107,11.59199727],[43.00415444,11.59065521],[42.99527407,11.59226584],[42.98327351,11.59075701],[42.97614586,11.59256184],[42.97040725,11.59103477],[42.95779026,11.59480894],[42.95316756,11.59342194],[42.95056975,11.59454322],[42.94396651,11.59480584],[42.94248045,11.59480286],[42.93678117,11.59358442],[42.93565154,11.59274256],[42.93228781,11.59368956],[42.93093765,11.59265637],[42.92663121,11.59282112],[42.92291474,11.59123337],[42.91155446,11.59229016],[42.90855742,11.59035146],[42.90258181,11.59003973],[42.89848971,11.588099],[42.89768088,11.58796084],[42.89355636,11.58865404],[42.89231706,11.58839905],[42.890625,11.58733261],[42.88878572,11.58568168],[42.88493073,11.58489418],[42.88431263,11.58489454],[42.87621152,11.58779037],[42.87385941,11.58611834],[42.87132704,11.58603215],[42.86917484,11.59072375],[42.85970616,11.58777988],[42.85742056,11.59247732],[42.85572004,11.59309995],[42.85150015,11.59994733],[42.85036898,11.59678066],[42.85269654,11.59389675],[42.85281873,11.5922029],[42.85138094,11.58802664],[42.84740746,11.58694518],[42.84681475,11.58444393],[42.84255242,11.58644462],[42.83606064,11.58693314],[42.83382905,11.58959115],[42.82488644,11.58347416],[42.81980133,11.58386433],[42.81756771,11.58634424],[42.81230426,11.58518291],[42.80302262,11.58744383],[42.80031073,11.58553517],[42.79829288,11.57962334],[42.79445434,11.58055115],[42.79292607,11.57991993],[42.79175174,11.57427335],[42.78960812,11.57347751],[42.78724956,11.56991661],[42.78297317,11.56683981],[42.77743888,11.56687963],[42.77244115,11.56380296],[42.76923215,11.56411302],[42.76653326,11.56312323],[42.75311601,11.56767797],[42.74846387,11.55986917],[42.74634051,11.55835342],[42.74024546,11.55828691],[42.72964525,11.55495834],[42.72131264,11.55364776],[42.71730995,11.54918551],[42.71177781,11.54859495],[42.70932281,11.54946971],[42.70783007,11.54762113],[42.70414841,11.5463469],[42.7025454,11.54383242],[42.69535077,11.54108155],[42.69040775,11.54244232],[42.68619931,11.54865086],[42.68507731,11.54851925],[42.68026841,11.53976274],[42.67971325,11.53642416],[42.67606771,11.53638971],[42.67512035,11.53222525],[42.67022717,11.53086042],[42.66788363,11.53086877],[42.66420114,11.53344202],[42.6635735,11.53157163],[42.66128421,11.53021455],[42.65949512,11.52473605],[42.66352057,11.51887727],[42.66654491,11.51795125],[42.66499591,11.51492512],[42.66575015,11.51386285],[42.67017734,11.51057315],[42.67558563,11.51069772],[42.67841482,11.50784075],[42.68437397,11.5063256],[42.68556595,11.50449133],[42.68806875,11.50421321],[42.68988562,11.50198042],[42.69057214,11.49945617],[42.68804491,11.49615407],[42.68694091,11.49214804],[42.68724537,11.48657072],[42.68916082,11.4856106],[42.69264102,11.48671162],[42.69393492,11.48537636],[42.68708634,11.48167157],[42.68670535,11.48118114],[42.68654156,11.48024285],[42.68819451,11.47695971],[42.68756235,11.47611344],[42.68612075,11.47551823],[42.68578064,11.47551525],[42.68295491,11.47709346],[42.67856824,11.47675896],[42.67497635,11.47843611],[42.67126477,11.47719324],[42.66006601,11.47969282],[42.64923966,11.48026431],[42.63899457,11.48426533],[42.63687372,11.48030651],[42.63744617,11.47534394],[42.63290715,11.47026491],[42.63301325,11.46861458],[42.63487577,11.46858776],[42.63436055,11.46751916],[42.62740874,11.46755362],[42.62414885,11.46521842],[42.62118018,11.46509171],[42.61923051,11.46687031],[42.6154561,11.4666568],[42.61328411,11.46769702],[42.61105752,11.46609426],[42.60309422,11.46642494],[42.59855175,11.46926641],[42.59513855,11.4731971],[42.59524286,11.47433007],[42.59070075,11.47555733],[42.58826184,11.47975171],[42.58529305,11.47942483],[42.58351803,11.48033535],[42.58049893,11.48454857],[42.57499945,11.48912025],[42.57189715,11.48907995],[42.56933391,11.49035466],[42.56724405,11.49449694],[42.56100702,11.49470627],[42.55726206,11.49778163],[42.55582225,11.50150621],[42.54558015,11.51069915],[42.5390625,11.51534593],[42.53040493,11.52082467],[42.52713382,11.52193117],[42.52671015,11.52235961],[42.52464592,11.5246824],[42.52373338,11.52607465],[42.52351844,11.52853692],[42.52087855,11.53190863],[42.52031147,11.53443503],[42.52032256,11.53473401],[42.52614796,11.53749895],[42.52986705,11.54420066],[42.52514994,11.54684901],[42.52544332,11.54734898],[42.52808416,11.54791307],[42.53293145,11.5466696],[42.53350401,11.54667032],[42.53717983,11.54717934],[42.53777385,11.54777634],[42.53817487,11.54978335],[42.53763056,11.55114412],[42.53552926,11.55249584],[42.53399515,11.55109096],[42.5338037,11.55361557],[42.53146541,11.55602431],[42.53124726,11.55651116],[42.53196204,11.5599159],[42.53175998,11.56023312],[42.52570856,11.56565332],[42.52954543,11.56643426],[42.5291959,11.56994021],[42.53071487,11.57066405],[42.53093946,11.57114792],[42.5304023,11.57167757],[42.52789295,11.57247221],[42.52139127,11.57062626],[42.52025545,11.57253301],[42.51987267,11.57245755],[42.51974535,11.56921911],[42.51586223,11.57089996],[42.51576078,11.57478726],[42.51835644,11.57779145],[42.51401603,11.57997715],[42.51346207,11.58075237],[42.51392257,11.58148801],[42.51621747,11.58185697],[42.51685143,11.58158374],[42.51874554,11.57931077],[42.52151132,11.58391094],[42.52491367,11.58633995],[42.52659106,11.59149528],[42.53097165,11.58987331],[42.53271615,11.58882105],[42.5369786,11.58514464],[42.53728712,11.58519471],[42.53695524,11.58759213],[42.53322482,11.58913517],[42.53351975,11.58978713],[42.53562272,11.58875656],[42.53397131,11.59074426],[42.53550231,11.59180403],[42.5390625,11.59040165],[42.54805171,11.58596694],[42.5552783,11.58620131],[42.56380725,11.57957876],[42.57070434,11.56993604],[42.57206094,11.56961632],[42.57319045,11.57239401],[42.58282435,11.56295431],[42.58536077,11.56311131],[42.58902824,11.56472588],[42.5923562,11.56778765],[42.60332727,11.57178521],[42.60588825,11.57447302],[42.61008728,11.57117903],[42.62063146,11.56703997],[42.63248956,11.55817163],[42.63720012,11.55654967],[42.64885116,11.55654275],[42.64230144,11.56137645],[42.64366424,11.56273615],[42.63273263,11.56933451],[42.63398445,11.57164228],[42.64108014,11.56729257],[42.64789104,11.56535995],[42.64823115,11.56689966],[42.64995778,11.56610024],[42.65357387,11.56280375],[42.65534806,11.56247628],[42.65882874,11.55772817],[42.66021872,11.55816674],[42.65929663,11.56475496],[42.66619074,11.56271434],[42.67187858,11.55833936],[42.67386556,11.55740404],[42.68026173,11.55531585],[42.68216312,11.55551314],[42.68275964,11.55745554],[42.68261635,11.55795264],[42.67773795,11.56781673],[42.67728424,11.57154524],[42.67785621,11.57260442],[42.68167043,11.57290888],[42.68364251,11.57684445],[42.68366742,11.57969475],[42.68633318,11.58063591],[42.69104564,11.58692646],[42.69243622,11.59416306],[42.69107413,11.6015625],[42.69091237,11.6015625],[42.69096243,11.60727775],[42.69344795,11.61211741],[42.69350767,11.61978447],[42.69408917,11.62167025],[42.69912875,11.63462818],[42.70216191,11.64004898],[42.71100485,11.64945662],[42.71317875,11.65384698],[42.716699,11.65622377],[42.72121465,11.66339731],[42.73915327,11.67235577],[42.74209225,11.67422366],[42.74487185,11.67611873],[42.74558544,11.67701912],[42.7480545,11.68061256],[42.74824595,11.68094516],[42.75062275,11.68820846],[42.75156522,11.70438707],[42.75547338,11.7071352],[42.76209366,11.71586585],[42.77340543,11.73936474],[42.77998841,11.74688911],[42.78338516,11.74887764],[42.79317164,11.74864125],[42.79596448,11.75138676],[42.79721546,11.75014281],[42.80788136,11.7491883],[42.80833364,11.75092745],[42.81040156,11.75173736],[42.81328416,11.74975026],[42.82000816,11.75207853],[42.83014023,11.76006985],[42.83539915,11.76822758],[42.83943474,11.77223897],[42.85660994,11.77265954],[42.86384475,11.77734375],[42.86410797,11.77734375],[42.86408401,11.77747417],[42.87140274,11.78540277],[42.87669015,11.78547525],[42.87708282,11.78658032],[42.88498831,11.78255665],[42.88705885,11.78266144],[42.88848555,11.78057945],[42.88991261,11.78000116],[42.890625,11.78013384],[42.890625,11.78041291],[42.89346576,11.78029025],[42.89910746,11.78268015],[42.90441167,11.77970231],[42.90522563,11.77962041],[42.90620208,11.78001177],[42.90635693,11.78187215],[42.91032052,11.77931964],[42.9135915,11.78105235],[42.91402733,11.78116751],[42.91728938,11.78117788],[42.92352474,11.77991092],[42.92401326,11.77970815],[42.92589486,11.77783406],[42.92595208,11.77734375],[42.9275552,11.77317846],[42.93322074,11.77160883],[42.93564105,11.77292061],[42.93411195,11.77675295],[42.93567514,11.77734375],[42.93620861,11.77780116],[42.93768573,11.78163874],[42.93908978,11.78245473],[42.94017136,11.78145647],[42.93826306,11.78005147],[42.93852651,11.77734375],[42.93840337,11.77454174],[42.94021285,11.77147937],[42.94037902,11.77123773],[42.94321334,11.77015197],[42.95330214,11.77734375],[42.95363808,11.77734375],[42.95848131,11.78034663],[42.96073961,11.78284943],[42.96404243,11.79304481],[42.96704137,11.79751146],[42.97226596,11.80060852],[42.97632897,11.80461442],[42.97695744,11.80486071],[42.98094106,11.80420828],[42.98449135,11.80546522],[42.98995995,11.80475974],[42.99409366,11.80613375],[42.99948192,11.81007075],[43.00173295,11.80958104],[43.00646651,11.80441964],[43.01025832,11.80308592],[43.01105022,11.80308545],[43.01732671,11.80471694],[43.01991236,11.80718887],[43.02273774,11.80739713],[43.02702665,11.80588198],[43.03216708,11.80667114],[43.03596687,11.80888677],[43.04307055,11.80962181],[43.04776478,11.80837286],[43.04842651,11.80849862],[43.05581605,11.81086063],[43.05653441,11.81154394],[43.06041408,11.81952262],[43.06617105,11.82153296],[43.06664371,11.82676327],[43.06737554,11.82852805],[43.06917596,11.82983804],[43.07119131,11.83123565],[43.07348931,11.83534825],[43.08377886,11.83766401],[43.08753335,11.84258735],[43.09052765,11.8504889],[43.09517026,11.85657895],[43.09978998,11.85836887],[43.10425293,11.86477041],[43.10770237,11.86667013],[43.11127615,11.87072682],[43.11419535,11.87876511],[43.11908615,11.88207805],[43.12084973,11.88886666],[43.12547267,11.89151156],[43.12769747,11.89573681],[43.13173616,11.90005291],[43.13954926,11.90149355],[43.14201605,11.90920317],[43.14471185,11.91275036],[43.14675283,11.91513181],[43.16402197,11.92989826],[43.16637862,11.93345726],[43.16974533,11.93599725],[43.17399275,11.94367886],[43.17816114,11.94828248],[43.17876518,11.94883704],[43.18448496,11.95225787],[43.18801308,11.953125],[43.18943882,11.953125],[43.18943882,11.95326436],[43.18974304,11.95339465],[43.19029415,11.953125],[43.19457114,11.953125],[43.19457114,11.95326436],[43.1947993,11.95339465],[43.19497025,11.95337605],[43.19508445,11.95330155],[43.19514143,11.953125],[43.19675565,11.9532516],[43.19945955,11.95543206],[43.20162416,11.95454824],[43.20273852,11.95648134],[43.20725012,11.95597434],[43.21320307,11.95779502],[43.22005248,11.95588553],[43.22274005,11.95670354],[43.22359645,11.95600891],[43.2228266,11.95413065],[43.22579145,11.95347786],[43.22732723,11.95413935],[43.22900271,11.95782185],[43.23194242,11.95912194],[43.2421875,11.96037936],[43.24488485,11.96089137],[43.24543965,11.96007097],[43.26276612,11.96059072],[43.27025914,11.95821917],[43.27110255,11.95822382],[43.27458405,11.95918143],[43.28144515,11.95947123],[43.2903043,11.95906091],[43.29333746,11.96278012],[43.29365015,11.96285176],[43.29888487,11.96137655],[43.29440701,11.96334291],[43.29483902,11.96590543],[43.29702377,11.96824884],[43.29692936,11.97033405],[43.2991153,11.96993971],[43.30380023,11.97833085],[43.30597556,11.97900021],[43.31511331,11.97798586],[43.32708216,11.97920871],[43.33174872,11.97658634],[43.33758736,11.97525096],[43.34061396,11.97668493],[43.34544826,11.97551847],[43.36262965,11.97685134],[43.36860192,11.97938502],[43.37253463,11.98366857],[43.37454534,11.99113095],[43.37868535,12.00011873],[43.3822453,12.00372946],[43.38480473,12.00840247],[43.38791955,12.01459825],[43.39475346,12.03181064],[43.40635097,12.05397916],[43.4069612,12.05540705],[43.40991068,12.06379306],[43.41237855,12.07158792],[43.41551495,12.08866942],[43.41631913,12.09658003],[43.41751075,12.11185837],[43.41754103,12.12653446],[43.41725576,12.12890625],[43.41682732,12.12890625],[43.41476154,12.14554668],[43.41461301,12.14636111],[43.41263032,12.15271532],[43.41394353,12.16303742],[43.41069806,12.17128921],[43.40769494,12.17419255],[43.40604556,12.17964292],[43.40643466,12.18205857],[43.40985012,12.18709505],[43.40719914,12.21079874],[43.40847874,12.21479285],[43.40823567,12.21941674],[43.40215552,12.22853374],[43.39858556,12.23091125],[43.39596534,12.24322486],[43.39254272,12.24902058],[43.38763177,12.25429261],[43.38369525,12.26434708],[43.37536597,12.27039075],[43.37345791,12.27332163],[43.37182391,12.2818166],[43.37150872,12.29228175],[43.37288904,12.30117512],[43.37202585,12.3046875],[43.37213135,12.3046875],[43.37204897,12.30650938],[43.37001634,12.31132436],[43.36967134,12.31889045],[43.36676896,12.33528376],[43.36496127,12.34412026],[43.36334646,12.35119057],[43.36045194,12.35811782],[43.35635531,12.38117218],[43.35578406,12.38288295],[43.35384464,12.38706315],[43.34845352,12.39523196],[43.34527147,12.39718497],[43.33987415,12.39786792],[43.33444345,12.40587831],[43.33301008,12.41292536],[43.32986391,12.41531813],[43.32932746,12.42047203],[43.32646716,12.42651153],[43.32167077,12.45420575],[43.32361186,12.46966231],[43.32634366,12.47506225],[43.32626736,12.47534466],[43.32529235,12.47604334],[43.35533049,12.50902778],[43.38536863,12.54201221],[43.41540676,12.57499665],[43.4454449,12.60798109],[43.47548304,12.64096552],[43.50552118,12.67394996],[43.50536597,12.67674565],[43.50691235,12.67872155],[43.50815105,12.67993915],[43.51546586,12.68564987],[43.51720762,12.68663084],[43.51917934,12.68711162],[43.52188802,12.6856364],[43.52170455,12.68230474],[43.52243054,12.6813693],[43.52285814,12.68105161],[43.52561855,12.68182373],[43.53073692,12.68888557],[43.5379076,12.695701],[43.53911865,12.69763494],[43.54079044,12.69934952],[43.54315364,12.70434225],[43.54792416,12.70916414],[43.55352116,12.71752477],[43.56612456,12.73097503],[43.57041395,12.73460424],[43.57357395,12.73695135],[43.58471274,12.74295235],[43.59375,12.74693084],[43.59827924,12.74830735],[43.60131228,12.74801743],[43.61795437,12.73968446],[43.62648201,12.73740625],[43.63051188,12.73372126],[43.63695586,12.73485935],[43.63963401,12.73334861],[43.64766073,12.7319411],[43.65427935,12.72571194],[43.66338646,12.72519696],[43.67018855,12.72625387],[43.67908525,12.72356582],[43.68285632,12.72433031],[43.68652463,12.72430158],[43.68870735,12.72362304],[43.69079351,12.7226392],[43.69629252,12.71724331],[43.69952404,12.71666062],[43.70435321,12.71394944],[43.72088313,12.71230495],[43.73675442,12.707165],[43.74178326,12.70454955],[43.74533093,12.70425963],[43.74801385,12.70135951],[43.75016654,12.7008661],[43.75324786,12.69654655],[43.75767851,12.69515884],[43.76042736,12.69248784],[43.76380992,12.69360805],[43.7680881,12.69316733],[43.77128887,12.68919635],[43.78777683,12.69217396],[43.79842985,12.68992627],[43.80333686,12.6856606],[43.81069732,12.68236077],[43.81408155,12.67949343],[43.81740761,12.67775726],[43.82170141,12.67714596],[43.82418644,12.67373598],[43.82698655,12.67379856],[43.83497071,12.67062545],[43.83737004,12.66686296],[43.84022224,12.66503084],[43.84455502,12.66424942],[43.84869742,12.65941656],[43.84909546,12.65922165],[43.85507262,12.65980434],[43.85569847,12.65968847],[43.86261988,12.65819335],[43.86464465,12.65625],[43.87036586,12.65625],[43.87059474,12.65651965],[43.8707664,12.65650106],[43.87093794,12.65625],[43.87185585,12.65625],[43.87878692,12.65527546],[43.88662314,12.65009904],[43.89369976,12.64924431],[43.90277672,12.6446954],[43.90589523,12.64460146],[43.9079107,12.64393354],[43.90999067,12.64252925],[43.91253102,12.63974941],[43.91415036,12.63652754],[43.91555655,12.63034666],[43.91606462,12.62407756],[43.9160732,12.62005281],[43.91508925,12.61058044],[43.91517746,12.60941315],[43.91693771,12.60556841],[43.92058921,12.60270965],[43.92334056,12.60212076],[43.92768097,12.59765291],[43.93953824,12.59668565],[43.9453125,12.59347093],[43.94942677,12.59350121],[43.95449984,12.59591341],[43.96116126,12.59387946],[43.97204685,12.5943613],[43.98928845,12.60315692],[43.99599564,12.60190415],[44.00358725,12.60288394],[44.00865305,12.60107744],[44.01592362,12.60428524],[44.02972114,12.60382414],[44.03676665,12.60568237],[44.04549491,12.60275662],[44.04741287,12.60298097],[44.05947304,12.60986626],[44.06547844,12.61105692],[44.0741657,12.61712944],[44.0769428,12.61827397],[44.08038294,12.6176275],[44.09635544,12.62353325],[44.1166805,12.63718295],[44.12291825,12.64009595],[44.12664294,12.64394486],[44.13281417,12.64718294],[44.14325631,12.64962053],[44.14924145,12.65248311],[44.15027368,12.65490353],[44.15253425,12.65625],[44.15474081,12.65570211],[44.15627325,12.65350234],[44.16674221,12.64962053],[44.17355144,12.64735091],[44.17549181,12.6481359],[44.17669785,12.64598846],[44.18335426,12.64624333],[44.18580031,12.64128828],[44.18951142,12.63920045],[44.19023085,12.63767242],[44.18961394,12.62235045],[44.18260515,12.61944962],[44.17015708,12.61687696],[44.1663897,12.61732781],[44.16414714,12.62008452],[44.16170168,12.61964154],[44.16010225,12.62135637],[44.15809035,12.62145901],[44.15644526,12.62405026],[44.15324605,12.62313867],[44.14353085,12.62391341],[44.14001656,12.62601626],[44.13621545,12.63071251],[44.13451397,12.63021994],[44.1345551,12.62912631],[44.14239132,12.62326455],[44.15439153,12.62190127],[44.16620088,12.61593664],[44.18837786,12.61852765],[44.18981433,12.61588383],[44.19506454,12.62116456],[44.19870472,12.62226737],[44.20946395,12.62899888],[44.22359037,12.63389897],[44.23120904,12.63389897],[44.23742068,12.63240194],[44.24036944,12.62920964],[44.24351442,12.62917805],[44.25388122,12.62475085],[44.25640905,12.62475121],[44.25719821,12.62505674],[44.26732552,12.63027275],[44.27700031,12.63110983],[44.28171134,12.62895918],[44.28228807,12.62881696],[44.28562605,12.62894285],[44.28775835,12.62930405],[44.28863478,12.62961757],[44.296875,12.63504457],[44.296875,12.63532364],[44.30236805,12.63853562],[44.30503738,12.63984585],[44.30840445,12.6403743],[44.32212484,12.64894402],[44.33631861,12.65625],[44.33692265,12.65625],[44.35251248,12.66495645],[44.36229098,12.66933417],[44.36517286,12.67041302],[44.39154863,12.67851377],[44.40325963,12.68105245],[44.40826321,12.68105304],[44.4128015,12.67900741],[44.41324174,12.67869425],[44.41633475,12.67490697],[44.41654158,12.67447364],[44.41642976,12.67190397],[44.4148339,12.66995156],[44.4191488,12.66979575],[44.43568861,12.69168735],[44.44760716,12.71007252],[44.45096695,12.71301162],[44.45849645,12.72363281],[44.48176742,12.75132346],[44.48595774,12.7557199],[44.50297821,12.77260041],[44.51705086,12.78460062],[44.52489305,12.79055655],[44.52664316,12.79171002],[44.54671144,12.80325413],[44.55533957,12.80698931],[44.56534171,12.81061804],[44.58021486,12.81464112],[44.59334862,12.81646764],[44.59391403,12.81652784],[44.61682856,12.81661832],[44.63014257,12.81526065],[44.63834023,12.81384265],[44.6484375,12.81166291],[44.67026985,12.80630386],[44.67374217,12.80502272],[44.69069612,12.79696131],[44.704952,12.78754735],[44.72088695,12.77090394],[44.72469413,12.76527548],[44.72621441,12.76155758],[44.72758865,12.75681412],[44.72709715,12.75305343],[44.72185194,12.75043583],[44.72074938,12.7483654],[44.71701872,12.74909425],[44.71651316,12.74822223],[44.72069061,12.74543536],[44.72112715,12.74176574],[44.72348726,12.73833156],[44.72812664,12.74140215],[44.73061943,12.7447772],[44.73726213,12.74859035],[44.73711205,12.74974096],[44.73500848,12.75013351],[44.73523581,12.75305855],[44.73807442,12.75134075],[44.73969364,12.75257361],[44.73954725,12.75541353],[44.74366415,12.75739264],[44.74559152,12.76028895],[44.75036955,12.76359546],[44.77090764,12.77127945],[44.7830826,12.77308166],[44.79527521,12.77259338],[44.80904806,12.76946056],[44.81494462,12.7670145],[44.82277656,12.76173592],[44.82761097,12.75599575],[44.82552922,12.7537353],[44.82704747,12.74895406],[44.82271767,12.74704361],[44.82138002,12.74358487],[44.82234097,12.73703706],[44.82544291,12.73677504],[44.82624686,12.73380923],[44.83213687,12.73459744],[44.83787346,12.73232293],[44.84078026,12.72845316],[44.84050095,12.72470736],[44.84074533,12.72444057],[44.84336495,12.72301054],[44.84627044,12.72392833],[44.847386,12.72727633],[44.85108721,12.72930825],[44.85431623,12.72864664],[44.85686743,12.72985864],[44.85882306,12.72779632],[44.86064446,12.72923005],[44.86398601,12.72932494],[44.86628616,12.73116815],[44.87146485,12.73038244],[44.87347436,12.72698677],[44.87359321,12.7244935],[44.87453437,12.72401476],[44.87479544,12.72410965],[44.87574756,12.72837162],[44.8747704,12.73221326],[44.87706566,12.73588908],[44.87765324,12.73606801],[44.87860978,12.73617637],[44.88236618,12.73573804],[44.88665557,12.73397875],[44.88716292,12.73370266],[44.89259493,12.72833025],[44.89129424,12.73561633],[44.88802934,12.73663676],[44.88622856,12.74047744],[44.88768816,12.74518967],[44.88979936,12.74580061],[44.88990414,12.74797082],[44.89565396,12.75126255],[44.89956617,12.75130296],[44.90073085,12.75040603],[44.90110815,12.74490094],[44.90119827,12.74456882],[44.90249646,12.743227],[44.90282953,12.74303401],[44.90690041,12.74179804],[44.90827835,12.7451632],[44.91005862,12.74514306],[44.91337216,12.74130344],[44.91365981,12.74593771],[44.91728592,12.74503946],[44.91764343,12.7475419],[44.91268921,12.75545835],[44.91366482,12.75773704],[44.92080784,12.76279712],[44.92237461,12.76518667],[44.91750514,12.76461554],[44.91664982,12.76596713],[44.91319335,12.76493955],[44.91094232,12.76750445],[44.90763235,12.76681244],[44.89485955,12.76778507],[44.88549352,12.76677251],[44.88278115,12.7674998],[44.88092673,12.76937306],[44.87776172,12.76852512],[44.87558591,12.76960266],[44.8738507,12.77352798],[44.86861777,12.77643692],[44.86125052,12.77379334],[44.85830212,12.7769798],[44.85706067,12.77706337],[44.85143077,12.77474105],[44.84983146,12.77228665],[44.84185445,12.77389336],[44.84067416,12.7771877],[44.84204686,12.780864],[44.85142815,12.79785407],[44.85186291,12.79808962],[44.85817015,12.79884255],[44.85957742,12.80125356],[44.86085916,12.80155528],[44.87311065,12.79724085],[44.88200235,12.79669654],[44.88147604,12.79259002],[44.87740254,12.79102075],[44.87782931,12.78704524],[44.87685835,12.78342485],[44.87996864,12.77782881],[44.88489914,12.7731353],[44.88998675,12.77299786],[44.89453852,12.78251767],[44.89444542,12.78641176],[44.89701664,12.79375064],[44.90080166,12.80087471],[44.90476275,12.80705452],[44.90978014,12.81263351],[44.91638184,12.81872737],[44.91823018,12.82001495],[44.92227936,12.82164574],[44.92412782,12.81898487],[44.92430377,12.82130241],[44.93072867,12.82396305],[44.94743121,12.82679546],[44.95000613,12.82696724],[44.95966732,12.82709587],[44.97260773,12.82529354],[44.97546864,12.82578695],[44.98312676,12.8230834],[44.97848356,12.82726765],[44.97969377,12.82722473],[44.98845363,12.8243494],[44.9891299,12.83203125],[44.98892283,12.83517778],[44.99012577,12.83855426],[44.98903465,12.83939385],[44.98886788,12.84414518],[44.99047422,12.8475368],[44.99067676,12.84783673],[44.99251342,12.84861934],[44.99296224,12.85067344],[44.99494743,12.85176122],[44.99558437,12.85175848],[44.99887395,12.85054052],[45,12.84877217],[45.00642896,12.84715414],[45.00684845,12.84695411],[45.00983584,12.84460485],[45.01552653,12.84478128],[45.01816475,12.84382451],[45.02402675,12.83913374],[45.02429092,12.83861876],[45.02462101,12.83781397],[45.02402627,12.83713174],[45.02293742,12.83720255],[45.02172053,12.83879733],[45.01837516,12.83979142],[45.01758492,12.83966315],[45.01094317,12.83639777],[45.01506484,12.8325001],[45.01669884,12.83250475],[45.01731002,12.83418405],[45.01802135,12.83203125],[45.01820147,12.83199811],[45.01844502,12.83088064],[45.01795971,12.82889545],[45.01169145,12.82689083],[45.01187301,12.82560718],[45.01069295,12.82494354],[45.01396096,12.82516468],[45.01433921,12.82396984],[45.01789725,12.82383442],[45.01989496,12.82459748],[45.02157736,12.82394171],[45.02195728,12.82343626],[45.02444673,12.81444931],[45.02206206,12.81266701],[45.02624691,12.80552554],[45.02612758,12.80511153],[45.02376926,12.80055392],[45.02228367,12.80042064],[45.02142096,12.79579055],[45.02118087,12.79537416],[45.01799703,12.79412854],[45.01553035,12.7939887],[45.01507616,12.79412925],[45.0059216,12.79977608],[45.00366044,12.79717815],[45.00151265,12.79848278],[45,12.796875],[44.99900246,12.79565406],[44.99849355,12.79553282],[44.99511504,12.79585314],[44.99283803,12.79335105],[44.98896647,12.79393256],[44.98502386,12.7915591],[44.98271263,12.79177642],[44.97872508,12.78970218],[44.9742012,12.78932524],[44.9734292,12.78887486],[44.97241342,12.78699255],[44.97233081,12.78553045],[44.97363853,12.78192604],[44.96985316,12.77846384],[44.97434366,12.77607775],[44.97930765,12.77715146],[44.97962821,12.77485955],[44.98327672,12.77321923],[44.98552501,12.77476466],[44.98750877,12.77396274],[44.98790085,12.77241015],[44.98629606,12.77014196],[44.98880231,12.7688117],[44.9890753,12.76728177],[44.98866224,12.76590514],[44.98554504,12.76466835],[44.98631775,12.76272655],[44.98837554,12.76272738],[44.98868537,12.76286256],[44.98990095,12.7647686],[44.99129915,12.76561606],[44.99324644,12.76610303],[44.99401236,12.76603556],[44.99498272,12.76562953],[44.99459958,12.76412571],[44.99670815,12.76246583],[44.99946213,12.76159835],[44.99896514,12.75905275],[45,12.75613844],[45.00378156,12.75828385],[45.00655115,12.75705636],[45.00906396,12.7542994],[45.01444566,12.75312495],[45.01653492,12.7546699],[45.0195477,12.75465941],[45.02302146,12.75284052],[45.02521253,12.7537204],[45.02692604,12.75181782],[45.02743733,12.74888146],[45.03110504,12.7527523],[45.03431451,12.75356185],[45.03619635,12.75230885],[45.03720701,12.75511944],[45.04066944,12.75703466],[45.03837705,12.76099944],[45.0418545,12.76397085],[45.04333818,12.76685464],[45.05047643,12.76568246],[45.05316257,12.76304674],[45.05380785,12.76074374],[45.05424762,12.76075351],[45.05452454,12.76137674],[45.05518425,12.76706696],[45.04722881,12.76908386],[45.04613388,12.77161205],[45.04826021,12.77593422],[45.05174327,12.77913725],[45.05183232,12.78222954],[45.04932046,12.7822417],[45.04885161,12.78198576],[45.04734516,12.77936375],[45.04676116,12.77913022],[45.04515302,12.77938116],[45.04461431,12.77972341],[45.04067814,12.78913712],[45.04007876,12.79180372],[45.04007661,12.79496336],[45.04191232,12.80342233],[45.04175115,12.80752933],[45.04812348,12.83194542],[45.05789626,12.86061275],[45.06379485,12.87477493],[45.06661224,12.8811264],[45.08587432,12.91839278],[45.08603144,12.91868532],[45.08957183,12.92422926],[45.09105921,12.92496085],[45.09183121,12.92813158],[45.09903455,12.94041562],[45.1020714,12.94599307],[45.10576785,12.95171988],[45.11133695,12.95783532],[45.11244965,12.96112311],[45.13834846,12.98462164],[45.16754866,13.00126481],[45.18336165,13.0078125],[45.18379736,13.0078125],[45.18374801,13.00795555],[45.20028114,13.01503742],[45.21849513,13.01968801],[45.23149347,13.02506256],[45.25339979,13.0310117],[45.27530611,13.03696084],[45.29774725,13.04178572],[45.30833292,13.04344702],[45.35113311,13.04882813],[45.3515625,13.04910707],[45.35564232,13.05158865],[45.3680011,13.05471754],[45.37114823,13.05626643],[45.37284291,13.05856943],[45.37399292,13.05850136],[45.37352681,13.057024],[45.37480164,13.05569744],[45.37690365,13.05556965],[45.38136435,13.0589962],[45.38377953,13.05858874],[45.3846904,13.06082392],[45.38647068,13.06070304],[45.38714361,13.06396568],[45.38852906,13.06443214],[45.39011884,13.06319273],[45.39325321,13.06804681],[45.39598405,13.06923783],[45.39835382,13.07204986],[45.40259874,13.07367754],[45.42581856,13.1017369],[45.45144784,13.12626541],[45.4539988,13.13157237],[45.45297587,13.13480246],[45.45400536,13.13611925],[45.45364523,13.13866687],[45.45594478,13.13705564],[45.46087754,13.13821435],[45.47507244,13.16090405],[45.48926735,13.18359375],[45.48937953,13.18359375],[45.50489044,13.20606315],[45.51583087,13.22062314],[45.52215695,13.22817826],[45.54488301,13.25249124],[45.54927361,13.25705731],[45.57103825,13.27796161],[45.59413195,13.29746276],[45.61722565,13.31696391],[45.63304961,13.33333254],[45.65045393,13.34528875],[45.65852547,13.34957993],[45.66639841,13.35223675],[45.67581904,13.35460222],[45.68006003,13.35491073],[45.703125,13.35463154],[45.70545316,13.35466111],[45.71042991,13.35566604],[45.72572982,13.35951805],[45.73329425,13.36231041],[45.73430645,13.36277437],[45.73971546,13.36706233],[45.74361992,13.36643374],[45.74838901,13.36829627],[45.76429093,13.36991405],[45.77378035,13.37414932],[45.77948856,13.37411916],[45.78493762,13.37708342],[45.79682553,13.37996817],[45.80309761,13.38303244],[45.8144561,13.38312101],[45.83008242,13.38752663],[45.83665895,13.38763726],[45.84836674,13.39226925],[45.8518095,13.39233124],[45.86533356,13.39821577],[45.87224197,13.39556193],[45.87749136,13.39723516],[45.88360977,13.39516056],[45.90001011,13.39697564],[45.90795743,13.39649141],[45.91804826,13.40175915],[45.93874431,13.40677845],[45.96637166,13.40737343],[45.99263835,13.41626525],[46.00919867,13.41747117],[46.01852047,13.41991472],[46.04106104,13.41984987],[46.0546875,13.41741073],[46.07481682,13.41350997],[46.07774675,13.41454518],[46.08476448,13.41413474],[46.09196508,13.41691947],[46.0984776,13.41553736],[46.10258031,13.41748261],[46.11960864,13.41779554],[46.13110793,13.42131686],[46.14694035,13.42152393],[46.15500236,13.41967225],[46.15806365,13.4197098],[46.15891838,13.41980577],[46.18145335,13.42549503],[46.18457651,13.42536795],[46.18596625,13.42421651],[46.19567633,13.42630982],[46.20642424,13.42613232],[46.21867704,13.43046677],[46.22646177,13.43205786],[46.23179758,13.43179035],[46.24879706,13.43384445],[46.2583636,13.43300498],[46.26417792,13.43111193],[46.27431893,13.43186617],[46.28589118,13.42782223],[46.28906906,13.42763412],[46.29081285,13.42598832],[46.29349923,13.42601442],[46.29719472,13.42308891],[46.30115128,13.42513216],[46.31933737,13.42361593],[46.33414113,13.41984582],[46.33887124,13.41958678],[46.34171224,13.41737854],[46.34983921,13.41741455],[46.3518095,13.41409492],[46.36996651,13.41514814],[46.37314415,13.41284716],[46.37314224,13.41067314],[46.37714386,13.41459024],[46.38314307,13.41476572],[46.39051914,13.41738677],[46.39133561,13.41749275],[46.39936662,13.41818631],[46.40625,13.41796875],[46.41954124,13.41738105],[46.42949796,13.41567457],[46.43051863,13.41531515],[46.43148267,13.41474783],[46.43280184,13.41136742],[46.43766928,13.41012692],[46.44444931,13.40603495],[46.44825447,13.40911114],[46.44862294,13.40926945],[46.45412076,13.41093576],[46.45847905,13.41176331],[46.47523546,13.41475427],[46.48092926,13.41538775],[46.49217486,13.41597724],[46.50523245,13.41546464],[46.52799737,13.4204849],[46.52988255,13.41942358],[46.53342712,13.42128825],[46.53660345,13.42139733],[46.55286491,13.42695475],[46.55540764,13.42758608],[46.58189654,13.43241048],[46.59760737,13.43660772],[46.59887421,13.43686032],[46.60818636,13.43797135],[46.62503755,13.43856716],[46.62538254,13.43855107],[46.64697432,13.43601334],[46.65234828,13.43504596],[46.66459262,13.43213856],[46.68087983,13.4256649],[46.68795264,13.42474174],[46.69646227,13.42692876],[46.71838427,13.43914461],[46.71952116,13.43966401],[46.74182904,13.44872236],[46.7578125,13.45479906],[46.79157877,13.46750903],[46.82534504,13.48021901],[46.82705176,13.48108184],[46.84603214,13.49229574],[46.86953974,13.50905758],[46.89304733,13.52581942],[46.91094005,13.53515625],[46.91180944,13.53529906],[46.92357385,13.53958881],[46.93533993,13.54177845],[46.95209801,13.54658973],[46.96400917,13.54847348],[46.96712494,13.54799306],[46.96894407,13.54963505],[46.97690356,13.55210423],[46.97844446,13.55171967],[46.98839092,13.55488193],[46.99842882,13.55535161],[47.02055871,13.56004631],[47.04702687,13.56749284],[47.06962693,13.56866825],[47.07829463,13.57037926],[47.109375,13.58231032],[47.11697733,13.58507085],[47.12042415,13.5859375],[47.12883723,13.58753085],[47.13049936,13.58678186],[47.13236034,13.58841908],[47.14266396,13.59018958],[47.16275513,13.59619296],[47.16931474,13.59762681],[47.18208516,13.59951901],[47.19641447,13.60047591],[47.20461023,13.60264897],[47.21567833,13.60313845],[47.22332501,13.60683417],[47.23327672,13.60875273],[47.23753905,13.61132097],[47.26839352,13.62032247],[47.29924798,13.62932396],[47.32332575,13.640625],[47.32701075,13.64050138],[47.33593845,13.64333928],[47.33959055,13.64264715],[47.34013641,13.64269805],[47.34103513,13.64379227],[47.34753406,13.64478087],[47.35658574,13.64456117],[47.37350261,13.64704955],[47.37924755,13.64864457],[47.39202642,13.65408254],[47.39592087,13.6565783],[47.40290356,13.66404545],[47.40345442,13.66443801],[47.41636622,13.67115438],[47.41749322,13.67296207],[47.43040347,13.68086266],[47.45769143,13.70041704],[47.4609375,13.703125],[47.4609375,13.70340395],[47.46868622,13.7109375],[47.46897984,13.7109375],[47.4782207,13.72026145],[47.50382197,13.74238408],[47.50784445,13.74444747],[47.51434624,13.75200546],[47.52168536,13.75753343],[47.53322577,13.76866686],[47.54116786,13.77291024],[47.54869723,13.78202724],[47.56560361,13.79766071],[47.57288837,13.80228066],[47.57971072,13.80932474],[47.59268343,13.81540275],[47.59820032,13.82101083],[47.60601616,13.83496094],[47.61086845,13.83942521],[47.61478984,13.84511554],[47.62226772,13.85140002],[47.62373614,13.85505414],[47.63532805,13.86444676],[47.64205802,13.8715471],[47.64688027,13.87427437],[47.65205693,13.8731873],[47.65437961,13.8772763],[47.65879464,13.87963665],[47.66745174,13.88671875],[47.66762066,13.88671875],[47.67715132,13.89488685],[47.69966972,13.90854645],[47.70604003,13.91032886],[47.70763338,13.91246426],[47.73026586,13.91845965],[47.74024427,13.91998863],[47.76315975,13.92237318],[47.77469897,13.92190444],[47.78239214,13.92603076],[47.79797447,13.93115854],[47.80515981,13.93222916],[47.80911505,13.93400204],[47.80952775,13.93426204],[47.81235623,13.93694186],[47.8125,13.93694186],[47.8125,13.93722093],[47.83042705,13.95355797],[47.84239066,13.96089756],[47.8557322,13.97176015],[47.8709501,13.98134124],[47.87498283,13.98570216],[47.88171875,13.99034631],[47.88985741,13.99883735],[47.89233637,13.99962986],[47.89229333,14.00079727],[47.89582884,14.00324905],[47.90441656,14.01255655],[47.91445887,14.02064812],[47.91808796,14.02335608],[47.92839885,14.03021312],[47.93881905,14.03604805],[47.95497096,14.04372084],[47.96785855,14.04796183],[47.99563456,14.05405045],[48.01305616,14.05527782],[48.02345395,14.05516565],[48.03341234,14.05440843],[48.04545355,14.05270493],[48.06006515,14.04960728],[48.0779016,14.04401743],[48.09837258,14.0364902],[48.10065484,14.03652167],[48.12422264,14.02616203],[48.12601995,14.02636755],[48.13322091,14.02304184],[48.13966465,14.01797342],[48.15687585,14.00815785],[48.1640625,14.00334823],[48.17219937,13.99745607],[48.17745864,13.99293005],[48.17764735,13.99264193],[48.17831421,13.99039114],[48.17684841,13.98685241],[48.17677963,13.98640001],[48.17754674,13.98175192],[48.17658293,13.97932196],[48.17664301,13.97854006],[48.17780352,13.9761734],[48.17503488,13.97159433],[48.18428576,13.96812165],[48.18752754,13.97472763],[48.20297623,13.97273517],[48.21341455,13.97491145],[48.21768034,13.98050046],[48.22086644,13.98796332],[48.22255301,13.98851097],[48.22564662,13.98846936],[48.22974694,13.98493302],[48.23436618,13.98482156],[48.23660886,13.98366046],[48.24155974,13.98512924],[48.24628866,13.98445106],[48.24729395,13.98368466],[48.24592257,13.98116791],[48.24746394,13.97851801],[48.25333142,13.97611105],[48.25812185,13.98017454],[48.25467718,13.98584688],[48.25613284,13.98934984],[48.26470804,13.98779595],[48.2722944,13.988783],[48.27348244,13.99214852],[48.27804661,13.9936918],[48.2792294,13.99514866],[48.28059995,13.99496615],[48.28467357,13.98886967],[48.28699875,13.98792148],[48.28804147,13.98486114],[48.29422796,13.98468316],[48.29722893,13.98899055],[48.29781401,13.99114466],[48.29661226,13.99327505],[48.29732704,13.99423957],[48.30739164,13.9982959],[48.31338167,13.99814844],[48.31804812,14.00416446],[48.32078958,14.00538135],[48.32334065,14.00499392],[48.32486486,14.00330997],[48.32897222,14.00451148],[48.32759631,14.01041043],[48.32302523,14.01252151],[48.32260752,14.01523352],[48.32806206,14.02195942],[48.33413327,14.02482545],[48.34112585,14.02395284],[48.34344602,14.02205145],[48.34600127,14.02225328],[48.34926045,14.02076304],[48.35448134,14.01627624],[48.35386765,14.01410878],[48.35479605,14.01328874],[48.35938895,14.01398075],[48.36048675,14.01802325],[48.36370993,14.01567793],[48.37484884,14.01812994],[48.38151574,14.01387632],[48.38646865,14.01231217],[48.38985515,14.01509297],[48.3934499,14.01530647],[48.40104341,14.02158391],[48.40829694,14.01959753],[48.41094983,14.02020526],[48.41429555,14.01925206],[48.41550851,14.01338685],[48.42067456,14.01701307],[48.42461765,14.0170263],[48.42701125,14.01366484],[48.42787361,14.01694465],[48.42628872,14.02128541],[48.42671955,14.02306902],[48.42915165,14.02491856],[48.43351662,14.02505696],[48.43865693,14.02202702],[48.43982041,14.01921296],[48.44479895,14.01834965],[48.44978404,14.01435328],[48.44900203,14.00294602],[48.45082414,13.99794924],[48.45825088,13.99517608],[48.45866406,13.99518442],[48.46110153,13.99668002],[48.4631108,14.0001502],[48.46830571,14.00489986],[48.47295344,14.00747466],[48.47697222,14.00790918],[48.48531961,14.00365746],[48.48789322,14.00361967],[48.49027812,14.00494361],[48.49763262,14.01273751],[48.50478542,14.0170474],[48.50942266,14.02304006],[48.50971055,14.02327287],[48.515625,14.02734375],[48.515625,14.02762282],[48.52012575,14.03092992],[48.52386224,14.03316593],[48.53163564,14.03707325],[48.53792536,14.03940785],[48.54654324,14.04238057],[48.55144536,14.04274762],[48.55929136,14.04513538],[48.5690968,14.04656661],[48.57811785,14.04711914],[48.60746825,14.04799104],[48.6290977,14.04578877],[48.66780806,14.04443574],[48.67234206,14.04530466],[48.67477608,14.04688835],[48.67997587,14.04560626],[48.68180716,14.05338085],[48.68271995,14.04804504],[48.68473303,14.04643345],[48.68599474,14.04648352],[48.69617677,14.05015206],[48.6967622,14.05051994],[48.69933975,14.05339336],[48.71005893,14.0600363],[48.71080971,14.0625],[48.71125722,14.0625],[48.71122122,14.06295037],[48.71828854,14.06746745],[48.72056091,14.07107604],[48.72949338,14.07900548],[48.73058057,14.08171237],[48.73213828,14.08183885],[48.73242044,14.08212292],[48.73424804,14.08431566],[48.73457992,14.08628154],[48.73518944,14.0872364],[48.73913658,14.09119403],[48.74545336,14.10284674],[48.74573195,14.10326076],[48.75045335,14.10809255],[48.75478387,14.11522877],[48.76409435,14.11944914],[48.77155566,14.12859535],[48.77757382,14.13165522],[48.78161752,14.13212454],[48.78690875,14.13459826],[48.79448664,14.13485682],[48.80454612,14.14996362],[48.811764,14.15863371],[48.81524873,14.16064215],[48.81807744,14.15878224],[48.82529032,14.16444707],[48.82873285,14.16521835],[48.8293277,14.16579545],[48.82954395,14.16798615],[48.83448303,14.17311025],[48.83771455,14.17936921],[48.84284484,14.18310297],[48.84593701,14.18898404],[48.85026693,14.19351387],[48.85140645,14.19876301],[48.85535276,14.20216966],[48.85672295,14.20559382],[48.86197901,14.20718145],[48.86338127,14.21078134],[48.86276042,14.21287525],[48.86663902,14.21535528],[48.86259174,14.22700155],[48.86373508,14.23828125],[48.86370146,14.23840904],[48.86704338,14.24302447],[48.86783266,14.24431694],[48.86871946,14.24464262],[48.86999547,14.24451804],[48.87187696,14.24310005],[48.87599218,14.24856222],[48.88345361,14.25028884],[48.88635993,14.25289536],[48.89036322,14.25194752],[48.89371336,14.25487316],[48.89730525,14.25568807],[48.90112245,14.2597481],[48.90201521,14.26008904],[48.90612864,14.25935352],[48.90732098,14.25707805],[48.90888453,14.25661016],[48.90928686,14.25673401],[48.91035831,14.25734055],[48.91126013,14.26151037],[48.91823077,14.26318276],[48.91967666,14.26644087],[48.92416584,14.27023733],[48.92798054,14.28445077],[48.93160546,14.29027164],[48.93426788,14.29219401],[48.93299127,14.29660845],[48.93672895,14.2979151],[48.93777335,14.29979825],[48.94211412,14.30058074],[48.94389915,14.30483341],[48.94656324,14.30515122],[48.94901216,14.30813074],[48.95872617,14.30990541],[48.96336055,14.30752337],[48.96789277,14.30878556],[48.97186542,14.31158936],[48.97521555,14.31003785],[48.98046327,14.31075156],[48.98753023,14.31601965],[48.99016285,14.32077003],[48.99384427,14.32217062],[48.99637902,14.32692492],[48.99526727,14.33494186],[48.99868596,14.33665812],[48.99664545,14.33763516],[48.9951781,14.33998394],[48.99385023,14.34551132],[48.99076664,14.34790576],[48.98284554,14.35052764],[48.98267782,14.35919523],[48.98455703,14.36465943],[48.98779595,14.36596108],[48.98869646,14.36757314],[48.98920536,14.37375271],[48.98787916,14.37621486],[48.98795354,14.37694407],[48.98824501,14.37772596],[48.99175215,14.38518953],[48.99368882,14.38649797],[48.9961127,14.39128494],[49.0003885,14.40064383],[49.00069976,14.40378714],[49.00596964,14.4140625],[49.00608337,14.4140625],[49.00715268,14.41653466],[49.00974333,14.41849697],[49.01349425,14.41954684],[49.01371014,14.41977596],[49.01436162,14.42117465],[49.01445293,14.42216444],[49.01226163,14.42291904],[49.01521075,14.42345095],[49.01422691,14.42865467],[49.01422703,14.4293226],[49.01494873,14.431481],[49.01536167,14.43233132],[49.02259874,14.44411433],[49.02672851,14.44974852],[49.04375088,14.47082847],[49.06077325,14.49190843],[49.06371665,14.49511707],[49.07765257,14.50729001],[49.08120835,14.51169455],[49.08408356,14.51419175],[49.09878051,14.52507496],[49.10364521,14.52769434],[49.11252582,14.53134525],[49.11324036,14.5314424],[49.12083316,14.52999425],[49.12524104,14.53089845],[49.13428521,14.52919734],[49.13500357,14.52895916],[49.13539791,14.52861452],[49.13617623,14.52527404],[49.13819814,14.52376211],[49.14011097,14.52658975],[49.14334953,14.52779365],[49.14848697,14.52581227],[49.14836144,14.52352345],[49.14974427,14.52389884],[49.15037704,14.52214062],[49.14816356,14.52123344],[49.1481812,14.52013493],[49.14945543,14.51888478],[49.15394485,14.51837575],[49.15451992,14.51486135],[49.15722883,14.51112366],[49.16123843,14.51126325],[49.16976464,14.50823545],[49.17171657,14.51217175],[49.16944766,14.51537597],[49.17160392,14.51800811],[49.16784632,14.51963735],[49.16708446,14.52091086],[49.16702294,14.52137792],[49.16835141,14.5309],[49.16896296,14.53321993],[49.17262423,14.5418992],[49.17946148,14.54850745],[49.21831775,14.56863844],[49.21875,14.56863844],[49.21875,14.56891727],[49.25073636,14.58984375],[49.25131154,14.58998585],[49.28591216,14.60934663],[49.31089544,14.62273908],[49.34874892,14.64179027],[49.35532105,14.64459825],[49.37002432,14.65008211],[49.40255117,14.65938616],[49.41907573,14.66520715],[49.44329441,14.67800617],[49.46781278,14.68727815],[49.48341763,14.69186068],[49.48505664,14.69137001],[49.48609054,14.68916404],[49.48861122,14.68875265],[49.4894464,14.69021916],[49.48858857,14.69414628],[49.49300456,14.69323087],[49.49546194,14.69778526],[49.50882256,14.70475376],[49.52596033,14.71582496],[49.54102421,14.72200453],[49.56007648,14.73376143],[49.56843793,14.73716521],[49.5703125,14.73716521],[49.57098722,14.73714995],[49.57621253,14.74017692],[49.59203613,14.74686384],[49.62500715,14.75802445],[49.63257313,14.76025188],[49.63505638,14.75913262],[49.64693546,14.76360381],[49.6489557,14.76420045],[49.65293205,14.76425946],[49.65705633,14.76574564],[49.67151737,14.77005982],[49.69515824,14.77564013],[49.69932616,14.77546263],[49.70764422,14.77787232],[49.71280062,14.77741504],[49.72507346,14.78044498],[49.72989404,14.77992737],[49.74507606,14.78267455],[49.77161795,14.79058695],[49.79815984,14.79849935],[49.82197654,14.80862534],[49.83135545,14.80834484],[49.84102714,14.81246817],[49.85110712,14.81382096],[49.86833882,14.82317424],[49.88565075,14.83038664],[49.89831901,14.83698893],[49.91653037,14.84281623],[49.921875,14.84542406],[49.93450081,14.85015953],[49.94141364,14.85031307],[49.95208502,14.84567344],[49.95635807,14.84759104],[49.96227574,14.84618664],[49.97036171,14.84926343],[49.98232186,14.85103405],[49.98594701,14.85254157],[49.98903561,14.85136271],[49.99646902,14.85279596],[49.99767852,14.85280013],[50.00753212,14.85175133],[50.00924134,14.85120225],[50.01217496,14.84911203],[50.01738274,14.84180367],[50.01855385,14.83980083],[50.01879907,14.83734047],[50.02340722,14.83379483],[50.02266657,14.82844555],[50.02599645,14.82438207],[50.02178586,14.82154715],[50.02159905,14.81993556],[50.02296746,14.81925941],[50.02503705,14.82152295],[50.03397524,14.82297122],[50.03723562,14.82237947],[50.04576826,14.82653534],[50.05017483,14.82620406],[50.05737615,14.82777286],[50.08791018,14.84191072],[50.10922825,14.84956265],[50.11940134,14.84846485],[50.12503994,14.84547055],[50.1281203,14.84611261],[50.1300801,14.84835446],[50.13650262,14.84806991],[50.13685906,14.84800315],[50.14037025,14.84496522],[50.14369392,14.84455562],[50.14904976,14.8412832],[50.15294135,14.84240675],[50.16243196,14.84154713],[50.16864192,14.84412468],[50.17902291,14.84503496],[50.18267286,14.85057783],[50.18108213,14.85254192],[50.18095112,14.85818875],[50.18845713,14.86548424],[50.19098973,14.86640215],[50.19501936,14.87008572],[50.20668137,14.87693036],[50.23848522,14.89468491],[50.24315941,14.89863944],[50.24501193,14.89866531],[50.24619508,14.90063691],[50.25454724,14.90425026],[50.26115227,14.90917826],[50.26255524,14.90892673],[50.26398075,14.91036296],[50.26896965,14.91045964],[50.2734375,14.91238844],[50.2734375,14.91266727],[50.28027844,14.91652167],[50.28548515,14.91744888],[50.2964282,14.92216635],[50.29702568,14.92236137],[50.31630635,14.92711914],[50.31872284,14.92643261],[50.31879222,14.92328048],[50.32390511,14.92210507],[50.32596314,14.91847634],[50.32842183,14.91710603],[50.33181095,14.9259063],[50.33900857,14.93012488],[50.33951676,14.93659985],[50.34473133,14.94140625],[50.34478986,14.94140625],[50.35244513,14.94893956],[50.38316905,14.97171557],[50.40645695,14.98629093],[50.42134881,14.99377668],[50.42516255,14.99743652],[50.42915666,14.9978199],[50.43291819,15],[50.45393401,15.01161629],[50.47494984,15.02323258],[50.47537005,15.02337277],[50.49609196,15.02727556],[50.52381742,15.03676808],[50.55055153,15.04415083],[50.55976057,15.0443933],[50.58076716,15.04959822],[50.62138903,15.05719864],[50.625,15.05719864],[50.62500536,15.05722821],[50.65882838,15.06141341],[50.66961253,15.06340396],[50.70427716,15.07200515],[50.70998716,15.07223606],[50.72069216,15.06978393],[50.75383568,15.078058],[50.78066641,15.08489108],[50.80749714,15.09172416],[50.81618202,15.08953524],[50.84876502,15.10041678],[50.87157434,15.10739231],[50.89438367,15.11436784],[50.9037894,15.11671925],[50.90450776,15.11683714],[50.91043794,15.11638033],[50.9155122,15.11733055],[50.94603735,15.12576908],[50.9765625,15.13420761],[50.9765625,15.13448656],[50.99668741,15.14031637],[51.00172281,15.14053261],[51.00444245,15.14225626],[51.01164126,15.14376092],[51.0232861,15.14812887],[51.03869402,15.15175605],[51.06109291,15.15622044],[51.0834918,15.16068482],[51.12307334,15.16621375],[51.12622833,15.16752136],[51.12831771,15.17089927],[51.12976217,15.17487955],[51.12982154,15.17980766],[51.13194263,15.18356132],[51.13296366,15.18050528],[51.13213885,15.17379975],[51.133111,15.17045951],[51.13966537,15.17023027],[51.14589465,15.17152905],[51.17525053,15.18003464],[51.20643651,15.19177675],[51.22008753,15.19227266],[51.22729695,15.19453287],[51.23632348,15.19943285],[51.27499628,15.21531105],[51.28644605,15.21967667],[51.28644886,15.17514152],[51.28645167,15.13060637],[51.28645449,15.08607122],[51.2864573,15.04153607],[51.28646012,14.99700092],[51.28646293,14.95246577],[51.28646575,14.90793062],[51.28646856,14.86339547],[51.28647137,14.81886032],[51.28647419,14.77432517],[51.286477,14.72979002],[51.28647982,14.68525486],[51.28648263,14.64071971],[51.28648545,14.59618456],[51.28648826,14.55164941],[51.28649107,14.50711426],[51.28649389,14.46257911],[51.2864967,14.41804396],[51.28649952,14.37350881],[51.28650233,14.32897366],[51.28650515,14.28443851],[51.28650796,14.23990336],[51.28651077,14.19536821],[51.28651359,14.15083306],[51.2865164,14.10629791],[51.28651922,14.06176276],[51.28652203,14.01722761],[51.28652484,13.97269246],[51.28652766,13.92815731],[51.28653047,13.88362216],[51.28653329,13.83908701],[51.2865361,13.79455186],[51.28653892,13.75001671],[51.28654173,13.70548156],[51.28654454,13.6609464],[51.28654736,13.61641125],[51.28655017,13.5718761],[51.28655299,13.52734095],[51.2865558,13.4828058],[51.28655862,13.43827065],[51.28656143,13.3937355],[51.28656424,13.34920035],[51.28656706,13.3046652],[51.28656987,13.26013005],[51.28657269,13.2155949],[51.2865755,13.17105975],[51.28657832,13.1265246],[51.28658113,13.08198945],[51.28658394,13.0374543],[51.28658676,12.99291915],[51.28658957,12.948384],[51.28659239,12.90384885],[51.2865952,12.8593137],[51.28659802,12.81477855],[51.28660083,12.7702434],[51.28660364,12.72570825],[51.28660646,12.6811731],[51.28660927,12.63663794],[51.28661209,12.59210279],[51.2866149,12.54756764],[51.28661772,12.50303249],[51.28662053,12.45849734],[51.28662334,12.41396219],[51.28662616,12.36942704],[51.28662897,12.32489189],[51.28663179,12.28035674],[51.2866346,12.23582159],[51.28663741,12.19128644],[51.28664023,12.14675129],[51.28664304,12.10221614],[51.28664586,12.05768099],[51.28664867,12.01314584],[51.28665149,11.96861069],[51.2866543,11.92407554],[51.28665711,11.87954039],[51.28665993,11.83500524]],[[43.45379138,12.44589984],[43.45224965,12.44605744],[43.45110297,12.44538891],[43.45266092,12.44431972],[43.45379138,12.44589984]],[[43.44246352,12.45664644],[43.44182456,12.45685363],[43.44071281,12.45619977],[43.43942904,12.4543395],[43.43900692,12.45308137],[43.43913865,12.45214415],[43.43954146,12.45139635],[43.44270611,12.44955027],[43.44314051,12.44969165],[43.44469237,12.45132303],[43.44210267,12.45297253],[43.44282091,12.45627201],[43.44246352,12.45664644]],[[43.41369104,12.46045375],[43.41354716,12.46097803],[43.41142476,12.45941186],[43.41203332,12.45788968],[43.41254544,12.45820761],[43.41369104,12.46045375]],[[43.36755657,12.46069992],[43.36563575,12.46218336],[43.36433256,12.46098626],[43.36579335,12.45929337],[43.36620188,12.45930791],[43.36755657,12.46069992]],[[43.38764214,12.46583474],[43.38715243,12.4668591],[43.38467312,12.46444333],[43.38522816,12.46319377],[43.38684046,12.46292722],[43.38722885,12.46312118],[43.38764214,12.46583474]],[[43.43090522,12.46859002],[43.43411195,12.46603286],[43.43503296,12.46605074],[43.43481886,12.47011316],[43.43111563,12.47213054],[43.43225026,12.47351944],[43.43186295,12.47467542],[43.42901146,12.47547174],[43.42610371,12.47411191],[43.42542422,12.4707427],[43.43090522,12.46859002]],[[44.88445032,12.72760296],[44.88741565,12.72836733],[44.88750112,12.73061991],[44.88656795,12.7302891],[44.88646746,12.73058546],[44.88582635,12.7328217],[44.88295043,12.73186576],[44.88445032,12.72760296]],[[48.39074385,13.93395114],[48.39035261,13.93449903],[48.38779354,13.93320894],[48.38659477,13.93349981],[48.38677466,13.93512225],[48.38501501,13.93641925],[48.38291562,13.93514955],[48.38264191,13.93487835],[48.38170338,13.93238175],[48.38343668,13.92851067],[48.38553035,13.93115187],[48.38767755,13.93006396],[48.38805831,13.9282037],[48.39046776,13.92950296],[48.39137626,13.93200564],[48.39137685,13.93266451],[48.39074385,13.93395114]],[[48.46286833,13.98457956],[48.46028912,13.98465395],[48.45774865,13.98349845],[48.45710075,13.98250878],[48.45843852,13.97760057],[48.46209741,13.9760499],[48.46258235,13.97612345],[48.46557152,13.97928905],[48.46706915,13.98120475],[48.46685493,13.98311675],[48.46674025,13.98342705],[48.46466637,13.98446715],[48.46286833,13.98457956]],[[48.32466733,13.99502397],[48.32458723,13.99539435],[48.32529414,13.99628866],[48.32494247,13.99668813],[48.31923151,13.99598384],[48.31819153,13.99069774],[48.32137763,13.98593891],[48.32321382,13.98613155],[48.32482505,13.99021888],[48.32642877,13.99086213],[48.32466733,13.99502397]],[[51.13199556,15.18037617],[51.13177538,15.18116105],[51.13062322,15.18018162],[51.13138688,15.17824852],[51.13170481,15.17838693],[51.13199556,15.18037617]],[[48.39323997,13.99783075],[48.39331305,14.00198305],[48.39184344,14.00148785],[48.3915354,13.99937165],[48.39181292,13.99795616],[48.39323997,13.99783075]],[[48.38730717,14.00540006],[48.38699555,14.00547171],[48.38600421,14.00492787],[48.38812256,14.00397635],[48.38815272,14.00439584],[48.38730717,14.00540006]],[[44.91934955,12.7559334],[44.91808212,12.75646174],[44.91685581,12.75575042],[44.91650355,12.7549355],[44.91737235,12.75410283],[44.91817534,12.75378752],[44.91916525,12.75372565],[44.91984856,12.75478601],[44.91934955,12.7559334]],[[44.97403085,12.79877186],[44.9831655,12.80215144],[44.98407304,12.80136371],[44.98638392,12.80130637],[44.98898327,12.80178916],[44.99784601,12.80425155],[44.99866295,12.80504823],[44.99707854,12.80934513],[44.99660826,12.80990016],[44.99259758,12.80917597],[44.98942184,12.81061637],[44.9836359,12.81052792],[44.98189914,12.80834246],[44.97645676,12.80521715],[44.97383285,12.80111325],[44.97403085,12.79877186]],[[45.01786554,12.81060874],[45.01625323,12.80846345],[45.01582146,12.80114901],[45.01696861,12.79985726],[45.01726615,12.79972076],[45.01942146,12.80325925],[45.02088475,12.80874431],[45.02242231,12.80926716],[45.02213621,12.81090605],[45.01786554,12.81060874]],[[44.99473512,12.81404746],[44.99395156,12.81417632],[44.99417031,12.81337345],[44.99590266,12.81294],[44.99473512,12.81404746]],[[44.71959043,12.73336208],[44.71978366,12.73397064],[44.71872091,12.73490381],[44.71790385,12.73868418],[44.71551371,12.74189627],[44.7142874,12.73815703],[44.71480024,12.7363162],[44.71352375,12.73543656],[44.70948696,12.73485804],[44.70719886,12.73766983],[44.70538247,12.73699391],[44.70541656,12.73513043],[44.70776045,12.73136234],[44.71038926,12.73233545],[44.71397054,12.73077488],[44.71929252,12.73309457],[44.71959043,12.73336208]],[[44.74444795,12.75462461],[44.74413407,12.75482917],[44.74302363,12.75328076],[44.74289846,12.75221086],[44.74352336,12.75068855],[44.74432325,12.75088644],[44.74525726,12.7522608],[44.74532521,12.75264657],[44.74444795,12.75462461]],[[44.12677562,12.63167357],[44.12727571,12.63278806],[44.1257385,12.63239551],[44.12561285,12.63208926],[44.12677562,12.63167357]],[[43.20642686,11.73087442],[43.20413244,11.72918952],[43.19816065,11.73041987],[43.19875824,11.72672534],[43.20052564,11.72644925],[43.20429647,11.72580421],[43.20832705,11.72643757],[43.20623076,11.72048581],[43.20115674,11.71574354],[43.20118284,11.7135781],[43.20088232,11.7132256],[43.19754195,11.71260166],[43.19804645,11.71170926],[43.20018923,11.71087205],[43.20460343,11.71017695],[43.20533943,11.71039403],[43.2069664,11.71126497],[43.20981562,11.71781003],[43.21267092,11.7178483],[43.21343184,11.71846354],[43.21381307,11.71926534],[43.21393335,11.72026932],[43.21262145,11.72280216],[43.2136265,11.72619724],[43.21319783,11.72939026],[43.21299553,11.73065233],[43.2126919,11.73137903],[43.20814228,11.73130584],[43.20642686,11.73087442]],[[43.18212545,11.70968997],[43.18256402,11.71253037],[43.17950845,11.71452916],[43.18013942,11.71076918],[43.18212545,11.70968997]],[[43.15588176,11.71293187],[43.15918493,11.71444464],[43.16462564,11.71391535],[43.16519666,11.7153908],[43.16508234,11.7158097],[43.16402066,11.71683311],[43.1601907,11.71548665],[43.15841806,11.71649873],[43.15630674,11.71369886],[43.15462172,11.71474361],[43.15053737,11.71403336],[43.14934027,11.71338666],[43.14940023,11.71248305],[43.15021718,11.71169591],[43.15067053,11.71169496],[43.15166497,11.71262991],[43.15194857,11.71285415],[43.15588176,11.71293187]],[[43.18326044,11.71533644],[43.18428135,11.71522594],[43.18478835,11.71562946],[43.18522286,11.71672344],[43.18518043,11.71711743],[43.18413103,11.71742046],[43.18323624,11.71690285],[43.18297851,11.7160784],[43.18326044,11.71533644]],[[43.18964875,11.71524942],[43.19242692,11.71233976],[43.19331384,11.71208775],[43.19589186,11.71188784],[43.19626665,11.71243465],[43.19563568,11.71431684],[43.19535935,11.71473765],[43.19393504,11.71489775],[43.19208515,11.71772778],[43.19233704,11.71885741],[43.1952666,11.72009957],[43.19476533,11.71838355],[43.19587648,11.71735263],[43.20102704,11.71723747],[43.20111871,11.7201035],[43.19762886,11.72192812],[43.18481505,11.72856426],[43.17628706,11.72499287],[43.17608953,11.72458506],[43.17818296,11.72144723],[43.19102585,11.71807444],[43.18831456,11.71654832],[43.18816865,11.71610236],[43.18964875,11.71524942]],[[42.65741015,11.55725324],[42.65674853,11.55857432],[42.6551522,11.55919898],[42.65530121,11.55667186],[42.65557945,11.55642033],[42.65716505,11.55623317],[42.65741015,11.55725324]],[[42.68187082,11.55350304],[42.68325985,11.55222321],[42.68384194,11.55233288],[42.68421245,11.55306911],[42.68342185,11.55402017],[42.68279135,11.55419445],[42.68187082,11.55350304]],[[42.70197594,11.54896355],[42.70201397,11.54709446],[42.70296621,11.5464617],[42.70289874,11.54681945],[42.7014991,11.55172372],[42.70197594,11.54896355]],[[42.53179407,11.54043806],[42.53327787,11.54031026],[42.53452826,11.54096723],[42.53504467,11.54248261],[42.53470814,11.54347253],[42.53316092,11.5438714],[42.53169656,11.54261863],[42.53101671,11.54153144],[42.53179407,11.54043806]],[[42.53444755,11.53466094],[42.53607345,11.53264511],[42.5390625,11.53264511],[42.54303122,11.53495944],[42.54302132,11.53758335],[42.54034352,11.53903305],[42.5390625,11.5390625],[42.53758955,11.5390954],[42.53520012,11.53756952],[42.53443623,11.53514254],[42.53444755,11.53466094]],[[43.07434773,11.59634411],[43.07701814,11.59625936],[43.07691026,11.59651577],[43.07656825,11.59670007],[43.07601821,11.59696233],[43.07541466,11.59716916],[43.07496846,11.59729195],[43.07466054,11.59728003],[43.07438028,11.59720576],[43.07401085,11.59726334],[43.07345724,11.59748113],[43.0727545,11.59768987],[43.07248592,11.59748125],[43.07268763,11.59714222],[43.07293451,11.59703505],[43.07330012,11.59688854],[43.07379222,11.59667516],[43.07434773,11.59634411]],[[43.13240016,11.59627247],[43.13207126,11.59533143],[43.13254011,11.594944],[43.13325655,11.59423804],[43.13449526,11.59380496],[43.13587105,11.59414506],[43.13597095,11.59442365],[43.13512731,11.59608734],[43.13480961,11.5962218],[43.13273954,11.59616804],[43.13240016,11.59627247]],[[43.18486023,11.55077314],[43.1869992,11.54896355],[43.18830395,11.54909515],[43.19092095,11.55043936],[43.19095874,11.55120945],[43.19017506,11.55402577],[43.18991828,11.55437136],[43.18846285,11.55508924],[43.18775606,11.55529702],[43.18595004,11.55452907],[43.18554783,11.55415738],[43.18487525,11.55228114],[43.18470931,11.55113316],[43.18486023,11.55077314]],[[43.45224166,11.49567425],[43.449175,11.48955846],[43.45013046,11.48973477],[43.45138335,11.49016607],[43.45601082,11.49383044],[43.4571017,11.49514973],[43.46341145,11.50658762],[43.46811605,11.51079273],[43.46836782,11.51121294],[43.46820283,11.51237214],[43.46523416,11.51484036],[43.46354795,11.51537323],[43.46021152,11.50906706],[43.45350897,11.50261664],[43.45224166,11.49567425]],[[43.28108382,11.48537385],[43.28228605,11.4825772],[43.28384006,11.48529446],[43.28460991,11.4862169],[43.28702462,11.48671424],[43.28958428,11.48688614],[43.29272544,11.48554826],[43.29385686,11.48587525],[43.29382861,11.4862771],[43.29069006,11.48780835],[43.28637147,11.48791087],[43.28583992,11.48801422],[43.28128493,11.48566782],[43.28108382,11.48537385]],[[43.36373734,11.46589613],[43.35948014,11.46400797],[43.35950387,11.46372366],[43.36114585,11.46264458],[43.3644309,11.46216357],[43.36498344,11.46236217],[43.3654139,11.46323073],[43.36523736,11.46419454],[43.36441731,11.46570957],[43.36373734,11.46589613]],[[43.46010506,11.44943905],[43.45652843,11.44762886],[43.44809258,11.43507004],[43.44803774,11.43451321],[43.45157695,11.43320656],[43.45387852,11.43102455],[43.45440817,11.42993736],[43.45522976,11.42578125],[43.45522976,11.42452562],[43.45397842,11.41827285],[43.4587152,11.41963005],[43.45999861,11.41779661],[43.46406925,11.41632366],[43.46456563,11.41635954],[43.466084,11.42388415],[43.46625328,11.42425847],[43.46774495,11.42578125],[43.46821225,11.42578125],[43.47116303,11.42732215],[43.47378552,11.43353975],[43.47582364,11.43980324],[43.47582304,11.44044042],[43.47508895,11.44455695],[43.47302055,11.44820261],[43.47063005,11.44913554],[43.46922886,11.44942784],[43.46130741,11.44912243],[43.46010506,11.44943905]],[[43.37484705,11.43406665],[43.37703872,11.43707871],[43.38115335,11.43557441],[43.38135111,11.44082081],[43.37958026,11.44255614],[43.37698293,11.44186497],[43.37545025,11.43729687],[43.37496448,11.43663895],[43.37235546,11.43517137],[43.37186015,11.43538988],[43.37116516,11.43615282],[43.37278736,11.43873465],[43.37281322,11.44158113],[43.37159026,11.44304931],[43.36888456,11.44239903],[43.36901855,11.43616664],[43.36813557,11.43509722],[43.36928535,11.43380082],[43.37000084,11.43364728],[43.37484705,11.43406665]],[[43.33683717,11.44838774],[43.33370376,11.44856918],[43.33295596,11.44825101],[43.33421755,11.4442116],[43.33495522,11.44379377],[43.33562505,11.44455552],[43.33689976,11.44819117],[43.33683717,11.44838774]],[[43.49534965,11.37507606],[43.49366152,11.37267745],[43.49814165,11.37442005],[43.50410903,11.37253296],[43.50598586,11.37470317],[43.50336933,11.37425756],[43.50292695,11.37469733],[43.50232935,11.37525856],[43.49716496,11.37553942],[43.49569261,11.37526524],[43.49534965,11.37507606]],[[43.46179867,11.35113204],[43.46444702,11.34995961],[43.46594155,11.35021591],[43.46689236,11.35063672],[43.46771646,11.35209155],[43.4677037,11.35244107],[43.46292233,11.35312486],[43.46096611,11.35378516],[43.46043634,11.35192776],[43.46179867,11.35113204]],[[47.23434341,11.21652985],[47.23537624,11.21636236],[47.23736286,11.21719718],[47.24086416,11.21965957],[47.24911261,11.22949696],[47.23957765,11.22358084],[47.23482192,11.21837974],[47.23462713,11.21806395],[47.23434341,11.21652985]],[[46.92728257,10.91675556],[46.92811406,10.91673493],[46.92905963,10.91748035],[46.92851114,10.91894114],[46.92674172,10.91757226],[46.92728257,10.91675556]]]]},"geometry_name":"the_geom","properties":{"name":"Gulf of Aden","id":"38","longitude":47.6527871243,"latitude":12.5205639199,"min_x":42.51346206652,"min_y":10.37809920322,"max_x":51.28665992889,"max_y":15.21967667014,"area":263754,"mrgid":4265}}],"totalFeatures":1,"numberMatched":1,"numberReturned":1,"timeStamp":"2026-03-03T13:53:19.514Z","crs":{"type":"name","properties":{"name":"urn:ogc:def:crs:EPSG::4326"}}}