{"type":"FeatureCollection","features":[{"type":"Feature","id":"iho.36","geometry":{"type":"MultiPolygon","coordinates":[[[[56.46568092,25.9416835],[56.46673715,25.94101024],[56.46718824,25.94095135],[56.46776764,25.94132552],[56.51139223,25.93384174],[56.55501682,25.92635796],[56.59864142,25.91887418],[56.64226601,25.91139039],[56.6858906,25.90390661],[56.7295152,25.89642283],[56.77313979,25.88893905],[56.81676438,25.88145526],[56.86038898,25.87397148],[56.90401357,25.8664877],[56.94763816,25.85900392],[56.99126276,25.85152013],[57.03488735,25.84403635],[57.07851195,25.83655257],[57.12213654,25.82906879],[57.16576113,25.82158501],[57.20938573,25.81410122],[57.25301032,25.80661744],[57.29663491,25.79913366],[57.29629695,25.79905164],[57.29608142,25.79791462],[57.29669034,25.79646957],[57.30253506,25.78898311],[57.30275095,25.78878915],[57.3046875,25.78766727],[57.31539702,25.78342176],[57.32874024,25.78100038],[57.35169029,25.78025407],[57.37464035,25.77950776],[57.37874544,25.77804995],[57.38275743,25.77504981],[57.38589084,25.77100444],[57.38757884,25.77190578],[57.39020205,25.76528716],[57.39430714,25.76258361],[57.39002895,25.76925898],[57.39521217,25.76888323],[57.39633274,25.7643944],[57.39962232,25.76431715],[57.42519593,25.75746715],[57.45183778,25.75309825],[57.49529982,25.74909592],[57.49928522,25.74790692],[57.50581455,25.74300587],[57.50705254,25.74281991],[57.52302146,25.74469864],[57.55198991,25.74606407],[57.56725204,25.74578524],[57.57379925,25.7433331],[57.58163464,25.74327397],[57.60060465,25.74072564],[57.62872064,25.73416054],[57.63325393,25.73541272],[57.64469445,25.73300946],[57.64764965,25.73300934],[57.65458286,25.73506296],[57.65563154,25.73842001],[57.65171015,25.74114525],[57.65135157,25.74192846],[57.65139341,25.74252951],[57.65297282,25.74396455],[57.65625,25.74302447],[57.65731072,25.74305475],[57.66209996,25.74489868],[57.66612065,25.74461687],[57.66701365,25.74338686],[57.67403197,25.74335885],[57.67498314,25.74447131],[57.67948365,25.74474645],[57.68303227,25.74686265],[57.69814158,25.74723911],[57.70135713,25.74804008],[57.70175326,25.74824965],[57.70382035,25.75231934],[57.70389986,25.75491023],[57.70229065,25.75622165],[57.6925503,25.75283217],[57.68767297,25.7495929],[57.68459046,25.75127685],[57.68773866,25.75191736],[57.68804276,25.75445676],[57.69019961,25.75486565],[57.69070208,25.7565428],[57.69544947,25.75540066],[57.69706786,25.75851846],[57.69710052,25.76213717],[57.69772685,25.76266551],[57.69856358,25.76244247],[57.70267451,25.75947654],[57.70454896,25.759642],[57.70500314,25.75933945],[57.70610785,25.75653458],[57.70791948,25.75595725],[57.7082659,25.75338304],[57.70497167,25.75180626],[57.70555472,25.74970984],[57.71139574,25.74891341],[57.7250725,25.75176942],[57.73606133,25.74608254],[57.73520494,25.74518073],[57.74153185,25.74333632],[57.74296832,25.74379814],[57.74488628,25.74194336],[57.74600887,25.74233127],[57.74799192,25.74081445],[57.74893045,25.74188495],[57.74969804,25.74058163],[57.75177205,25.74015462],[57.74991655,25.73752654],[57.74990284,25.73550737],[57.75078821,25.73758054],[57.75468767,25.73712337],[57.75721145,25.7343657],[57.75923622,25.73452544],[57.76937342,25.72648025],[57.7822777,25.70913982],[57.78358114,25.70459831],[57.78862035,25.70296145],[57.78990614,25.70127666],[57.79021156,25.70066917],[57.78876507,25.69806206],[57.78865802,25.69448936],[57.78415763,25.69164085],[57.77992523,25.69212365],[57.77660346,25.68937182],[57.77672625,25.67614782],[57.77818274,25.67034042],[57.77801895,25.6640625],[57.7772156,25.65562415],[57.77391577,25.64843273],[57.77025294,25.64548552],[57.76885772,25.64523101],[57.76796937,25.64650512],[57.76628947,25.64601648],[57.76468277,25.64698207],[57.76265788,25.63688076],[57.76406753,25.63564444],[57.77050054,25.63694525],[57.78017712,25.64287281],[57.78226376,25.64277756],[57.78659034,25.64558935],[57.81313765,25.65712905],[57.82414663,25.6640625],[57.82460391,25.6640625],[57.84641814,25.67688322],[57.85083902,25.67505312],[57.84882295,25.67687094],[57.84877515,25.67831564],[57.85063612,25.67732143],[57.85270667,25.67779267],[57.85156941,25.67301893],[57.85369444,25.67480457],[57.85255313,25.68039226],[57.86092603,25.6855247],[57.88048816,25.69305074],[57.88941264,25.69364452],[57.89317918,25.69594204],[57.89365184,25.69609642],[57.90556335,25.69928575],[57.91301417,25.70086324],[57.92084634,25.70169985],[57.93369353,25.70200884],[57.93727446,25.70197928],[57.94969726,25.69931436],[57.95069671,25.70011556],[57.95231044,25.69842315],[57.95629418,25.69710934],[57.95751154,25.69492996],[57.96768296,25.69027615],[57.97772098,25.68258536],[57.98214364,25.67398965],[57.98688865,25.66834664],[57.99035013,25.66597831],[57.99458706,25.66633487],[57.99745965,25.66837037],[57.9960525,25.6640625],[57.99606276,25.6640625],[57.99577165,25.66316867],[57.99735796,25.66157615],[58.00346744,25.65798533],[58.00345564,25.65547586],[58.00130081,25.65307665],[58.00618851,25.65004253],[58.00506496,25.64908075],[58.00537097,25.64436913],[58.00642395,25.64313877],[58.00542283,25.64048564],[58.0078125,25.63727665],[58.0078125,25.63420761],[58.00797105,25.63433754],[58.0078125,25.63113844],[58.00751412,25.62991273],[58.0078125,25.62946415],[58.02592635,25.60606885],[58.03417587,25.59775186],[58.04038525,25.59324324],[58.05195153,25.58803141],[58.07689524,25.57249916],[58.09429777,25.56372654],[58.09671974,25.56271112],[58.11381233,25.55862308],[58.12906253,25.55744815],[58.13765621,25.55528522],[58.13805962,25.55528975],[58.13971305,25.55669367],[58.1544435,25.55694914],[58.16231382,25.55912113],[58.18164885,25.56086397],[58.18924391,25.56274951],[58.19664657,25.56358612],[58.20599484,25.56303954],[58.20552742,25.56546843],[58.20767188,25.56720686],[58.20730472,25.56541634],[58.20857191,25.56439102],[58.21299386,25.56654131],[58.22123671,25.56650436],[58.2247107,25.56409526],[58.23684823,25.56298995],[58.24539494,25.56030786],[58.24565184,25.56205475],[58.24181247,25.56584096],[58.24213243,25.57718575],[58.24334884,25.57718515],[58.24542928,25.56497741],[58.24913466,25.56504071],[58.26856506,25.57290912],[58.28222907,25.57589281],[58.29889226,25.57592225],[58.30412757,25.57703793],[58.31026816,25.58143854],[58.33748794,25.58791995],[58.34529793,25.59114611],[58.35211134,25.58908916],[58.359375,25.59012282],[58.3638221,25.59183514],[58.37036192,25.59227574],[58.37403691,25.59044421],[58.39090598,25.59427857],[58.40498233,25.59486604],[58.42528117,25.59427845],[58.4330852,25.59260428],[58.43705106,25.58865225],[58.43949091,25.58296287],[58.44523382,25.58038735],[58.44853628,25.58038664],[58.46802557,25.58571935],[58.4838351,25.58774698],[58.49282944,25.58759236],[58.49594641,25.58605075],[58.49867177,25.58786082],[58.51617241,25.58792365],[58.54474151,25.59179676],[58.55507445,25.59076965],[58.56690085,25.58712792],[58.57080698,25.58716607],[58.58020175,25.59097338],[58.59195125,25.59093034],[58.63083518,25.58280134],[58.65205896,25.57592285],[58.67051566,25.57261157],[58.68915927,25.56699455],[58.69102705,25.56675017],[58.70327306,25.56671464],[58.7109375,25.56835926],[58.74465871,25.57335222],[58.77293253,25.57533467],[58.784518,25.57530534],[58.80204725,25.57195711],[58.80484664,25.56982064],[58.80638456,25.56536794],[58.80852497,25.56411254],[58.81061923,25.55981076],[58.83015573,25.55353844],[58.83071101,25.55325425],[58.83613145,25.5478543],[58.83747995,25.54429901],[58.83774292,25.54273808],[58.83612216,25.54091895],[58.83353853,25.54003322],[58.83364463,25.53938246],[58.83438492,25.53897417],[58.86189306,25.53568482],[58.87855744,25.53233647],[58.88184774,25.53159714],[58.89567471,25.52617955],[58.90685666,25.5196985],[58.91511333,25.51391161],[58.93201685,25.49930251],[58.94150555,25.48828125],[58.95784253,25.46929801],[58.97417951,25.45031476],[58.98811305,25.43512833],[58.99366903,25.42982686],[59.00223255,25.42256033],[59.00547302,25.42070007],[59.01727188,25.4154098],[59.02345955,25.41353405],[59.03741693,25.41046464],[59.04572046,25.40940642],[59.04934525,25.40941083],[59.0575757,25.40990675],[59.0625,25.41099334],[59.07366323,25.41259527],[59.07901323,25.41238844],[59.08222318,25.41197908],[59.08404064,25.41004896],[59.08486545,25.40880632],[59.08620441,25.40382481],[59.08769155,25.40223765],[59.10296452,25.40588975],[59.10958397,25.40274465],[59.14063913,25.41558355],[59.17169428,25.42842245],[59.20312011,25.43714976],[59.23249781,25.44077361],[59.23325467,25.44076657],[59.23887074,25.44055796],[59.23978531,25.44017601],[59.24507165,25.43529701],[59.24692357,25.43445993],[59.25220203,25.43390667],[59.25284445,25.43403363],[59.25337827,25.43489313],[59.25372136,25.43711972],[59.25315011,25.44032085],[59.25179398,25.44206357],[59.24347866,25.44682121],[59.23232555,25.45829666],[59.22942221,25.46271014],[59.22485626,25.46421373],[59.22244382,25.46394944],[59.22195923,25.46341038],[59.21504235,25.4517858],[59.21179986,25.44735241],[59.20927,25.44506276],[59.20697951,25.44395804],[59.20193505,25.44215834],[59.17868555,25.43724894],[59.16719806,25.43592215],[59.16238832,25.43717384],[59.15823185,25.43626785],[59.14910662,25.43077457],[59.14834607,25.42682636],[59.14055157,25.42442322],[59.13712955,25.42030335],[59.13389766,25.41893005],[59.12591314,25.42098987],[59.12667346,25.42390823],[59.11526704,25.43437946],[59.11861837,25.43376803],[59.12173057,25.4302597],[59.12648344,25.42974472],[59.12838447,25.43008804],[59.13503838,25.43180466],[59.13846052,25.43352115],[59.14188242,25.43729782],[59.14644516,25.43935776],[59.14682531,25.44073105],[59.14606476,25.44244754],[59.13922095,25.44519424],[59.13617897,25.44965744],[59.14321315,25.46064365],[59.14245284,25.46888351],[59.13769162,25.46982765],[59.13712955,25.47128665],[59.13803244,25.47353435],[59.1373198,25.47574985],[59.14330137,25.48012733],[59.14073408,25.4800415],[59.13797677,25.48244464],[59.13740635,25.48467624],[59.13968825,25.48862445],[59.1394031,25.49016953],[59.14453745,25.48965454],[59.14929152,25.49454677],[59.14710462,25.49051285],[59.13987851,25.4875946],[59.13864243,25.48493385],[59.14073408,25.48321724],[59.14520311,25.48390377],[59.14815044,25.48278797],[59.14710462,25.47935486],[59.14368165,25.47566414],[59.14520311,25.47102916],[59.14986205,25.46733844],[59.14891124,25.46244621],[59.14948165,25.46141624],[59.15138316,25.46133041],[59.15680277,25.46914101],[59.17230105,25.48218715],[59.18076324,25.48562038],[59.18627667,25.48991203],[59.18656194,25.49317348],[59.18199754,25.49368846],[59.17876434,25.49540508],[59.17790842,25.50149906],[59.17400944,25.49952495],[59.1729635,25.50029755],[59.17562616,25.50244331],[59.18256795,25.50415993],[59.18513572,25.50690651],[59.18846393,25.50742137],[59.19531083,25.50639153],[59.19687605,25.50719488],[59.19793725,25.50554872],[59.19531083,25.50330162],[59.18950987,25.50536156],[59.18846393,25.50536156],[59.18713272,25.50510395],[59.18408954,25.50364494],[59.18095136,25.50098407],[59.18057096,25.49729335],[59.18751287,25.49540508],[59.19112647,25.48888195],[59.18675232,25.48785198],[59.18675232,25.48398972],[59.18580532,25.4811573],[59.18247795,25.47789574],[59.18209767,25.4713726],[59.17981625,25.46862602],[59.17867553,25.46339035],[59.17373204,25.46356201],[59.16812325,25.46690941],[59.16622186,25.45901287],[59.16403556,25.45643795],[59.15975761,25.45549393],[59.15766621,25.45206058],[59.15690565,25.44931412],[59.15719092,25.44845581],[59.15852165,25.44673908],[59.15966237,25.44622421],[59.16489112,25.44562328],[59.16945422,25.44579506],[59.17211604,25.44734001],[59.18086195,25.44888484],[59.20016015,25.45987117],[59.20700014,25.46270371],[59.20776081,25.46442032],[59.21565247,25.46768177],[59.22240317,25.46759605],[59.22658694,25.46725273],[59.22706234,25.46785355],[59.22611153,25.46957004],[59.22544587,25.47008514],[59.22306895,25.46888351],[59.22192776,25.47111511],[59.22192776,25.47205925],[59.22316384,25.47532082],[59.22753775,25.47411907],[59.23419344,25.47635067],[59.24246538,25.48441875],[59.25378013,25.4898262],[59.25558674,25.49265862],[59.25929475,25.49506176],[59.25796366,25.49034107],[59.25206864,25.48235893],[59.24969172,25.48390377],[59.2447474,25.47635067],[59.23125374,25.46587944],[59.23553145,25.46390533],[59.24465716,25.46562195],[59.25796545,25.46210277],[59.26290846,25.46484935],[59.26595044,25.46587944],[59.27250946,25.46725273],[59.27897346,25.46690941],[59.28420174,25.46630847],[59.292472,25.46442032],[59.29313743,25.46081543],[59.28866947,25.46184528],[59.28353643,25.45969963],[59.27840304,25.46098697],[59.27146375,25.46012867],[59.26319373,25.45540798],[59.26243317,25.45309055],[59.26404917,25.44450748],[59.26007593,25.43900871],[59.26145446,25.43743551],[59.26661253,25.43668246],[59.2687875,25.43667293],[59.26995027,25.43706977],[59.28517437,25.44460475],[59.28836334,25.44580686],[59.30898571,25.45253742],[59.34242988,25.45839667],[59.37669742,25.46198654],[59.38949525,25.46562195],[59.39163113,25.46740592],[59.40755272,25.46431506],[59.40930176,25.46431875],[59.4140625,25.46679676],[59.4213804,25.46924102],[59.42672157,25.47063625],[59.43644023,25.47209823],[59.4508183,25.47178972],[59.47649074,25.46844161],[59.48714983,25.46572804],[59.48778725,25.46545053],[59.49318874,25.46228647],[59.49700952,25.45972681],[59.49860311,25.45823574],[59.50237584,25.45219076],[59.50302994,25.45168221],[59.50887215,25.44923735],[59.51549351,25.44310653],[59.52015805,25.44100511],[59.52150714,25.43774283],[59.52622795,25.43212295],[59.52636826,25.4262073],[59.53588355,25.41899955],[59.53750932,25.41630888],[59.53983235,25.41565573],[59.54141951,25.41365004],[59.54409564,25.41195798],[59.54601336,25.41102362],[59.54910076,25.41096413],[59.55095255,25.41012704],[59.55441475,25.40711546],[59.55574203,25.40641403],[59.56709826,25.40118825],[59.57561135,25.39879155],[59.57934928,25.39648426],[59.59015977,25.39483893],[59.59152114,25.39332855],[59.60622883,25.38953865],[59.64737463,25.39093387],[59.67625594,25.39550787],[59.70513725,25.40008187],[59.73538113,25.40163136],[59.765625,25.40318084],[59.78399015,25.40457594],[59.81348908,25.40338016],[59.83178234,25.40010452],[59.83727467,25.39849496],[59.84512544,25.3954401],[59.84546328,25.39525306],[59.85057664,25.3908869],[59.85079515,25.39062417],[59.85354424,25.38563848],[59.85384095,25.38406205],[59.85344911,25.38214064],[59.84843278,25.38110876],[59.84579897,25.37859571],[59.84550834,25.37805796],[59.84706545,25.37341726],[59.85500395,25.36867261],[59.85627735,25.36527741],[59.85933757,25.36590123],[59.86012805,25.36448467],[59.86861682,25.36364746],[59.87100947,25.35743785],[59.87512732,25.35734475],[59.87911832,25.35541725],[59.8867166,25.35405171],[59.89075685,25.34910405],[59.89183712,25.34544277],[59.89148974,25.3439784],[59.88674414,25.34146786],[59.89430642,25.34216523],[59.89473093,25.34216523],[59.90067256,25.34146786],[59.90233171,25.34237444],[59.89747024,25.34300196],[59.89191425,25.35116124],[59.89282274,25.35522795],[59.89550257,25.35900664],[59.89976275,25.35840666],[59.8958112,25.35541534],[59.89453793,25.35234678],[59.89561832,25.35178888],[59.89827836,25.35228944],[59.9041059,25.35654104],[59.91244757,25.36006284],[59.91316533,25.36026907],[59.95681155,25.37004125],[59.98500025,25.37549102],[59.99901521,25.37743127],[60.04363835,25.38133764],[60.07073426,25.38058031],[60.08110845,25.37971365],[60.09014714,25.37831855],[60.09849155,25.37632811],[60.10621452,25.37311804],[60.10875702,25.37156928],[60.11221755,25.36816132],[60.11302996,25.36668241],[60.11590898,25.35847914],[60.10740054,25.35659373],[60.10734594,25.35256755],[60.11238515,25.34802365],[60.1171875,25.34542406],[60.11812103,25.34501135],[60.14938486,25.33797204],[60.17657328,25.33604443],[60.17747164,25.33582056],[60.18239248,25.33425272],[60.18838716,25.32898736],[60.19293785,25.32790685],[60.1967355,25.32451201],[60.19726586,25.32424963],[60.19936371,25.32424724],[60.20135605,25.32472277],[60.2053076,25.32620096],[60.20985246,25.33119452],[60.20580494,25.33440697],[60.20439458,25.33817732],[60.20068824,25.3423177],[60.18977177,25.34608757],[60.19114256,25.36199737],[60.19602525,25.36825204],[60.22149003,25.37939751],[60.24066937,25.38287926],[60.26031697,25.38808417],[60.2761929,25.38864243],[60.29359305,25.38477385],[60.3034631,25.37751114],[60.31046486,25.36957133],[60.31377053,25.36254847],[60.31377101,25.35899675],[60.31168246,25.35541773],[60.30963993,25.35413444],[60.30741525,25.35466886],[60.29889774,25.35260975],[60.29726398,25.35299826],[60.29612005,25.35609281],[60.29567242,25.35401964],[60.29782236,25.34879971],[60.30392766,25.34382951],[60.30428565,25.34175181],[60.30751073,25.33915162],[60.30842435,25.33565986],[60.31369698,25.33206606],[60.32341182,25.32954764],[60.33785474,25.33056235],[60.34935641,25.32913435],[60.35502017,25.32614195],[60.36380255,25.32519937],[60.36645901,25.32582176],[60.36948657,25.32405114],[60.37402761,25.32448804],[60.37692392,25.32170761],[60.37970686,25.32173622],[60.38324642,25.31929183],[60.39029896,25.31874812],[60.39280725,25.31703734],[60.40234613,25.31721365],[60.40582216,25.31674886],[60.41843522,25.31438506],[60.42337716,25.3125],[60.42376483,25.3125],[60.42706704,25.31086862],[60.42754245,25.31005776],[60.42717075,25.30541885],[60.43018484,25.30186713],[60.43238497,25.30197942],[60.42737997,25.29838383],[60.42514825,25.29886162],[60.42330384,25.30072153],[60.42396343,25.29836762],[60.45075881,25.29243934],[60.45611727,25.29237056],[60.46160936,25.28874457],[60.46458852,25.28877342],[60.46735084,25.28718281],[60.46875,25.28738844],[60.47083044,25.28911662],[60.47284985,25.29284132],[60.47329104,25.29551065],[60.47199714,25.2982136],[60.47140992,25.29899454],[60.46875,25.29966521],[60.46235347,25.30231488],[60.4605906,25.30413997],[60.46040583,25.30711186],[60.45149541,25.3125],[60.45115638,25.3125],[60.44827223,25.31688035],[60.44814825,25.31795025],[60.45014513,25.32295024],[60.45442116,25.32830918],[60.45468974,25.33023953],[60.45404625,25.33118057],[60.44736981,25.33275998],[60.44208825,25.33548331],[60.44144964,25.33740437],[60.41834032,25.33741593],[60.40815008,25.33872735],[60.40536416,25.34389186],[60.40525675,25.34422648],[60.40303814,25.35197544],[60.40246356,25.35838044],[60.40273178,25.36367965],[60.40378106,25.36547601],[60.42958021,25.35674942],[60.43393052,25.35684538],[60.43361914,25.35262573],[60.43381906,25.35241485],[60.43444955,25.35256362],[60.43565965,25.35512483],[60.43415272,25.35750735],[60.43115461,25.35719216],[60.40336382,25.36624277],[60.40600204,25.37483394],[60.41592515,25.39057004],[60.43053806,25.40699446],[60.44697011,25.42009783],[60.46610177,25.43244755],[60.46828687,25.43331456],[60.46875,25.43331456],[60.46875,25.43359375],[60.48202407,25.43802094],[60.48515213,25.43798947],[60.48565161,25.43769383],[60.48742425,25.43372476],[60.48838866,25.43327451],[60.48898256,25.43340325],[60.48961234,25.43410063],[60.48957658,25.43426144],[60.48868561,25.43403625],[60.48777914,25.43829584],[60.49526501,25.44050241],[60.49987924,25.44137681],[60.50810385,25.44224334],[60.52415431,25.44308031],[60.53194058,25.44305074],[60.53802383,25.44231021],[60.54882503,25.4400748],[60.55563676,25.43812501],[60.56738961,25.43352675],[60.5698359,25.43244815],[60.57559693,25.4265089],[60.58190966,25.42271066],[60.58609664,25.41697073],[60.58808815,25.41522813],[60.59319902,25.41212344],[60.59343958,25.41190445],[60.60516667,25.39984071],[60.60740864,25.39532638],[60.60772872,25.39444125],[60.61004365,25.38614965],[60.61004591,25.38561082],[60.60864854,25.38243794],[60.60915661,25.37067521],[60.60758412,25.36390436],[60.60268128,25.35480762],[60.59963214,25.35465753],[60.60097086,25.35226321],[60.59512687,25.34752893],[60.60410607,25.34117818],[60.6020323,25.33683681],[60.60449791,25.33640587],[60.60524583,25.33952916],[60.61276841,25.33503532],[60.61472344,25.32614684],[60.621876,25.31770086],[60.62081814,25.31430352],[60.61840165,25.31351113],[60.61436295,25.31472635],[60.61444151,25.31409466],[60.61572206,25.3125],[60.61568582,25.31235611],[60.6185652,25.31123781],[60.62394238,25.31074262],[60.62417173,25.31043863],[60.62692225,25.30316567],[60.62704551,25.30235064],[60.62630451,25.29638946],[60.62602246,25.29575622],[60.62283885,25.29495656],[60.62219274,25.29676652],[60.61953723,25.29281235],[60.61649275,25.29164493],[60.61237943,25.29210114],[60.61205006,25.29101634],[60.60871685,25.28989184],[60.60477996,25.29316318],[60.60445762,25.29792094],[60.60316062,25.29371655],[60.60520935,25.29117656],[60.60223556,25.29227388],[60.60767925,25.28852475],[60.60839427,25.28532386],[60.60890746,25.28493607],[60.6097517,25.28468156],[60.63257527,25.28018618],[60.64076197,25.28034115],[60.65559971,25.27856505],[60.67688203,25.27462614],[60.70444155,25.27596045],[60.71687305,25.27535927],[60.72468924,25.27207172],[60.73869884,25.27172041],[60.73940766,25.27154601],[60.74337661,25.26979375],[60.74371505,25.26646245],[60.74411428,25.26635635],[60.74793196,25.2661519],[60.74421811,25.26716733],[60.74405587,25.26939094],[60.74683166,25.26976085],[60.74747705,25.26785672],[60.75071514,25.26915657],[60.75177908,25.26551092],[60.75389743,25.26398075],[60.77027094,25.2617892],[60.77403641,25.26256955],[60.77803934,25.26146221],[60.78274477,25.26167905],[60.78834903,25.2605741],[60.79552114,25.25861836],[60.7998296,25.25447845],[60.80752444,25.25415444],[60.81122458,25.25198162],[60.8203125,25.25167406],[60.83308935,25.25220275],[60.83927953,25.2482357],[60.84228563,25.24841476],[60.84814966,25.24632573],[60.84962606,25.24162352],[60.85129762,25.24016285],[60.85192156,25.24002671],[60.8743065,25.23702723],[60.89669144,25.23402774],[60.90614033,25.23133516],[60.91655087,25.23043931],[60.93112123,25.22687101],[60.95955753,25.22167963],[60.98799384,25.21648824],[61.01852089,25.20951283],[61.04904795,25.20253742],[61.08003473,25.19440854],[61.09961307,25.18858647],[61.12237942,25.18117386],[61.14514577,25.17376125],[61.16277575,25.16766024],[61.171875,25.16350436],[61.17247415,25.16336632],[61.1773597,25.15754426],[61.17859995,25.14810443],[61.18165803,25.14824796],[61.18168652,25.14790988],[61.18035817,25.14553916],[61.18003356,25.14536154],[61.17700744,25.14539862],[61.17543328,25.14585495],[61.17415965,25.14665842],[61.17373621,25.14748681],[61.17306328,25.15063465],[61.17317951,25.14468265],[61.18011844,25.13968766],[61.18203402,25.13671875],[61.18216395,25.13667142],[61.18169332,25.13461864],[61.17883718,25.13321853],[61.18000925,25.12923193],[61.17798054,25.12595987],[61.18354547,25.12261987],[61.18420696,25.12235785],[61.20818526,25.11766529],[61.23216355,25.11297274],[61.24833655,25.10719573],[61.27634144,25.09996247],[61.30336374,25.09129065],[61.33038604,25.08261883],[61.36379927,25.07489759],[61.39721251,25.06717634],[61.42167938,25.05871046],[61.42488813,25.06040204],[61.4254837,25.06201827],[61.42506802,25.06372035],[61.42025447,25.06729305],[61.42170525,25.07101798],[61.42085314,25.0726608],[61.42057085,25.07074297],[61.41809905,25.06813896],[61.41126728,25.07029855],[61.40952837,25.07184243],[61.41028285,25.07673216],[61.41581011,25.08527946],[61.42736018,25.09073794],[61.45065427,25.09478581],[61.44964814,25.09719753],[61.4505794,25.09803414],[61.46677995,25.10062385],[61.46955073,25.10206831],[61.48113513,25.10245454],[61.4815222,25.10262227],[61.48127103,25.10401106],[61.47940052,25.10570812],[61.48636901,25.11136687],[61.48618793,25.11451817],[61.48345435,25.11705232],[61.48299324,25.11961484],[61.48105323,25.11996615],[61.47913826,25.12461066],[61.47850084,25.12483847],[61.47733665,25.12497723],[61.47253895,25.12246788],[61.47027612,25.11841154],[61.46066225,25.11925983],[61.46787524,25.12083375],[61.46844125,25.12333941],[61.47070074,25.12552655],[61.47522306,25.12604666],[61.47858906,25.12781453],[61.47892845,25.13060534],[61.48186445,25.12986958],[61.48202527,25.13240147],[61.48604763,25.13450635],[61.48631215,25.13490546],[61.48618793,25.13671875],[61.48584712,25.13671875],[61.48503745,25.13874876],[61.48527884,25.13941205],[61.49465477,25.14571607],[61.4983474,25.14723337],[61.49989855,25.1545999],[61.5022819,25.15635741],[61.5024029,25.15668225],[61.5010246,25.15884721],[61.501598,25.16168082],[61.50370407,25.16414285],[61.50289905,25.16648495],[61.49920428,25.16598463],[61.49703956,25.16763771],[61.49501634,25.16873908],[61.49271595,25.16809833],[61.49159575,25.16923666],[61.49079287,25.17864227],[61.48944247,25.18069315],[61.48598182,25.18216932],[61.4810698,25.18218863],[61.47958994,25.18380177],[61.48579705,25.18400085],[61.49096513,25.18238771],[61.49208665,25.18094695],[61.49305046,25.17262435],[61.49505818,25.17455935],[61.49589753,25.17798197],[61.49769247,25.17847621],[61.49766386,25.17429817],[61.49524605,25.17100155],[61.49496031,25.16971624],[61.49566412,25.16966546],[61.49710596,25.17001367],[61.49744856,25.17039514],[61.49914265,25.17414105],[61.50304878,25.17551982],[61.50602782,25.17798376],[61.51008582,25.17962062],[61.51899791,25.18085778],[61.52056062,25.18184066],[61.52155805,25.18374753],[61.52136874,25.18413234],[61.50404167,25.18971801],[61.50372946,25.18992484],[61.50063384,25.19585395],[61.49833751,25.19771576],[61.49894404,25.1980859],[61.5011903,25.19616985],[61.50164402,25.19562185],[61.50402093,25.19061816],[61.50447905,25.19037867],[61.52134657,25.18533754],[61.52307224,25.18551993],[61.5234375,25.18554676],[61.5234375,25.18582594],[61.5327394,25.18721163],[61.53614235,25.18583417],[61.53957808,25.18136418],[61.56209135,25.18216908],[61.57407296,25.17977846],[61.57406998,25.17986465],[61.57353234,25.18377292],[61.56487918,25.18805802],[61.56075275,25.19236863],[61.56013656,25.19468892],[61.56013608,25.20240903],[61.56186175,25.20709646],[61.56206155,25.22020566],[61.56640863,25.22280502],[61.56945026,25.22073376],[61.57249892,25.22049415],[61.57359457,25.22235036],[61.57300723,25.22520876],[61.56822002,25.22878253],[61.55995536,25.22747195],[61.549389,25.22850585],[61.54694402,25.2310338],[61.54917097,25.23475671],[61.54857135,25.23826253],[61.55078185,25.23488677],[61.54900491,25.22959328],[61.55934048,25.22830915],[61.57050455,25.22953987],[61.57372141,25.22783911],[61.57548201,25.22080827],[61.57069588,25.2185328],[61.56493056,25.22061038],[61.56400394,25.21915627],[61.56495416,25.21469593],[61.56299984,25.19909573],[61.56313932,25.19823945],[61.57283831,25.19519043],[61.57452476,25.19269443],[61.57524586,25.18775785],[61.57710576,25.18650734],[61.57708216,25.18097436],[61.57782996,25.17910492],[61.57815075,25.17859328],[61.58250761,25.17748475],[61.58675575,25.17717636],[61.61229694,25.17633915],[61.62510586,25.17575181],[61.65897608,25.17050946],[61.6602782,25.17050934],[61.66714215,25.17134595],[61.66878474,25.17333555],[61.66771102,25.17900014],[61.66121995,25.18770802],[61.66093993,25.18862271],[61.66177845,25.19102287],[61.66355491,25.19229436],[61.66946578,25.19245017],[61.67817044,25.19083953],[61.67957187,25.18705344],[61.67905843,25.18176305],[61.68095481,25.18087423],[61.68172193,25.18087912],[61.68347454,25.181391],[61.68363404,25.18154526],[61.68902814,25.18828714],[61.69488204,25.19221377],[61.70023048,25.19321585],[61.70049286,25.19365072],[61.7001574,25.19586778],[61.69479108,25.20776486],[61.69469082,25.20959175],[61.69580102,25.21137786],[61.69779265,25.21319091],[61.72631216,25.23442852],[61.73169255,25.24091816],[61.73380208,25.24960685],[61.73292744,25.25236416],[61.7289139,25.25572395],[61.73412538,25.25490224],[61.73465896,25.25457263],[61.73534465,25.25193775],[61.73380804,25.24391127],[61.7336477,25.24336684],[61.72857773,25.23529935],[61.72294366,25.22991073],[61.69632506,25.21024156],[61.69548237,25.20835114],[61.70239484,25.19632792],[61.70224905,25.19362772],[61.69301844,25.18962526],[61.68306875,25.17872036],[61.67854226,25.17931211],[61.67759967,25.18885911],[61.67195833,25.19053972],[61.66280866,25.19042516],[61.66424727,25.18568635],[61.67165923,25.17782962],[61.67160964,25.17262542],[61.66983688,25.16600645],[61.66997957,25.16577208],[61.67151344,25.16521263],[61.67864275,25.16381288],[61.68689644,25.16375387],[61.70919406,25.15611565],[61.73221076,25.14223254],[61.73786998,25.14097655],[61.7439208,25.14172637],[61.74310446,25.14469254],[61.73545432,25.14917684],[61.73265171,25.15237415],[61.73040557,25.15198934],[61.72606885,25.15586245],[61.72191632,25.15704346],[61.72168911,25.15891743],[61.72327554,25.15919697],[61.73066056,25.15661407],[61.73091066,25.15649736],[61.73346913,25.15282452],[61.74323034,25.14949536],[61.74590576,25.14556813],[61.74661446,25.14418244],[61.74620664,25.13797426],[61.74528241,25.13671875],[61.7450881,25.13671875],[61.74493027,25.13501883],[61.74503815,25.13501966],[61.75337255,25.13475215],[61.7582705,25.13608515],[61.75863326,25.13671875],[61.75853145,25.13671875],[61.76039708,25.13847983],[61.76161265,25.13671875],[61.76201975,25.13671875],[61.76644826,25.13456953],[61.76786876,25.13671875],[61.76777494,25.13671875],[61.76781774,25.13742244],[61.76952052,25.13948715],[61.77214086,25.14127755],[61.77613235,25.14299405],[61.77665305,25.15251195],[61.77667546,25.15324557],[61.77653742,25.15366864],[61.77159226,25.15767372],[61.77137625,25.15803087],[61.77151477,25.16094291],[61.77167106,25.16165495],[61.7726897,25.16257715],[61.77944732,25.1635437],[61.78036284,25.16528058],[61.77965951,25.16821027],[61.78151095,25.1692723],[61.78247285,25.16494298],[61.78135598,25.16175365],[61.77939832,25.16079092],[61.77369583,25.16165554],[61.77234554,25.15907037],[61.77814436,25.15347326],[61.77730215,25.14493525],[61.77969921,25.14238644],[61.77318537,25.14034975],[61.77190876,25.13941026],[61.77063954,25.13671875],[61.77059996,25.13517773],[61.76802266,25.13179088],[61.76757634,25.13152266],[61.76390815,25.13098872],[61.76175725,25.12939906],[61.76129603,25.12925804],[61.75847864,25.13151765],[61.75386012,25.13116705],[61.74967945,25.13248801],[61.74490964,25.12809515],[61.74456441,25.12736797],[61.7453655,25.12558806],[61.74577355,25.12555945],[61.74846137,25.12796998],[61.75390255,25.12916243],[61.75879776,25.12414765],[61.75837672,25.12005353],[61.76763475,25.10249436],[61.76906765,25.09751165],[61.76906717,25.09140027],[61.76158464,25.08457196],[61.74903882,25.08037567],[61.73648417,25.07279766],[61.73681152,25.06872892],[61.74036336,25.06488633],[61.74263644,25.05049992],[61.74240625,25.04964757],[61.74116254,25.04751635],[61.73407066,25.04669464],[61.72971165,25.04338396],[61.72947204,25.04283881],[61.73119473,25.03559518],[61.72743034,25.03083491],[61.72508144,25.03093755],[61.73058891,25.02597475],[61.73218405,25.0222429],[61.7049501,24.98719982],[61.67771615,24.95215673],[61.6504822,24.91711364],[61.62324825,24.88207056],[61.5960143,24.84702747],[61.56878035,24.81198438],[61.54154639,24.7769413],[61.51431244,24.74189821],[61.48707849,24.70685512],[61.45984454,24.67181203],[61.43261059,24.63676895],[61.40537664,24.60172586],[61.37814269,24.56668277],[61.35090874,24.53163969],[61.32367479,24.4965966],[61.29644083,24.46155351],[61.26920688,24.42651043],[61.24197293,24.39146734],[61.21473898,24.35642425],[61.18750503,24.32138117],[61.16027108,24.28633808],[61.13303713,24.25129499],[61.10580318,24.21625191],[61.07856923,24.18120882],[61.05133527,24.14616573],[61.02410132,24.11112264],[60.99686737,24.07607956],[60.96963342,24.04103647],[60.94239947,24.00599338],[60.91516552,23.9709503],[60.88793157,23.93590721],[60.86069762,23.90086412],[60.83346367,23.86582104],[60.80622971,23.83077795],[60.77899576,23.79573486],[60.75176181,23.76069178],[60.72452786,23.72564869],[60.69729391,23.6906056],[60.67005996,23.65556251],[60.64282601,23.62051943],[60.61559206,23.58547634],[60.5883581,23.55043325],[60.56112415,23.51539017],[60.5338902,23.48034708],[60.50665625,23.44530399],[60.4794223,23.41026091],[60.45218835,23.37521782],[60.4249544,23.34017473],[60.39772045,23.30513165],[60.3704865,23.27008856],[60.34325254,23.23504547],[60.31601859,23.20000238],[60.28878464,23.1649593],[60.26155069,23.12991621],[60.23431674,23.09487312],[60.20708279,23.05983004],[60.17984884,23.02478695],[60.15261489,22.98974386],[60.12538094,22.95470078],[60.09814698,22.91965769],[60.07091303,22.8846146],[60.04367908,22.84957152],[60.01644513,22.81452843],[59.98921118,22.77948534],[59.96197723,22.74444225],[59.93474328,22.70939917],[59.90750933,22.67435608],[59.88027538,22.63931299],[59.85304142,22.60426991],[59.82580747,22.56922682],[59.79857352,22.53418373],[59.79749048,22.5367434],[59.79546797,22.53802121],[59.79354024,22.53875315],[59.78420842,22.53847444],[59.76556921,22.53279471],[59.76148343,22.53284252],[59.76065862,22.53237784],[59.76023746,22.53164697],[59.7623049,22.52941072],[59.76309311,22.52490115],[59.76366925,22.52466714],[59.76514673,22.52489674],[59.76817024,22.52780914],[59.77225888,22.52832413],[59.78043652,22.52746582],[59.78433943,22.52540576],[59.7861979,22.52317417],[59.78582621,22.51888275],[59.78025055,22.51716614],[59.77448905,22.51716614],[59.76798427,22.51922596],[59.76440525,22.52261913],[59.76209641,22.5230118],[59.76096487,22.52530146],[59.75566971,22.52899528],[59.75575495,22.53085685],[59.75781512,22.53219175],[59.7564131,22.53348207],[59.74733651,22.53348196],[59.74433291,22.53568327],[59.73592424,22.53637612],[59.73276925,22.52800572],[59.72825933,22.52476335],[59.73393011,22.51886261],[59.73753786,22.51801038],[59.73872018,22.51450896],[59.74353754,22.5116595],[59.74396706,22.50566793],[59.74780524,22.5],[59.74783576,22.5],[59.74877203,22.49851334],[59.75146866,22.49699116],[59.75698197,22.49745917],[59.76049745,22.49659455],[59.76096427,22.49643004],[59.76505685,22.49343944],[59.76455247,22.49180687],[59.765625,22.49107134],[59.765625,22.48549104],[59.75342512,22.47862303],[59.75297987,22.47830665],[59.7516607,22.47504854],[59.75049257,22.47494555],[59.74829555,22.47548807],[59.745965,22.47641826],[59.74397135,22.47829497],[59.73965633,22.47820461],[59.73419094,22.48133647],[59.73328614,22.48317313],[59.73009813,22.48339081],[59.72909844,22.48619211],[59.73019886,22.48854482],[59.73321235,22.48856032],[59.73373735,22.48422801],[59.73701155,22.48372448],[59.73522305,22.48929071],[59.73838794,22.49118745],[59.73836255,22.49453294],[59.73636425,22.49501693],[59.73396206,22.49405694],[59.73393035,22.49121416],[59.73263514,22.49008346],[59.72646141,22.49417043],[59.72396886,22.49355233],[59.72253203,22.49601614],[59.71966195,22.49653471],[59.71853793,22.49836361],[59.71621275,22.49832845],[59.71466947,22.5],[59.71458185,22.5],[59.71435416,22.50048757],[59.71429622,22.50740731],[59.72563374,22.51654875],[59.72941864,22.52226007],[59.72740388,22.52537406],[59.73179758,22.52971542],[59.73201728,22.53435707],[59.73190176,22.53498673],[59.73062456,22.53641546],[59.73018265,22.53680074],[59.72415614,22.53815353],[59.72150385,22.53776264],[59.71743155,22.53987014],[59.71259952,22.53968251],[59.69621718,22.54359365],[59.69353795,22.54331768],[59.67057824,22.55323494],[59.64858854,22.55915165],[59.63419712,22.55890274],[59.62672913,22.56039226],[59.59470344,22.56230545],[59.59119952,22.56611574],[59.57595026,22.56564891],[59.54690707,22.56810975],[59.54160845,22.56961584],[59.54107118,22.56963491],[59.54080045,22.56897676],[59.54300594,22.56625414],[59.54091835,22.56492794],[59.53932917,22.56605566],[59.54041386,22.55815256],[59.53734076,22.55438983],[59.53260911,22.55412936],[59.52986002,22.55587602],[59.52838624,22.55451775],[59.52686512,22.54951465],[59.52343214,22.54805291],[59.51809895,22.54962373],[59.51483297,22.54833257],[59.51505518,22.54991913],[59.50924504,22.55342686],[59.51158237,22.55701196],[59.50728905,22.55746496],[59.50488651,22.55952382],[59.51535428,22.57108223],[59.51840985,22.57020235],[59.5189656,22.56826437],[59.51492393,22.56258595],[59.51488388,22.55946851],[59.51855946,22.56213832],[59.52415955,22.56216097],[59.52836502,22.56354797],[59.53380263,22.55990362],[59.53526866,22.55992806],[59.5366981,22.56071484],[59.53812802,22.56440735],[59.53761566,22.56786525],[59.52902174,22.57148933],[59.52910972,22.57558286],[59.51281416,22.58525074],[59.50897956,22.58609354],[59.50573897,22.59036326],[59.49812937,22.59407973],[59.49593675,22.59623146],[59.48896515,22.59740412],[59.48503935,22.60238993],[59.47671056,22.60691464],[59.46223915,22.61837566],[59.45328808,22.62761331],[59.42976797,22.64829802],[59.42491126,22.65467441],[59.4140625,22.65987706],[59.4140625,22.66015625],[59.39486885,22.67052996],[59.38883233,22.67522121],[59.38869202,22.67578125],[59.38836777,22.67578125],[59.38509977,22.67873681],[59.38263464,22.68183625],[59.38205743,22.68272913],[59.38084245,22.68571687],[59.38077664,22.68959546],[59.37914157,22.69230092],[59.37877762,22.69529545],[59.38009512,22.70298135],[59.37612522,22.70619404],[59.36802566,22.70650184],[59.36161876,22.70837164],[59.35760796,22.71109092],[59.3511219,22.71963573],[59.34722447,22.72690833],[59.34326661,22.73449504],[59.34309495,22.73489547],[59.34066832,22.74439585],[59.3404479,22.74485743],[59.33671904,22.75029874],[59.33468425,22.75190234],[59.33404005,22.7521106],[59.3280884,22.75168514],[59.32304466,22.75610626],[59.3219161,22.75636065],[59.31993234,22.75662291],[59.30785263,22.75503016],[59.30322063,22.75709116],[59.29603291,22.7627871],[59.29161394,22.7643162],[59.28502643,22.774737],[59.28146064,22.78590918],[59.27613556,22.79339302],[59.27463615,22.79872346],[59.2663933,22.81300235],[59.26446116,22.81968796],[59.26422393,22.82634544],[59.25526082,22.83093023],[59.25185657,22.83411121],[59.23812997,22.8515625],[59.23812985,22.8515625],[59.23826277,22.8545897],[59.23599362,22.85900056],[59.23597705,22.86254001],[59.23449612,22.86816394],[59.23296535,22.86964703],[59.23311222,22.87233913],[59.22788811,22.87963831],[59.22692251,22.88346756],[59.22493196,22.88518715],[59.2232604,22.88919497],[59.22203684,22.89377165],[59.22544384,22.89698851],[59.22427321,22.90131497],[59.21848941,22.91277444],[59.21708536,22.91809142],[59.21331215,22.92278004],[59.21314347,22.92429996],[59.21307886,22.92671013],[59.20647585,22.94425762],[59.20568764,22.94574165],[59.1941328,22.95969558],[59.18819416,22.96525896],[59.18671966,22.96897674],[59.15907836,22.97854447],[59.143121,22.99099064],[59.12397373,22.99918652],[59.11677492,23.00583565],[59.10297954,23.01482916],[59.0966531,23.02249002],[59.09096408,23.02734375],[59.09068561,23.02734375],[59.07356024,23.04182994],[59.06779754,23.0499984],[59.06758213,23.05037975],[59.0625,23.06668532],[59.0625,23.06696415],[59.06166446,23.06926846],[59.05884993,23.08341825],[59.04599166,23.09343386],[59.03150034,23.10085285],[59.02368164,23.10917461],[59.02004588,23.11125243],[59.01053107,23.12475395],[58.99672556,23.14996493],[58.99075091,23.16998374],[58.99197304,23.17736781],[58.99336672,23.17954695],[58.99517703,23.19448936],[58.99492502,23.19579315],[58.99339056,23.19450545],[58.99339294,23.19819045],[58.99127817,23.203125],[58.99115515,23.203125],[58.99072278,23.20433354],[58.98475814,23.21100402],[58.97640908,23.21688795],[58.95908785,23.23287845],[58.95002151,23.23598337],[58.94637167,23.23766911],[58.94027567,23.24147666],[58.93936241,23.24230433],[58.93595374,23.24571013],[58.93472576,23.24738991],[58.92916107,23.25627995],[58.92788267,23.26183307],[58.92718196,23.25732696],[58.9253602,23.25749874],[58.92657483,23.26402175],[58.92522013,23.27264786],[58.92349172,23.2733345],[58.91945696,23.28872931],[58.91715348,23.29083681],[58.91792583,23.29397786],[58.91711366,23.29985595],[58.91908217,23.30368996],[58.91499281,23.30714774],[58.91283548,23.31189942],[58.9142189,23.31723571],[58.91807735,23.31620395],[58.91893876,23.31709576],[58.91301262,23.31931972],[58.9096204,23.32332003],[58.90387273,23.32639253],[58.89779985,23.32756686],[58.89625955,23.32606936],[58.88809931,23.33125854],[58.88400614,23.33445478],[58.88161504,23.33903313],[58.87535965,23.34622693],[58.87045503,23.34846306],[58.86619616,23.34898734],[58.86216617,23.35319495],[58.85317445,23.3594048],[58.85028744,23.36704803],[58.84468687,23.37237752],[58.84101808,23.37413335],[58.83793306,23.37424505],[58.83460414,23.37588835],[58.82964301,23.37890625],[58.82944155,23.37890625],[58.82509005,23.38117588],[58.82229865,23.38389671],[58.81536806,23.38573956],[58.81278205,23.38941956],[58.80632651,23.39205456],[58.80427253,23.39435184],[58.79911005,23.40521014],[58.79824352,23.41073072],[58.79688036,23.41249847],[58.78466141,23.42229843],[58.78448117,23.42257798],[58.78055286,23.44433355],[58.78048503,23.44932985],[58.78165972,23.45128095],[58.78009295,23.4538064],[58.78049016,23.45914507],[58.77782881,23.46258056],[58.77928185,23.46809983],[58.77778006,23.46973276],[58.77957726,23.47088444],[58.77839994,23.47246373],[58.77973461,23.47362185],[58.77951682,23.47560465],[58.77629304,23.47727537],[58.77732301,23.48014724],[58.77560008,23.48174906],[58.77573895,23.48457432],[58.77271056,23.49017882],[58.76966023,23.48850012],[58.76904154,23.49087477],[58.77014577,23.49285054],[58.76799941,23.49663866],[58.76617002,23.49843645],[58.76335597,23.49773562],[58.76354706,23.50093842],[58.76043868,23.50192654],[58.75986755,23.50249302],[58.75877464,23.50655735],[58.75698793,23.50735474],[58.7568475,23.50767756],[58.75804436,23.50871325],[58.76206815,23.50789297],[58.76414442,23.5096755],[58.76373684,23.51077974],[58.75680292,23.51362753],[58.75417018,23.51169181],[58.75445211,23.51348662],[58.75212884,23.51509345],[58.75200284,23.51533866],[58.75533724,23.51918256],[58.75425744,23.52252805],[58.75382912,23.52279985],[58.74990237,23.52239156],[58.74873865,23.51878655],[58.74615586,23.5162394],[58.74483907,23.51650846],[58.74469733,23.51682091],[58.74789345,23.52072561],[58.74789035,23.52137804],[58.74598086,23.52361274],[58.74408877,23.51967645],[58.73948586,23.51990986],[58.74239397,23.51838803],[58.74208295,23.51697195],[58.73874915,23.51835501],[58.73656857,23.51769471],[58.73498845,23.52144468],[58.72994161,23.52126396],[58.72941542,23.52099454],[58.72761488,23.51858222],[58.73092616,23.51437175],[58.73054731,23.51058066],[58.72832811,23.50926375],[58.72867918,23.51273823],[58.72689748,23.51393414],[58.72586977,23.51262045],[58.72639084,23.51074708],[58.72497034,23.50930846],[58.72340715,23.5103538],[58.72421622,23.51204968],[58.72173786,23.51420796],[58.72467136,23.51464272],[58.72602045,23.51761878],[58.72070503,23.51985991],[58.71972334,23.52133453],[58.72083867,23.52108085],[58.72077525,23.5265069],[58.72330201,23.5269711],[58.72353184,23.52744818],[58.72425115,23.53103435],[58.72297835,23.53216088],[58.72108054,23.53277481],[58.7109375,23.53459823],[58.70887423,23.53478754],[58.70157897,23.53383637],[58.69435334,23.5342617],[58.68790245,23.53199637],[58.68713331,23.53187013],[58.68287861,23.53229141],[58.68237925,23.53249526],[58.67518055,23.53718865],[58.67492366,23.53928328],[58.66715264,23.54286015],[58.66663075,23.54489207],[58.66771114,23.5458672],[58.66706193,23.54728377],[58.66674435,23.54778004],[58.66225684,23.54966533],[58.66191542,23.55001438],[58.660465,23.55319834],[58.66049707,23.5546875],[58.66040993,23.5546875],[58.66037881,23.55564821],[58.66190076,23.55691564],[58.6611526,23.55765617],[58.65985668,23.55700684],[58.65949667,23.5546875],[58.65897787,23.5546875],[58.65772641,23.54922736],[58.65743756,23.54874635],[58.65476215,23.54671156],[58.64929211,23.54533315],[58.64912617,23.54709947],[58.65207255,23.54809034],[58.65227664,23.54956985],[58.65203965,23.55011785],[58.65164387,23.55021846],[58.64915132,23.54921865],[58.64865315,23.55047405],[58.64564586,23.55104315],[58.6444813,23.55317676],[58.64549506,23.5546875],[58.64688694,23.55632651],[58.64859414,23.55703187],[58.65298772,23.55770886],[58.65055323,23.55975378],[58.64805043,23.55832148],[58.64259684,23.55751204],[58.64093935,23.55976546],[58.6435225,23.56199455],[58.64278185,23.56301773],[58.63974845,23.56197834],[58.63899517,23.56373107],[58.63606608,23.56413817],[58.63095975,23.56182051],[58.62949145,23.56288207],[58.62974298,23.5646522],[58.62808383,23.56443834],[58.62631345,23.56672931],[58.62217104,23.56878996],[58.61482418,23.56940472],[58.61429667,23.56958783],[58.61235344,23.57133186],[58.61204851,23.57182872],[58.61149132,23.57743371],[58.60768807,23.57999694],[58.60855305,23.58342731],[58.60427225,23.58681011],[58.60648763,23.59051538],[58.60515153,23.59179962],[58.60512722,23.59511065],[58.60275304,23.59571195],[58.60207057,23.59760463],[58.59817338,23.59856451],[58.59803975,23.59910786],[58.59838772,23.60053563],[58.60033405,23.60081744],[58.60554957,23.60697937],[58.60450566,23.60908627],[58.60138536,23.60886538],[58.60020614,23.61063802],[58.60159445,23.61202216],[58.59933412,23.61471403],[58.59911644,23.61813974],[58.60105205,23.61876655],[58.5992527,23.62090731],[58.59992814,23.62475038],[58.59699893,23.62614977],[58.59566772,23.62808704],[58.59516645,23.62518871],[58.59715796,23.62261462],[58.597965,23.61812234],[58.59629107,23.61600184],[58.59346271,23.61736357],[58.59171927,23.62119782],[58.58652532,23.62603438],[58.58386457,23.62170994],[58.57874715,23.62663627],[58.57623732,23.62187648],[58.57198274,23.62270343],[58.56336784,23.62081146],[58.56245637,23.62390625],[58.56383002,23.62440383],[58.56571984,23.62332582],[58.56461656,23.62685013],[58.56554747,23.62719333],[58.56759763,23.62526667],[58.56830275,23.62858522],[58.57202256,23.62817371],[58.57027984,23.63050234],[58.56492937,23.63276315],[58.56508863,23.63674724],[58.56004631,23.63508296],[58.55244303,23.63460064],[58.55121934,23.63298786],[58.55037105,23.63288546],[58.54789245,23.63308406],[58.54788721,23.63497961],[58.54367471,23.63199294],[58.53966546,23.63186395],[58.53604865,23.63361406],[58.53550136,23.63360965],[58.52925467,23.63327455],[58.52665305,23.63088965],[58.52363312,23.63036096],[58.51993215,23.63033247],[58.51725733,23.63065732],[58.51079357,23.63345254],[58.50763607,23.63763428],[58.50952947,23.63934243],[58.50956202,23.63991916],[58.50915503,23.64045084],[58.50384462,23.64490855],[58.5015794,23.64544785],[58.50111473,23.64536715],[58.49890792,23.64261508],[58.49712145,23.6418879],[58.49658394,23.64180624],[58.49391317,23.64412987],[58.49333262,23.64418411],[58.49234164,23.64383638],[58.49117291,23.64215946],[58.49135756,23.63942456],[58.48939633,23.63714814],[58.48573577,23.63705814],[58.48514211,23.6338346],[58.48141217,23.6320219],[58.48084676,23.62481391],[58.47147715,23.61985445],[58.46275735,23.61687875],[58.45836413,23.61392331],[58.44895542,23.61096764],[58.42768562,23.60527122],[58.41378832,23.60495544],[58.40863228,23.60383093],[58.39093125,23.60315645],[58.38445997,23.60331976],[58.37008905,23.60515976],[58.359375,23.60518956],[58.34220111,23.60438216],[58.32190335,23.60832584],[58.3010751,23.61383176],[58.27271092,23.62530768],[58.26140141,23.63131523],[58.25506043,23.63630962],[58.23079264,23.65119791],[58.22312474,23.65836585],[58.21641338,23.66090131],[58.21642065,23.66312325],[58.20861125,23.67125285],[58.19869506,23.67855084],[58.19486082,23.67891812],[58.1941998,23.68072486],[58.18967438,23.68163562],[58.17718995,23.68882966],[58.17171562,23.68942606],[58.17099285,23.69053805],[58.15250754,23.695894],[58.14766908,23.69874835],[58.12622035,23.70556915],[58.10438704,23.71093035],[58.09336781,23.71286106],[58.0634377,23.71268356],[58.05420697,23.71420038],[58.03349924,23.71445942],[58.02981305,23.71448803],[58.00760937,23.7126106],[57.98069686,23.71023947],[57.95378435,23.70786834],[57.92253184,23.70778132],[57.91288185,23.70835841],[57.89059007,23.71012986],[57.87804806,23.71254444],[57.86093688,23.71852756],[57.86004484,23.71888638],[57.83868456,23.72931933],[57.83697903,23.73036957],[57.8280673,23.73524165],[57.8072468,23.74931216],[57.80676556,23.74974585],[57.79665911,23.76288486],[57.79352951,23.76909435],[57.79338551,23.76941144],[57.79227245,23.77250266],[57.79171765,23.77732384],[57.79183555,23.78312576],[57.77531445,23.77392852],[57.77493346,23.77378345],[57.75829017,23.7691853],[57.75164366,23.76793683],[57.72657561,23.76793683],[57.71326828,23.76905286],[57.68733454,23.77235091],[57.67017794,23.77541995],[57.65625,23.77818084],[57.61502433,23.78881288],[57.58785462,23.79693854],[57.58748507,23.79708576],[57.56070322,23.8082751],[57.53392136,23.81946445],[57.5318104,23.82199895],[57.53243184,23.82558525],[57.52926815,23.82882786],[57.53184116,23.82563746],[57.5295732,23.82180202],[57.52578056,23.82303965],[57.52631426,23.82507956],[57.52753401,23.82497501],[57.52599025,23.82568967],[57.52505624,23.82363248],[57.52427495,23.82424283],[57.52494204,23.82603836],[57.52358627,23.82397532],[57.52072752,23.82521772],[57.52465606,23.83065856],[57.53471887,23.83050156],[57.53426147,23.8309201],[57.53384233,23.83105946],[57.52480865,23.83095503],[57.52094734,23.82666612],[57.51590514,23.82632744],[57.4931674,23.83513749],[57.47042966,23.84394753],[57.45692325,23.84619415],[57.43129933,23.85365015],[57.40567541,23.86110616],[57.38442695,23.86522687],[57.35924566,23.87399089],[57.33406436,23.88275492],[57.30465984,23.88920045],[57.28326643,23.89599371],[57.25584078,23.90610695],[57.25524902,23.90625],[57.25320554,23.90720987],[57.23044324,23.91441321],[57.21578455,23.92050946],[57.18033302,23.93569088],[57.17361987,23.93883646],[57.15122581,23.95049512],[57.13948727,23.95734882],[57.13728726,23.95874345],[57.11183822,23.97787786],[57.09660125,23.99098337],[57.09322894,23.99398267],[57.07814455,24.01076186],[57.07320321,24.01248062],[57.06374145,24.01846266],[57.03052557,24.04673815],[57.02598071,24.04683805],[57.02009678,24.05016017],[57.01959777,24.05048954],[56.9991343,24.06528151],[56.99193394,24.07077575],[56.97845447,24.08203125],[56.97819293,24.08203125],[56.953125,24.10212052],[56.953125,24.10239947],[56.93596172,24.11856258],[56.90605485,24.15170264],[56.89385974,24.16837657],[56.88963926,24.17590177],[56.88620818,24.17736077],[56.87382603,24.20193005],[56.85879886,24.21587145],[56.85894835,24.21716893],[56.85351086,24.22253692],[56.84732854,24.23213673],[56.8424139,24.23837686],[56.83731163,24.24310768],[56.82757902,24.25666654],[56.82595098,24.2578125],[56.82553434,24.2578125],[56.81174183,24.27938163],[56.80336404,24.28982866],[56.80235565,24.29255974],[56.7873472,24.31358099],[56.77233875,24.33460224],[56.75307339,24.35987794],[56.73380804,24.38515365],[56.71965396,24.40770972],[56.71523333,24.41096377],[56.7074908,24.41285193],[56.70586383,24.41596842],[56.69468784,24.42308271],[56.68233931,24.43359375],[56.68217361,24.43359375],[56.65109527,24.46250415],[56.64666581,24.46503818],[56.64455736,24.46817911],[56.63863754,24.47077453],[56.63650405,24.47670186],[56.62682343,24.48538864],[56.62605071,24.48814821],[56.62396312,24.48902845],[56.6015625,24.52260041],[56.6015625,24.52315843],[56.59772885,24.52896225],[56.57278407,24.56295812],[56.57087421,24.56733465],[56.56360078,24.57473135],[56.55951595,24.57995617],[56.55587041,24.58705795],[56.54960573,24.59415352],[56.55017138,24.59529006],[56.54781795,24.59791064],[56.54741967,24.60012495],[56.54182816,24.60703921],[56.54087424,24.609375],[56.54112816,24.609375],[56.54120922,24.60977626],[56.53974128,24.61032927],[56.54030156,24.61155891],[56.52726161,24.6374433],[56.5224725,24.64375114],[56.52112031,24.64816165],[56.51974106,24.64873695],[56.51439512,24.66002023],[56.50712311,24.66934693],[56.50645125,24.67336178],[56.50208855,24.67750335],[56.49566495,24.69239736],[56.49370384,24.69402635],[56.49433601,24.69523418],[56.49053073,24.6991086],[56.48280096,24.71327126],[56.48230577,24.71717334],[56.48215377,24.7175436],[56.47979295,24.71977663],[56.48054695,24.72090375],[56.47625625,24.73170686],[56.47532821,24.73138201],[56.47309601,24.73522484],[56.46878147,24.76052952],[56.46328115,24.77306247],[56.4595263,24.78515625],[56.45927787,24.78515625],[56.45627856,24.79614306],[56.45462537,24.79966867],[56.45174122,24.80464113],[56.44865954,24.80737364],[56.44725025,24.81140351],[56.44519961,24.81341934],[56.44108987,24.82442856],[56.43029416,24.83605373],[56.41940284,24.85955453],[56.41591477,24.86973417],[56.41269434,24.87284398],[56.41044807,24.87709153],[56.41028881,24.88277292],[56.40693605,24.88544583],[56.40460932,24.89109516],[56.40393376,24.89910567],[56.40059161,24.90224552],[56.3960433,24.91623557],[56.39292955,24.92062116],[56.38463426,24.94522452],[56.38060665,24.9609375],[56.38052762,24.9609375],[56.37382865,24.98042703],[56.37066102,24.98964882],[56.37015343,24.99453247],[56.36658752,25.00104642],[56.36594546,25.00910854],[56.36584032,25.00936484],[56.35993087,25.01175082],[56.35996234,25.01308525],[56.36203563,25.01419938],[56.36686707,25.02889335],[56.37531602,25.02996695],[56.36794543,25.03065252],[56.36515248,25.03473687],[56.36239696,25.0439893],[56.36234403,25.05185068],[56.36086631,25.05419445],[56.36166477,25.05951071],[56.36087644,25.07807982],[56.35829806,25.10707545],[56.35859418,25.10971761],[56.36044252,25.11084068],[56.35830772,25.11331642],[56.356287,25.12226975],[56.35651541,25.13671875],[56.35571694,25.15521371],[56.35832083,25.16861975],[56.36062682,25.17086816],[56.35973406,25.17170405],[56.35993075,25.17840016],[56.35814941,25.18791854],[56.36046731,25.2070899],[56.35911095,25.20934725],[56.36033881,25.22130406],[56.36496055,25.25011134],[56.36899042,25.26384795],[56.37211216,25.26686335],[56.37214363,25.26723146],[56.36992455,25.26839423],[56.37172675,25.27111101],[56.37317193,25.28608632],[56.37260556,25.29395294],[56.37152445,25.29502726],[56.37268972,25.29680037],[56.37267137,25.30455554],[56.37538624,25.30992305],[56.37139845,25.3125],[56.37099433,25.3125],[56.37073171,25.31554532],[56.37404573,25.31733692],[56.37758195,25.32195675],[56.38155305,25.32317853],[56.38175225,25.32377195],[56.38051724,25.32703555],[56.37646472,25.33104765],[56.37750471,25.33545697],[56.38085365,25.33494985],[56.38137245,25.33596802],[56.37801754,25.34027243],[56.37423694,25.34222364],[56.37647104,25.34431803],[56.37607098,25.34847045],[56.37087715,25.35076904],[56.36576498,25.35905623],[56.36538112,25.35918045],[56.36294115,25.35697174],[56.36591744,25.3507539],[56.36301208,25.34999037],[56.36085451,25.34797275],[56.36047602,25.34796858],[56.35816288,25.34926808],[56.35167432,25.35445595],[56.35146546,25.35477138],[56.34885311,25.360798],[56.34855807,25.36457956],[56.34853685,25.36531997],[56.34864283,25.36904395],[56.35031247,25.37174726],[56.35303044,25.372666],[56.35389304,25.37469006],[56.35656691,25.37309921],[56.35826325,25.37462056],[56.35960746,25.38266492],[56.36509657,25.39357674],[56.36678266,25.40599883],[56.36689055,25.40697062],[56.36458814,25.42228734],[56.36543226,25.42791891],[56.36153805,25.42933142],[56.35957384,25.43261707],[56.35933793,25.44853056],[56.36042845,25.44945431],[56.36322546,25.46329021],[56.36207962,25.46934056],[56.36381066,25.47258651],[56.36199558,25.47689092],[56.36288595,25.48000121],[56.36228895,25.48358774],[56.36211193,25.48421884],[56.35930192,25.48766732],[56.35957384,25.48828125],[56.35945737,25.48828125],[56.36007237,25.49099314],[56.36230206,25.49302566],[56.36143386,25.49592447],[56.37022924,25.51883507],[56.36845493,25.52033675],[56.37021363,25.52296591],[56.37024677,25.52661037],[56.36866212,25.53142083],[56.36460531,25.53274763],[56.36335576,25.5358479],[56.36066115,25.53705466],[56.36142397,25.54143286],[56.35612714,25.54802871],[56.35395324,25.56300664],[56.35396826,25.56695855],[56.35516131,25.57732964],[56.35721326,25.58593464],[56.35721374,25.58681595],[56.35664105,25.59354544],[56.35598886,25.59557915],[56.35491621,25.59735644],[56.35304785,25.59813035],[56.34753406,25.59669983],[56.34700322,25.59691036],[56.34359264,25.60051966],[56.33880353,25.60144925],[56.33638465,25.60440552],[56.33248067,25.60232162],[56.32742715,25.60271168],[56.30959952,25.61055172],[56.30499423,25.61099327],[56.30396974,25.60932887],[56.30143487,25.6132586],[56.29731762,25.61575675],[56.29621577,25.61499393],[56.29978216,25.61323726],[56.30041635,25.61033142],[56.29303181,25.60839426],[56.292418,25.6100744],[56.29473662,25.61306834],[56.29137695,25.61100245],[56.29117572,25.61062992],[56.29219365,25.60674524],[56.29176855,25.60630524],[56.28987646,25.60579586],[56.28416705,25.60912585],[56.28200245,25.61077011],[56.27618062,25.61617386],[56.27076817,25.62509954],[56.27048135,25.62607884],[56.26971221,25.62946033],[56.26802194,25.64070475],[56.26853812,25.6465106],[56.26898766,25.64823461],[56.27204275,25.65055704],[56.27149296,25.65218902],[56.27020276,25.6517266],[56.26812851,25.65312612],[56.26917052,25.6640625],[56.26918733,25.6640625],[56.26922011,25.66446817],[56.27355671,25.67561662],[56.27737772,25.67567062],[56.28393745,25.6817559],[56.28021693,25.68845046],[56.28145421,25.69092703],[56.27839482,25.69125652],[56.27840257,25.69383335],[56.28236306,25.69514287],[56.28523433,25.69875753],[56.27304995,25.70088875],[56.27292037,25.70118773],[56.27288806,25.70525086],[56.27517927,25.70747864],[56.27571797,25.71219265],[56.28078485,25.71819425],[56.28133941,25.72043443],[56.28303576,25.7209053],[56.28333294,25.72119701],[56.28632081,25.72529554],[56.28687251,25.72750557],[56.28991187,25.72870076],[56.29257906,25.73389435],[56.29643571,25.73739958],[56.30338442,25.74032235],[56.30338836,25.74211991],[56.30311418,25.74233997],[56.30068874,25.74203956],[56.30031085,25.74268341],[56.30070615,25.74308956],[56.30301893,25.74486315],[56.30637968,25.74413705],[56.30596375,25.74604952],[56.31238925,25.75090885],[56.31368077,25.75491774],[56.31107867,25.75611067],[56.31142664,25.75862706],[56.31857026,25.76586366],[56.32183826,25.76632905],[56.32124925,25.76160431],[56.31595051,25.75378036],[56.31452346,25.74689567],[56.30822754,25.73870063],[56.30669785,25.73461366],[56.30732715,25.73347044],[56.31075835,25.73468637],[56.32192922,25.74523556],[56.33289313,25.75225675],[56.33499205,25.75743091],[56.34155834,25.76729608],[56.34148157,25.77182758],[56.33959126,25.77430856],[56.34033287,25.77480304],[56.3417176,25.77335966],[56.3450098,25.77383244],[56.34875464,25.77939558],[56.34525585,25.78832352],[56.3440485,25.78891754],[56.3449707,25.79295683],[56.34319866,25.79535556],[56.34587395,25.79727161],[56.34642637,25.80209744],[56.34865105,25.79885125],[56.34924126,25.79322565],[56.35113883,25.79108643],[56.35046911,25.78996015],[56.35292184,25.78741062],[56.36047077,25.79646015],[56.36124802,25.80190623],[56.35867548,25.80627036],[56.35865545,25.80925572],[56.36367285,25.8030498],[56.37065625,25.80731964],[56.37072563,25.81018162],[56.36927116,25.81056261],[56.36796355,25.81629145],[56.37064385,25.81813288],[56.37046325,25.82422793],[56.37305164,25.82906616],[56.36809564,25.83188522],[56.36416924,25.83175957],[56.36042464,25.83755386],[56.36141062,25.83984375],[56.36126804,25.83998418],[56.36330855,25.84087634],[56.36689961,25.84036851],[56.36805677,25.84130168],[56.36749744,25.83984375],[56.36759996,25.83984375],[56.36798835,25.83876467],[56.36847675,25.83851266],[56.37051892,25.83843756],[56.37129021,25.83685374],[56.37227392,25.83643115],[56.37552035,25.83629763],[56.37749314,25.83756387],[56.38229895,25.83792877],[56.38260865,25.83807433],[56.38431156,25.83984375],[56.38485861,25.83984375],[56.38589764,25.84213912],[56.38592887,25.84372032],[56.38412631,25.84801996],[56.37756443,25.85097432],[56.37323987,25.85176802],[56.36864614,25.85106313],[56.36883914,25.85513544],[56.36740625,25.85681045],[56.37618351,25.86109924],[56.37848675,25.86053658],[56.37852216,25.85845005],[56.38753355,25.85815883],[56.38886905,25.85720253],[56.39404166,25.8593564],[56.39671552,25.86249661],[56.39616215,25.86394441],[56.39855993,25.86740506],[56.40030992,25.86793745],[56.40351701,25.87763667],[56.40550196,25.88023615],[56.40529907,25.88124394],[56.40368164,25.88062048],[56.40088391,25.88269496],[56.40273607,25.88371933],[56.40899718,25.89298928],[56.40981936,25.89435315],[56.41008794,25.89694476],[56.40988743,25.89776301],[56.40958202,25.89830935],[56.40617132,25.89939797],[56.40392184,25.90087473],[56.40325391,25.90222251],[56.39744961,25.90137351],[56.39582431,25.90142834],[56.39528751,25.90204942],[56.39335001,25.90812433],[56.39358914,25.90960646],[56.39521015,25.91445625],[56.39752161,25.91451704],[56.39424336,25.91714847],[56.39628601,25.91978073],[56.39277947,25.9227854],[56.39626193,25.92640436],[56.39582455,25.92953706],[56.39453614,25.93046963],[56.39462054,25.93357766],[56.39622355,25.93514705],[56.39989793,25.93523407],[56.40217078,25.93473005],[56.40288556,25.93413985],[56.40483534,25.93060923],[56.4088788,25.93168402],[56.41097415,25.92987442],[56.41429675,25.93129444],[56.41503418,25.93106473],[56.41792166,25.92956412],[56.41685915,25.92581201],[56.41829264,25.92432272],[56.41719222,25.92339087],[56.41843891,25.92271757],[56.42032397,25.92307317],[56.42485094,25.92896354],[56.43406355,25.92915845],[56.43625295,25.92614233],[56.44049418,25.92435706],[56.44252181,25.92216825],[56.44427872,25.92367971],[56.44150865,25.93059587],[56.44129372,25.93481255],[56.44662547,25.9378103],[56.45129156,25.93865836],[56.45438921,25.94111907],[56.45430172,25.94257104],[56.45474195,25.94297862],[56.45549626,25.94343067],[56.46568092,25.9416835]],[[56.36798477,25.42746973],[56.36962128,25.42737806],[56.37068641,25.42865705],[56.37032938,25.42907238],[56.36954427,25.42925525],[56.36794722,25.42797971],[56.36798477,25.42746973]],[[56.37702644,25.35215223],[56.37899172,25.35209215],[56.37991107,25.35261142],[56.38000703,25.35322487],[56.37934375,25.35380375],[56.37837315,25.35420656],[56.37758207,25.3536731],[56.37684596,25.35250044],[56.37702644,25.35215223]],[[56.3662492,25.01021338],[56.36811423,25.00418591],[56.36849177,25.00429833],[56.36795795,25.00948274],[56.36886156,25.01021814],[56.36793816,25.02035034],[56.36873376,25.02449155],[56.36886692,25.02491307],[56.37056756,25.02664232],[56.37113404,25.02694654],[56.37606907,25.02830696],[56.37605905,25.02888525],[56.37557864,25.02908444],[56.37113905,25.02777493],[56.36715972,25.02550662],[56.36184502,25.01216602],[56.3662492,25.01021338]],[[58.09882844,23.86216521],[58.09765255,23.86100471],[58.09622383,23.86159515],[58.09569192,23.86063194],[58.09559965,23.85972321],[58.09780276,23.85669804],[58.09820604,23.85662556],[58.10885274,23.85619795],[58.11412931,23.86073542],[58.11413515,23.86124635],[58.11228633,23.86172593],[58.10916364,23.85956871],[58.10803902,23.86213791],[58.10554004,23.86214042],[58.10450995,23.86129034],[58.10597146,23.85826862],[58.1022228,23.85897875],[58.09882844,23.86216521]],[[58.0907737,23.85476756],[58.09066701,23.85731947],[58.08907163,23.85626555],[58.08776617,23.85709333],[58.08657944,23.85608411],[58.08523703,23.85652614],[58.08290768,23.85450137],[58.08937275,23.85412014],[58.0907737,23.85476756]],[[58.07017553,23.85566711],[58.06884634,23.85643792],[58.05723774,23.85234725],[58.06499171,23.85377276],[58.06535721,23.85375977],[58.06835616,23.85188925],[58.06957054,23.85186517],[58.07237077,23.85247815],[58.07264924,23.85283041],[58.07263994,23.85383284],[58.07220352,23.85420728],[58.07008338,23.85420895],[58.07017553,23.85566711]],[[58.58367276,23.84146464],[58.58378541,23.84028065],[58.58521378,23.84028995],[58.58647823,23.84067094],[58.58658171,23.84402537],[58.58383191,23.8418045],[58.58367276,23.84146464]],[[58.17167616,23.83897054],[58.17079151,23.83689153],[58.17226315,23.83735704],[58.17229748,23.83841884],[58.17350256,23.83684027],[58.1735183,23.83853912],[58.17209816,23.83878553],[58.17167616,23.83897054]],[[57.98105073,23.83659077],[57.97529685,23.83869541],[57.96972895,23.83895075],[57.96857035,23.83828115],[57.98105073,23.83659077]],[[57.7824614,23.78965545],[57.78422773,23.78834105],[57.78448975,23.78860712],[57.7843014,23.78948522],[57.78294051,23.79073656],[57.78233075,23.79073656],[57.7824614,23.78965545]],[[57.79054308,23.78918695],[57.79775763,23.78453791],[57.79953027,23.78426743],[57.80142105,23.78559303],[57.80230832,23.78616846],[57.80127323,23.78743458],[57.79786456,23.78847265],[57.79153895,23.78917396],[57.79054308,23.78918695]],[[57.78286612,23.78810835],[57.78175902,23.78855145],[57.78128517,23.78791153],[57.78154671,23.78707445],[57.78309286,23.78564227],[57.78377295,23.78581965],[57.78417993,23.7864778],[57.78337574,23.78776217],[57.78286612,23.78810835]],[[58.50155902,23.68384576],[58.50048554,23.67861712],[58.50377882,23.68197274],[58.50171471,23.68139553],[58.50173724,23.68176627],[58.50240052,23.68352008],[58.50155902,23.68384576]],[[58.64971125,23.55210984],[58.64774442,23.55126584],[58.6507225,23.55222774],[58.64971125,23.55210984]],[[58.72658181,23.52371025],[58.73086631,23.52350855],[58.73161113,23.5237478],[58.73360014,23.52481544],[58.73580766,23.52480471],[58.73614144,23.52374804],[58.73651278,23.52377141],[58.73818302,23.52436864],[58.73901975,23.52554131],[58.73966682,23.52830315],[58.73932707,23.52861011],[58.73546982,23.52836621],[58.73018241,23.53034592],[58.7282865,23.529603],[58.72796583,23.52977085],[58.72715366,23.53134787],[58.72557735,23.52509701],[58.72565126,23.52475548],[58.72658181,23.52371025]],[[59.72795486,22.5163933],[59.72892165,22.51633751],[59.72927165,22.51646245],[59.73219264,22.51966643],[59.73010707,22.52214313],[59.72743344,22.51769412],[59.72733664,22.51730752],[59.72795486,22.5163933]],[[59.75241005,22.48465955],[59.75463903,22.48343956],[59.75628865,22.48538923],[59.75399923,22.48641145],[59.75241005,22.48465955]],[[59.75013638,22.48430896],[59.74941361,22.48452795],[59.74726021,22.48312414],[59.74954724,22.48017895],[59.74989951,22.48047817],[59.75050485,22.48380613],[59.75013638,22.48430896]],[[61.74062204,25.13287485],[61.74231744,25.13671875],[61.74250925,25.13671875],[61.74326634,25.13976824],[61.74066985,25.13861513],[61.74066055,25.13671875],[61.74077821,25.13671875],[61.74025965,25.1329354],[61.74062204,25.13287485]],[[61.53405726,25.18572354],[61.53372848,25.18579805],[61.53182054,25.18539095],[61.52879596,25.18229473],[61.52885365,25.18200338],[61.53157484,25.18180144],[61.53374493,25.18236744],[61.53408885,25.18279684],[61.53405726,25.18572354]],[[58.00044095,25.65825701],[57.99996972,25.65912366],[57.99730933,25.65729892],[58.00132191,25.65519094],[58.00221503,25.6574651],[58.00198436,25.65806901],[58.00044095,25.65825701]]]]},"geometry_name":"the_geom","properties":{"name":"Gulf of Oman","id":"40","longitude":58.91105531904,"latitude":24.49666927478,"min_x":56.26802194086,"min_y":22.4749455453,"max_x":61.78247284894,"max_y":25.94343067192,"area":111892,"mrgid":4267}}],"totalFeatures":1,"numberMatched":1,"numberReturned":1,"timeStamp":"2026-03-03T13:53:21.699Z","crs":{"type":"name","properties":{"name":"urn:ogc:def:crs:EPSG::4326"}}}