{"type":"FeatureCollection","features":[{"type":"Feature","properties":{"name":"JWC War Risk Zone - Arabian Sea","description":"JWC Listed Areas - Hull War, Piracy, Terrorism and Related Perils"},"geometry":{"type":"Polygon","coordinates":[[[60.8,24.8],[61.5,23.2],[62.0,22.5],[62.5,22.0],[63.35,23.0],[63.5,23.5],[64.5,24.1],[65.0,25.3208],[65.0,22.0],[65.0,18.0],[65.0,14.0],[65.0,10.8],[60.25,10.8],[51.3,11.7],[51.0,12.0],[55.2,17.0],[57.5,20.8],[58.5,21.5],[59.0,22.0],[60.0,22.5],[60.5,23.0],[60.8,24.8]]]}},{"type":"Feature","properties":{"name":"JWC War Risk Zone - Gulf of Aden & Gulf of Oman","description":"JWC Listed Areas - Hull War, Piracy, Terrorism and Related Perils"},"geometry":{"type":"Polygon","coordinates":[[[43.35,11.6],[44.5,11.5],[46.0,11.0],[48.0,11.3],[49.5,11.5],[50.4,11.9],[51.3,11.7],[56.5,22.0],[55.0,22.8],[58.5,21.5],[57.5,20.8],[55.2,17.0],[53.0,14.0],[52.0,13.5],[50.5,14.5],[48.0,14.5],[46.0,14.0],[44.9,12.5],[43.5,12.0],[43.35,11.6]]]}},{"type":"Feature","properties":{"name":"JWC War Risk Zone - Persian Gulf","description":"JWC Listed Areas - Hull War, Piracy, Terrorism and Related Perils"},"geometry":{"type":"Polygon","coordinates":[[[56.28,26.35],[56.5,25.5],[57.5,24.0],[58.0,23.5],[58.6,22.6],[57.8,22.0],[57.2,21.5],[55.0,22.8],[54.5,23.0],[52.5,24.5],[51.0,24.8],[50.5,25.5],[49.8,26.5],[49.0,27.5],[48.3,29.0],[48.0,29.5],[48.4,30.0],[47.7,30.0],[47.0,29.5],[48.5,30.5],[49.0,30.2],[50.0,29.8],[50.8,28.8],[51.9,27.7],[53.0,26.6],[54.0,25.8],[54.6,25.5],[55.5,25.7],[56.28,26.35]]]}},{"type":"Feature","properties":{"name":"JWC War Risk Zone - Red Sea (South of 18\u00b0N)","description":"JWC Listed Areas - Hull War, Piracy, Terrorism and Related Perils"},"geometry":{"type":"Polygon","coordinates":[[[37.2,18.0],[37.5,17.0],[38.0,16.0],[38.5,15.0],[39.0,14.0],[39.5,13.0],[40.0,12.5],[40.5,12.0],[41.5,11.5],[42.0,11.5],[42.5,11.7],[43.0,11.8],[43.35,11.6],[43.4,12.0],[43.0,13.0],[42.8,14.0],[42.5,15.0],[41.8,16.0],[41.5,17.0],[41.0,18.0],[41.8,18.0],[41.0,18.0],[40.0,18.0],[39.0,18.0],[38.0,18.0],[37.2,18.0]]]}},{"type":"Feature","properties":{"name":"JWC War Risk Zone - Indian Ocean / Somalia Basin","description":"JWC Listed Areas - Hull War, Piracy, Terrorism and Related Perils"},"geometry":{"type":"Polygon","coordinates":[[[51.3,11.7],[50.4,11.9],[49.5,11.5],[48.0,11.3],[46.5,11.0],[51.5,11.5],[51.8,10.0],[52.0,7.0],[50.8,5.0],[45.5,1.5],[42.0,-1.0],[41.5667,-1.6667],[44.0,-3.5],[45.5,-4.5],[47.0,-5.5],[48.75,-6.75],[55.0,3.0],[57.0,6.0],[58.5,8.5],[60.25,10.8],[65.0,10.8],[65.0,11.5],[51.3,11.7]]]}}]}